{
"type": "FeatureCollection",
"name": "altadena_oak",
"crs": { "type": "name", "properties": { "name": "urn:ogc:def:crs:OGC:1.3:CRS84" } },
"features": [
{ "type": "Feature", "properties": { "observed_on": "2/13/2013", "updated_at": "2016-02-14 21:31:05 UTC", "num_identification_agreements": 2, "place_guess": null, "latitude": 34.1742731, "longitude": -118.1045545, "positional_accuracy": 1409.0, "public_positional_accuracy": 1409.0, "scientific_name": "Quercus agrifolia", "common_name": "coast live oak" }, "geometry": { "type": "Point", "coordinates": [ -118.1045545, 34.1742731 ] } },
{ "type": "Feature", "properties": { "observed_on": "11/26/2013", "updated_at": "2020-07-17 23:25:42 UTC", "num_identification_agreements": 1, "place_guess": "3990 North Fair Oaks 91001", "latitude": 34.208118, "longitude": -118.140543, "positional_accuracy": 195.0, "public_positional_accuracy": 195.0, "scientific_name": "Quercus agrifolia", "common_name": "coast live oak" }, "geometry": { "type": "Point", "coordinates": [ -118.140543, 34.208118 ] } },
{ "type": "Feature", "properties": { "observed_on": "10/3/2014", "updated_at": "2014-10-18 00:43:04 UTC", "num_identification_agreements": 1, "place_guess": "Los Flores Canyon", "latitude": 34.205568, "longitude": -118.12723, "positional_accuracy": 3.0, "public_positional_accuracy": 3.0, "scientific_name": "Quercus agrifolia", "common_name": "coast live oak" }, "geometry": { "type": "Point", "coordinates": [ -118.12723, 34.205568 ] } },
{ "type": "Feature", "properties": { "observed_on": "11/16/2014", "updated_at": "2014-11-18 00:41:30 UTC", "num_identification_agreements": 1, "place_guess": "Altadena", "latitude": 34.190162, "longitude": -118.131319, "positional_accuracy": 4936.0, "public_positional_accuracy": 4936.0, "scientific_name": "Quercus agrifolia", "common_name": "coast live oak" }, "geometry": { "type": "Point", "coordinates": [ -118.131319, 34.190162 ] } },
{ "type": "Feature", "properties": { "observed_on": "11/18/2014", "updated_at": "2014-11-19 06:16:57 UTC", "num_identification_agreements": 0, "place_guess": null, "latitude": 34.214541, "longitude": -118.146236, "positional_accuracy": 3.0, "public_positional_accuracy": 3.0, "scientific_name": "Quercus agrifolia", "common_name": "coast live oak" }, "geometry": { "type": "Point", "coordinates": [ -118.146236, 34.214541 ] } },
{ "type": "Feature", "properties": { "observed_on": "12/7/2014", "updated_at": "2016-03-26 19:11:08 UTC", "num_identification_agreements": 1, "place_guess": "Los Angeles County, US-CA, US", "latitude": 34.20576069, "longitude": -118.1328623, "positional_accuracy": 42.0, "public_positional_accuracy": 42.0, "scientific_name": "Quercus agrifolia", "common_name": "coast live oak" }, "geometry": { "type": "Point", "coordinates": [ -118.1328623, 34.20576069 ] } },
{ "type": "Feature", "properties": { "observed_on": "3/11/2015", "updated_at": "2020-10-19 18:44:45 UTC", "num_identification_agreements": 1, "place_guess": "Eliot Middle School, Altadena, CA, US", "latitude": 34.183212, "longitude": -118.129785, "positional_accuracy": null, "public_positional_accuracy": null, "scientific_name": "Quercus agrifolia", "common_name": "coast live oak" }, "geometry": { "type": "Point", "coordinates": [ -118.129785, 34.183212 ] } },
{ "type": "Feature", "properties": { "observed_on": "5/10/2015", "updated_at": "2018-10-26 22:59:29 UTC", "num_identification_agreements": 1, "place_guess": "Owen Brown's Grave", "latitude": 34.216297, "longitude": -118.160727, "positional_accuracy": 64.0, "public_positional_accuracy": 64.0, "scientific_name": "Quercus agrifolia", "common_name": "coast live oak" }, "geometry": { "type": "Point", "coordinates": [ -118.160727, 34.216297 ] } },
{ "type": "Feature", "properties": { "observed_on": "7/14/2015", "updated_at": "2018-10-29 03:06:07 UTC", "num_identification_agreements": 1, "place_guess": "Los Angeles County, US-CA, US", "latitude": 34.20573576, "longitude": -118.1285616, "positional_accuracy": 6.0, "public_positional_accuracy": 6.0, "scientific_name": "Quercus agrifolia", "common_name": "coast live oak" }, "geometry": { "type": "Point", "coordinates": [ -118.1285616, 34.20573576 ] } },
{ "type": "Feature", "properties": { "observed_on": "7/26/2015", "updated_at": "2019-02-15 04:07:42 UTC", "num_identification_agreements": 2, "place_guess": "Los Angeles, California, United States", "latitude": 34.204115, "longitude": -118.1310031, "positional_accuracy": null, "public_positional_accuracy": null, "scientific_name": "Quercus agrifolia", "common_name": "coast live oak" }, "geometry": { "type": "Point", "coordinates": [ -118.1310031, 34.204115 ] } },
{ "type": "Feature", "properties": { "observed_on": "9/7/2016", "updated_at": "2019-12-27 01:22:58 UTC", "num_identification_agreements": 0, "place_guess": "Altadena, CA, USA", "latitude": 34.18400932, "longitude": -118.1028128, "positional_accuracy": 61.0, "public_positional_accuracy": 61.0, "scientific_name": "Quercus agrifolia", "common_name": "coast live oak" }, "geometry": { "type": "Point", "coordinates": [ -118.1028128, 34.18400932 ] } },
{ "type": "Feature", "properties": { "observed_on": "4/8/2017", "updated_at": "2017-04-09 14:27:28 UTC", "num_identification_agreements": 0, "place_guess": "Los Angeles, California, United States", "latitude": 34.20417778, "longitude": -118.126, "positional_accuracy": null, "public_positional_accuracy": null, "scientific_name": "Quercus agrifolia", "common_name": "coast live oak" }, "geometry": { "type": "Point", "coordinates": [ -118.126, 34.20417778 ] } },
{ "type": "Feature", "properties": { "observed_on": "4/17/2017", "updated_at": "2018-11-26 20:39:11 UTC", "num_identification_agreements": 1, "place_guess": "Los Angeles County, US-CA, US", "latitude": 34.19233847, "longitude": -118.1129531, "positional_accuracy": 5.0, "public_positional_accuracy": 5.0, "scientific_name": "Quercus agrifolia", "common_name": "coast live oak" }, "geometry": { "type": "Point", "coordinates": [ -118.1129531, 34.19233847 ] } },
{ "type": "Feature", "properties": { "observed_on": "6/11/2017", "updated_at": "2017-06-12 05:14:40 UTC", "num_identification_agreements": 0, "place_guess": "Sam Merrill Trail, Altadena, CA 91001美国", "latitude": 34.204006, "longitude": -118.1286487, "positional_accuracy": 194.0, "public_positional_accuracy": 194.0, "scientific_name": "Quercus agrifolia", "common_name": "coast live oak" }, "geometry": { "type": "Point", "coordinates": [ -118.1286487, 34.204006 ] } },
{ "type": "Feature", "properties": { "observed_on": "6/29/2017", "updated_at": "2017-07-25 03:46:38 UTC", "num_identification_agreements": 0, "place_guess": "Altadena, CA, USA", "latitude": 34.19523333, "longitude": -118.154975, "positional_accuracy": null, "public_positional_accuracy": null, "scientific_name": "Quercus agrifolia", "common_name": "coast live oak" }, "geometry": { "type": "Point", "coordinates": [ -118.154975, 34.19523333 ] } },
{ "type": "Feature", "properties": { "observed_on": "6/29/2017", "updated_at": "2017-08-03 00:33:56 UTC", "num_identification_agreements": 1, "place_guess": "3506 Giddings Ranch Rd, Altadena, CA, US", "latitude": 34.204975, "longitude": -118.1584083, "positional_accuracy": null, "public_positional_accuracy": null, "scientific_name": "Quercus agrifolia", "common_name": "coast live oak" }, "geometry": { "type": "Point", "coordinates": [ -118.1584083, 34.204975 ] } },
{ "type": "Feature", "properties": { "observed_on": "8/29/2017", "updated_at": "2018-11-14 03:32:16 UTC", "num_identification_agreements": 1, "place_guess": "Sam Merrill Trail, Altadena, CA 91001, USA", "latitude": 34.20416, "longitude": -118.1290019, "positional_accuracy": 16.0, "public_positional_accuracy": 16.0, "scientific_name": "Quercus agrifolia", "common_name": "coast live oak" }, "geometry": { "type": "Point", "coordinates": [ -118.1290019, 34.20416 ] } },
{ "type": "Feature", "properties": { "observed_on": "9/11/2017", "updated_at": "2024-07-27 23:57:08 UTC", "num_identification_agreements": 1, "place_guess": "Angeles National Forest, Altadena, CA, US", "latitude": 34.20865, "longitude": -118.1453638, "positional_accuracy": null, "public_positional_accuracy": null, "scientific_name": "Quercus agrifolia", "common_name": "coast live oak" }, "geometry": { "type": "Point", "coordinates": [ -118.1453638, 34.20865 ] } },
{ "type": "Feature", "properties": { "observed_on": "9/18/2017", "updated_at": "2017-10-02 22:05:14 UTC", "num_identification_agreements": 1, "place_guess": "Los Angeles County, US-CA, US", "latitude": 34.20472323, "longitude": -118.1587813, "positional_accuracy": 4000.0, "public_positional_accuracy": 4000.0, "scientific_name": "Quercus agrifolia", "common_name": "coast live oak" }, "geometry": { "type": "Point", "coordinates": [ -118.1587813, 34.20472323 ] } },
{ "type": "Feature", "properties": { "observed_on": "10/8/2017", "updated_at": "2017-10-08 23:30:25 UTC", "num_identification_agreements": 0, "place_guess": "Angeles National Forest, Altadena, CA, US", "latitude": 34.20897167, "longitude": -118.1628722, "positional_accuracy": null, "public_positional_accuracy": null, "scientific_name": "Quercus agrifolia", "common_name": "coast live oak" }, "geometry": { "type": "Point", "coordinates": [ -118.1628722, 34.20897167 ] } },
{ "type": "Feature", "properties": { "observed_on": "11/18/2017", "updated_at": "2018-02-12 03:51:51 UTC", "num_identification_agreements": 1, "place_guess": "3812-3868 Chaney Trail, Altadena, CA 91001, USA", "latitude": 34.20918921, "longitude": -118.1457059, "positional_accuracy": 15.0, "public_positional_accuracy": 15.0, "scientific_name": "Quercus agrifolia", "common_name": "coast live oak" }, "geometry": { "type": "Point", "coordinates": [ -118.1457059, 34.20918921 ] } },
{ "type": "Feature", "properties": { "observed_on": "2/27/2018", "updated_at": "2018-04-28 01:57:01 UTC", "num_identification_agreements": 2, "place_guess": "4041 Chaney Trail, Altadena, CA 91001", "latitude": 34.213463, "longitude": -118.147858, "positional_accuracy": null, "public_positional_accuracy": null, "scientific_name": "Quercus agrifolia", "common_name": "coast live oak" }, "geometry": { "type": "Point", "coordinates": [ -118.147858, 34.213463 ] } },
{ "type": "Feature", "properties": { "observed_on": "3/7/2018", "updated_at": "2018-03-11 22:31:37 UTC", "num_identification_agreements": 0, "place_guess": "Sam Merrill Trail, Altadena, CA 91001, USA", "latitude": 34.20667741, "longitude": -118.1247742, "positional_accuracy": 16.0, "public_positional_accuracy": 16.0, "scientific_name": "Quercus agrifolia", "common_name": "coast live oak" }, "geometry": { "type": "Point", "coordinates": [ -118.1247742, 34.20667741 ] } },
{ "type": "Feature", "properties": { "observed_on": "3/7/2018", "updated_at": "2018-03-08 20:57:51 UTC", "num_identification_agreements": 0, "place_guess": "Angeles National Forest, Altadena, CA, US", "latitude": 34.20613667, "longitude": -118.1328667, "positional_accuracy": 464.0, "public_positional_accuracy": 464.0, "scientific_name": "Quercus agrifolia", "common_name": "coast live oak" }, "geometry": { "type": "Point", "coordinates": [ -118.1328667, 34.20613667 ] } },
{ "type": "Feature", "properties": { "observed_on": "3/7/2018", "updated_at": "2018-03-11 05:43:40 UTC", "num_identification_agreements": 0, "place_guess": "安琪勒國家森林, 阿塔迪納, CA, US", "latitude": 34.20433833, "longitude": -118.1273195, "positional_accuracy": 5.0, "public_positional_accuracy": 5.0, "scientific_name": "Quercus agrifolia", "common_name": "coast live oak" }, "geometry": { "type": "Point", "coordinates": [ -118.1273195, 34.20433833 ] } },
{ "type": "Feature", "properties": { "observed_on": "3/7/2018", "updated_at": "2018-03-11 20:51:31 UTC", "num_identification_agreements": 0, "place_guess": "安奇勒斯国家森林区, 阿尔塔迪纳, CA, US", "latitude": 34.20753026, "longitude": -118.1232193, "positional_accuracy": 191.0, "public_positional_accuracy": 191.0, "scientific_name": "Quercus agrifolia", "common_name": "coast live oak" }, "geometry": { "type": "Point", "coordinates": [ -118.1232193, 34.20753026 ] } },
{ "type": "Feature", "properties": { "observed_on": "3/7/2018", "updated_at": "2024-12-30 16:36:49 UTC", "num_identification_agreements": 0, "place_guess": "Sam Merrill Trail, Altadena, CA 91001, USA", "latitude": 34.2046022, "longitude": -118.1278435, "positional_accuracy": 258.0, "public_positional_accuracy": 258.0, "scientific_name": "Quercus agrifolia", "common_name": "coast live oak" }, "geometry": { "type": "Point", "coordinates": [ -118.1278435, 34.2046022 ] } },
{ "type": "Feature", "properties": { "observed_on": "3/11/2018", "updated_at": "2018-03-12 05:07:29 UTC", "num_identification_agreements": 1, "place_guess": "Angeles National Forest, Altadena, CA, US", "latitude": 34.20444065, "longitude": -118.1273306, "positional_accuracy": 16.0, "public_positional_accuracy": 16.0, "scientific_name": "Quercus agrifolia", "common_name": "coast live oak" }, "geometry": { "type": "Point", "coordinates": [ -118.1273306, 34.20444065 ] } },
{ "type": "Feature", "properties": { "observed_on": "2/28/2018", "updated_at": "2018-03-18 23:00:51 UTC", "num_identification_agreements": 0, "place_guess": "Millard Canyon Rd, Altadena, CA 91001美国", "latitude": 34.2098272, "longitude": -118.157201, "positional_accuracy": 194.0, "public_positional_accuracy": 194.0, "scientific_name": "Quercus agrifolia", "common_name": "coast live oak" }, "geometry": { "type": "Point", "coordinates": [ -118.157201, 34.2098272 ] } },
{ "type": "Feature", "properties": { "observed_on": "3/14/2018", "updated_at": "2018-03-19 06:23:50 UTC", "num_identification_agreements": 0, "place_guess": "Sam Merrill Trail, Altadena, CA 91001, USA", "latitude": 34.20459222, "longitude": -118.1277593, "positional_accuracy": 1032.0, "public_positional_accuracy": 1032.0, "scientific_name": "Quercus agrifolia", "common_name": "coast live oak" }, "geometry": { "type": "Point", "coordinates": [ -118.1277593, 34.20459222 ] } },
{ "type": "Feature", "properties": { "observed_on": "4/26/2018", "updated_at": "2018-05-23 03:37:49 UTC", "num_identification_agreements": 1, "place_guess": "Los Angeles County, US-CA, US", "latitude": 34.1836896, "longitude": -118.1651119, "positional_accuracy": 800.0, "public_positional_accuracy": 800.0, "scientific_name": "Quercus agrifolia", "common_name": "coast live oak" }, "geometry": { "type": "Point", "coordinates": [ -118.1651119, 34.1836896 ] } },
{ "type": "Feature", "properties": { "observed_on": "4/26/2018", "updated_at": "2018-04-30 07:19:45 UTC", "num_identification_agreements": 0, "place_guess": "Los Angeles County, US-CA, US", "latitude": 34.1952356, "longitude": -118.150851, "positional_accuracy": 899.0, "public_positional_accuracy": 899.0, "scientific_name": "Quercus agrifolia", "common_name": "coast live oak" }, "geometry": { "type": "Point", "coordinates": [ -118.150851, 34.1952356 ] } },
{ "type": "Feature", "properties": { "observed_on": "4/29/2018", "updated_at": "2018-05-01 05:00:49 UTC", "num_identification_agreements": 1, "place_guess": "Loma Alta Park, Altadena, CA, US", "latitude": 34.20028158, "longitude": -118.1567565, "positional_accuracy": 5.0, "public_positional_accuracy": 5.0, "scientific_name": "Quercus agrifolia", "common_name": "coast live oak" }, "geometry": { "type": "Point", "coordinates": [ -118.1567565, 34.20028158 ] } },
{ "type": "Feature", "properties": { "observed_on": "4/29/2018", "updated_at": "2019-08-10 18:08:51 UTC", "num_identification_agreements": 1, "place_guess": "Loma Alta Park, Altadena, CA, US", "latitude": 34.20052088, "longitude": -118.1573533, "positional_accuracy": 10.0, "public_positional_accuracy": 10.0, "scientific_name": "Quercus agrifolia", "common_name": "coast live oak" }, "geometry": { "type": "Point", "coordinates": [ -118.1573533, 34.20052088 ] } },
{ "type": "Feature", "properties": { "observed_on": "4/29/2018", "updated_at": "2019-12-19 19:20:17 UTC", "num_identification_agreements": 2, "place_guess": "Los Angeles County, US-CA, US", "latitude": 34.21139624, "longitude": -118.1615238, "positional_accuracy": 5.0, "public_positional_accuracy": 5.0, "scientific_name": "Quercus agrifolia", "common_name": "coast live oak" }, "geometry": { "type": "Point", "coordinates": [ -118.1615238, 34.21139624 ] } },
{ "type": "Feature", "properties": { "observed_on": "4/29/2018", "updated_at": "2018-05-01 05:00:54 UTC", "num_identification_agreements": 1, "place_guess": "Angeles National Forest, Altadena, CA, US", "latitude": 34.21313833, "longitude": -118.1603695, "positional_accuracy": 5.0, "public_positional_accuracy": 5.0, "scientific_name": "Quercus agrifolia", "common_name": "coast live oak" }, "geometry": { "type": "Point", "coordinates": [ -118.1603695, 34.21313833 ] } },
{ "type": "Feature", "properties": { "observed_on": "5/1/2018", "updated_at": "2018-05-01 21:23:17 UTC", "num_identification_agreements": 0, "place_guess": "2323-2373 Midwick Dr, Altadena, CA 91001, USA", "latitude": 34.1843308, "longitude": -118.1033065, "positional_accuracy": 1000.0, "public_positional_accuracy": 1000.0, "scientific_name": "Quercus agrifolia", "common_name": "coast live oak" }, "geometry": { "type": "Point", "coordinates": [ -118.1033065, 34.1843308 ] } },
{ "type": "Feature", "properties": { "observed_on": "5/1/2018", "updated_at": "2018-05-01 21:24:50 UTC", "num_identification_agreements": 0, "place_guess": "1890-1898 N Harding Ave, Altadena, CA 91001, USA", "latitude": 34.1787037, "longitude": -118.1014776, "positional_accuracy": 899.0, "public_positional_accuracy": 899.0, "scientific_name": "Quercus agrifolia", "common_name": "coast live oak" }, "geometry": { "type": "Point", "coordinates": [ -118.1014776, 34.1787037 ] } },
{ "type": "Feature", "properties": { "observed_on": "5/15/2018", "updated_at": "2018-12-17 06:28:31 UTC", "num_identification_agreements": 1, "place_guess": "508 E Mendocino St, Altadena, CA, US", "latitude": 34.18744503, "longitude": -118.1394389, "positional_accuracy": 6.0, "public_positional_accuracy": 6.0, "scientific_name": "Quercus agrifolia", "common_name": "coast live oak" }, "geometry": { "type": "Point", "coordinates": [ -118.1394389, 34.18744503 ] } },
{ "type": "Feature", "properties": { "observed_on": "5/15/2018", "updated_at": "2018-12-17 06:28:19 UTC", "num_identification_agreements": 1, "place_guess": "536 E Mendocino St, Altadena, CA, US", "latitude": 34.18736025, "longitude": -118.1387392, "positional_accuracy": 395.0, "public_positional_accuracy": 395.0, "scientific_name": "Quercus agrifolia", "common_name": "coast live oak" }, "geometry": { "type": "Point", "coordinates": [ -118.1387392, 34.18736025 ] } },
{ "type": "Feature", "properties": { "observed_on": "5/15/2018", "updated_at": "2018-05-18 22:55:02 UTC", "num_identification_agreements": 0, "place_guess": "2454-2470 Santa Anita Ave, Altadena, CA 91001, USA", "latitude": 34.18757536, "longitude": -118.139576, "positional_accuracy": 9.0, "public_positional_accuracy": 9.0, "scientific_name": "Quercus agrifolia", "common_name": "coast live oak" }, "geometry": { "type": "Point", "coordinates": [ -118.139576, 34.18757536 ] } },
{ "type": "Feature", "properties": { "observed_on": "5/23/2018", "updated_at": "2018-07-08 17:22:47 UTC", "num_identification_agreements": 1, "place_guess": "安奇勒斯国家森林区, 阿尔塔迪纳, CA, US", "latitude": 34.20448333, "longitude": -118.1266167, "positional_accuracy": 8.0, "public_positional_accuracy": 8.0, "scientific_name": "Quercus agrifolia", "common_name": "coast live oak" }, "geometry": { "type": "Point", "coordinates": [ -118.1266167, 34.20448333 ] } },
{ "type": "Feature", "properties": { "observed_on": "5/23/2018", "updated_at": "2025-01-19 00:34:53 UTC", "num_identification_agreements": 0, "place_guess": "安奇勒斯国家森林区, 阿尔塔迪纳, CA, US", "latitude": 34.20583847, "longitude": -118.1265827, "positional_accuracy": 610.0, "public_positional_accuracy": 610.0, "scientific_name": "Quercus agrifolia", "common_name": "coast live oak" }, "geometry": { "type": "Point", "coordinates": [ -118.1265827, 34.20583847 ] } },
{ "type": "Feature", "properties": { "observed_on": "5/23/2018", "updated_at": "2018-12-17 06:23:57 UTC", "num_identification_agreements": 1, "place_guess": "Angeles National Forest, Altadena, CA, US", "latitude": 34.20453333, "longitude": -118.1265417, "positional_accuracy": 5.0, "public_positional_accuracy": 5.0, "scientific_name": "Quercus agrifolia", "common_name": "coast live oak" }, "geometry": { "type": "Point", "coordinates": [ -118.1265417, 34.20453333 ] } },
{ "type": "Feature", "properties": { "observed_on": "5/23/2018", "updated_at": "2018-06-15 01:00:25 UTC", "num_identification_agreements": 1, "place_guess": "安奇勒斯国家森林区, 阿尔塔迪纳, CA, US", "latitude": 34.2044, "longitude": -118.1264805, "positional_accuracy": 64.0, "public_positional_accuracy": 64.0, "scientific_name": "Quercus agrifolia", "common_name": "coast live oak" }, "geometry": { "type": "Point", "coordinates": [ -118.1264805, 34.2044 ] } },
{ "type": "Feature", "properties": { "observed_on": "5/23/2018", "updated_at": "2018-10-11 04:42:47 UTC", "num_identification_agreements": 1, "place_guess": "安琪勒國家森林, 阿塔迪納, CA, US", "latitude": 34.20456667, "longitude": -118.1266112, "positional_accuracy": 5.0, "public_positional_accuracy": 5.0, "scientific_name": "Quercus agrifolia", "common_name": "coast live oak" }, "geometry": { "type": "Point", "coordinates": [ -118.1266112, 34.20456667 ] } },
{ "type": "Feature", "properties": { "observed_on": "5/23/2018", "updated_at": "2018-10-11 04:42:48 UTC", "num_identification_agreements": 1, "place_guess": "安琪勒國家森林, 阿塔迪納, CA, US", "latitude": 34.20402833, "longitude": -118.1261138, "positional_accuracy": 5.0, "public_positional_accuracy": 5.0, "scientific_name": "Quercus agrifolia", "common_name": "coast live oak" }, "geometry": { "type": "Point", "coordinates": [ -118.1261138, 34.20402833 ] } },
{ "type": "Feature", "properties": { "observed_on": "11/18/2018", "updated_at": "2018-11-19 02:20:47 UTC", "num_identification_agreements": 0, "place_guess": "2587 E Washington Blvd, Pasadena, CA 91107, USA", "latitude": 34.1702812, "longitude": -118.0967224, "positional_accuracy": 800.0, "public_positional_accuracy": 800.0, "scientific_name": "Quercus agrifolia", "common_name": "coast live oak" }, "geometry": { "type": "Point", "coordinates": [ -118.0967224, 34.1702812 ] } },
{ "type": "Feature", "properties": { "observed_on": "12/30/2018", "updated_at": "2018-12-30 23:25:41 UTC", "num_identification_agreements": 1, "place_guess": "Angeles National Forest, Altadena, CA, US", "latitude": 34.20470077, "longitude": -118.1269162, "positional_accuracy": 5.0, "public_positional_accuracy": 5.0, "scientific_name": "Quercus agrifolia", "common_name": "coast live oak" }, "geometry": { "type": "Point", "coordinates": [ -118.1269162, 34.20470077 ] } },
{ "type": "Feature", "properties": { "observed_on": "1/23/2019", "updated_at": "2019-01-23 23:58:22 UTC", "num_identification_agreements": 0, "place_guess": "3766 N Sunset Ridge Rd, Altadena, CA, US", "latitude": 34.2093531, "longitude": -118.1533282, "positional_accuracy": 5.0, "public_positional_accuracy": 5.0, "scientific_name": "Quercus agrifolia", "common_name": "coast live oak" }, "geometry": { "type": "Point", "coordinates": [ -118.1533282, 34.2093531 ] } },
{ "type": "Feature", "properties": { "observed_on": "1/23/2019", "updated_at": "2019-09-22 06:15:38 UTC", "num_identification_agreements": 0, "place_guess": "3766 N Sunset Ridge Rd, Altadena, CA, US", "latitude": 34.20906791, "longitude": -118.1532178, "positional_accuracy": 5.0, "public_positional_accuracy": 5.0, "scientific_name": "Quercus agrifolia", "common_name": "coast live oak" }, "geometry": { "type": "Point", "coordinates": [ -118.1532178, 34.20906791 ] } },
{ "type": "Feature", "properties": { "observed_on": "2/17/2019", "updated_at": "2019-03-02 00:19:53 UTC", "num_identification_agreements": 0, "place_guess": "1959 N Harding Ave, Altadena, CA 91001, USA", "latitude": 34.17966461, "longitude": -118.1014786, "positional_accuracy": null, "public_positional_accuracy": null, "scientific_name": "Quercus agrifolia", "common_name": "coast live oak" }, "geometry": { "type": "Point", "coordinates": [ -118.1014786, 34.17966461 ] } },
{ "type": "Feature", "properties": { "observed_on": "2/18/2019", "updated_at": "2019-03-11 01:59:59 UTC", "num_identification_agreements": 0, "place_guess": "Angeles National Forest, Altadena, CA, US", "latitude": 34.20873833, "longitude": -118.1449138, "positional_accuracy": 5.0, "public_positional_accuracy": 5.0, "scientific_name": "Quercus agrifolia", "common_name": "coast live oak" }, "geometry": { "type": "Point", "coordinates": [ -118.1449138, 34.20873833 ] } },
{ "type": "Feature", "properties": { "observed_on": "3/18/2019", "updated_at": "2019-03-18 19:26:19 UTC", "num_identification_agreements": 0, "place_guess": "Oak Grove Park, Pasadena, CA, US", "latitude": 34.19408136, "longitude": -118.1679794, "positional_accuracy": 32.0, "public_positional_accuracy": 32.0, "scientific_name": "Quercus agrifolia", "common_name": "coast live oak" }, "geometry": { "type": "Point", "coordinates": [ -118.1679794, 34.19408136 ] } },
{ "type": "Feature", "properties": { "observed_on": "4/7/2019", "updated_at": "2019-04-08 08:06:24 UTC", "num_identification_agreements": 0, "place_guess": "367 E Palm St, Altadena, CA, US", "latitude": 34.19441017, "longitude": -118.1391788, "positional_accuracy": 2008.0, "public_positional_accuracy": 2008.0, "scientific_name": "Quercus agrifolia", "common_name": "coast live oak" }, "geometry": { "type": "Point", "coordinates": [ -118.1391788, 34.19441017 ] } },
{ "type": "Feature", "properties": { "observed_on": "4/28/2019", "updated_at": "2019-05-05 22:34:06 UTC", "num_identification_agreements": 1, "place_guess": "Los Angeles County, US-CA, US", "latitude": 34.20327312, "longitude": -118.1206243, "positional_accuracy": 5.0, "public_positional_accuracy": 5.0, "scientific_name": "Quercus agrifolia", "common_name": "coast live oak" }, "geometry": { "type": "Point", "coordinates": [ -118.1206243, 34.20327312 ] } },
{ "type": "Feature", "properties": { "observed_on": "4/28/2019", "updated_at": "2019-05-05 22:34:06 UTC", "num_identification_agreements": 1, "place_guess": "3357 Villa Grove Dr, Altadena, CA, US", "latitude": 34.2039262, "longitude": -118.129185, "positional_accuracy": 22.0, "public_positional_accuracy": 22.0, "scientific_name": "Quercus agrifolia", "common_name": "coast live oak" }, "geometry": { "type": "Point", "coordinates": [ -118.129185, 34.2039262 ] } },
{ "type": "Feature", "properties": { "observed_on": "4/28/2019", "updated_at": "2019-05-05 22:34:01 UTC", "num_identification_agreements": 1, "place_guess": "Sam Merrill Trail, Altadena, CA, US", "latitude": 34.20481167, "longitude": -118.1279445, "positional_accuracy": 8.0, "public_positional_accuracy": 8.0, "scientific_name": "Quercus agrifolia", "common_name": "coast live oak" }, "geometry": { "type": "Point", "coordinates": [ -118.1279445, 34.20481167 ] } },
{ "type": "Feature", "properties": { "observed_on": "3/26/2019", "updated_at": "2019-05-29 05:10:36 UTC", "num_identification_agreements": 1, "place_guess": "Angeles National Forest, Altadena, CA, US", "latitude": 34.21620772, "longitude": -118.1541802, "positional_accuracy": 259.0, "public_positional_accuracy": 259.0, "scientific_name": "Quercus agrifolia", "common_name": "coast live oak" }, "geometry": { "type": "Point", "coordinates": [ -118.1541802, 34.21620772 ] } },
{ "type": "Feature", "properties": { "observed_on": "5/20/2019", "updated_at": "2019-05-20 17:44:41 UTC", "num_identification_agreements": 1, "place_guess": "536 E Mendocino St, Altadena, CA, US", "latitude": 34.18714014, "longitude": -118.1387538, "positional_accuracy": 35.0, "public_positional_accuracy": 35.0, "scientific_name": "Quercus agrifolia", "common_name": "coast live oak" }, "geometry": { "type": "Point", "coordinates": [ -118.1387538, 34.18714014 ] } },
{ "type": "Feature", "properties": { "observed_on": "5/20/2019", "updated_at": "2019-05-24 15:29:44 UTC", "num_identification_agreements": 0, "place_guess": "508 E Mendocino St, Altadena, CA, US", "latitude": 34.18746091, "longitude": -118.1392883, "positional_accuracy": 8.0, "public_positional_accuracy": 8.0, "scientific_name": "Quercus agrifolia", "common_name": "coast live oak" }, "geometry": { "type": "Point", "coordinates": [ -118.1392883, 34.18746091 ] } },
{ "type": "Feature", "properties": { "observed_on": "3/21/2020", "updated_at": "2020-04-02 04:45:36 UTC", "num_identification_agreements": 1, "place_guess": "N Altadena Dr, Altadena, CA, US", "latitude": 34.17515138, "longitude": -118.0975213, "positional_accuracy": 38.0, "public_positional_accuracy": 38.0, "scientific_name": "Quercus agrifolia", "common_name": "coast live oak" }, "geometry": { "type": "Point", "coordinates": [ -118.0975213, 34.17515138 ] } },
{ "type": "Feature", "properties": { "observed_on": "3/21/2020", "updated_at": "2020-04-02 04:45:34 UTC", "num_identification_agreements": 1, "place_guess": "Angeles National Forest, Altadena, CA, US", "latitude": 34.21470861, "longitude": -118.1471979, "positional_accuracy": 4.0, "public_positional_accuracy": 4.0, "scientific_name": "Quercus agrifolia", "common_name": "coast live oak" }, "geometry": { "type": "Point", "coordinates": [ -118.1471979, 34.21470861 ] } },
{ "type": "Feature", "properties": { "observed_on": "3/21/2020", "updated_at": "2024-07-04 14:40:48 UTC", "num_identification_agreements": 2, "place_guess": "Angeles MRCA Open Space, Los Angeles County, US-CA, US", "latitude": 34.21469799, "longitude": -118.1471669, "positional_accuracy": 6.0, "public_positional_accuracy": 6.0, "scientific_name": "Quercus agrifolia", "common_name": "coast live oak" }, "geometry": { "type": "Point", "coordinates": [ -118.1471669, 34.21469799 ] } },
{ "type": "Feature", "properties": { "observed_on": "3/21/2020", "updated_at": "2020-04-02 04:45:32 UTC", "num_identification_agreements": 1, "place_guess": "Angeles National Forest, Altadena, CA, US", "latitude": 34.21503052, "longitude": -118.1434605, "positional_accuracy": 39.0, "public_positional_accuracy": 39.0, "scientific_name": "Quercus agrifolia", "common_name": "coast live oak" }, "geometry": { "type": "Point", "coordinates": [ -118.1434605, 34.21503052 ] } },
{ "type": "Feature", "properties": { "observed_on": "3/21/2020", "updated_at": "2020-03-21 21:29:46 UTC", "num_identification_agreements": 0, "place_guess": "Pasadena, CA 91104, USA", "latitude": 34.17110778, "longitude": -118.0985513, "positional_accuracy": null, "public_positional_accuracy": null, "scientific_name": "Quercus agrifolia", "common_name": "coast live oak" }, "geometry": { "type": "Point", "coordinates": [ -118.0985513, 34.17110778 ] } },
{ "type": "Feature", "properties": { "observed_on": "3/21/2020", "updated_at": "2020-04-02 04:43:23 UTC", "num_identification_agreements": 1, "place_guess": "Angeles National Forest, Altadena, CA, US", "latitude": 34.21470333, "longitude": -118.1472945, "positional_accuracy": 11.0, "public_positional_accuracy": 11.0, "scientific_name": "Quercus agrifolia", "common_name": "coast live oak" }, "geometry": { "type": "Point", "coordinates": [ -118.1472945, 34.21470333 ] } },
{ "type": "Feature", "properties": { "observed_on": "3/15/2020", "updated_at": "2020-03-26 16:26:25 UTC", "num_identification_agreements": 1, "place_guess": "N Old Toll Rd, Altadena, CA, US", "latitude": 34.21204874, "longitude": -118.1595912, "positional_accuracy": 114.0, "public_positional_accuracy": 114.0, "scientific_name": "Quercus agrifolia", "common_name": "coast live oak" }, "geometry": { "type": "Point", "coordinates": [ -118.1595912, 34.21204874 ] } },
{ "type": "Feature", "properties": { "observed_on": "3/15/2020", "updated_at": "2020-03-23 04:31:15 UTC", "num_identification_agreements": 1, "place_guess": "N Old Toll Rd, Altadena, CA, US", "latitude": 34.21136422, "longitude": -118.1607024, "positional_accuracy": 1597.0, "public_positional_accuracy": 1597.0, "scientific_name": "Quercus agrifolia", "common_name": "coast live oak" }, "geometry": { "type": "Point", "coordinates": [ -118.1607024, 34.21136422 ] } },
{ "type": "Feature", "properties": { "observed_on": "3/20/2020", "updated_at": "2020-04-08 03:13:22 UTC", "num_identification_agreements": 0, "place_guess": "E Pentagon St, Altadena, CA, US", "latitude": 34.193755, "longitude": -118.1422195, "positional_accuracy": 1463.0, "public_positional_accuracy": 1463.0, "scientific_name": "Quercus agrifolia", "common_name": "coast live oak" }, "geometry": { "type": "Point", "coordinates": [ -118.1422195, 34.193755 ] } },
{ "type": "Feature", "properties": { "observed_on": "4/25/2020", "updated_at": "2020-10-28 00:34:33 UTC", "num_identification_agreements": 2, "place_guess": "Stonehill Dr, Altadena, CA, US", "latitude": 34.19580833, "longitude": -118.1188278, "positional_accuracy": 14.0, "public_positional_accuracy": 14.0, "scientific_name": "Quercus agrifolia", "common_name": "coast live oak" }, "geometry": { "type": "Point", "coordinates": [ -118.1188278, 34.19580833 ] } },
{ "type": "Feature", "properties": { "observed_on": "5/12/2020", "updated_at": "2020-07-30 03:00:35 UTC", "num_identification_agreements": 1, "place_guess": "Altadena, CA, USA", "latitude": 34.17826569, "longitude": -118.1030823, "positional_accuracy": 1186.0, "public_positional_accuracy": 1186.0, "scientific_name": "Quercus agrifolia", "common_name": "coast live oak" }, "geometry": { "type": "Point", "coordinates": [ -118.1030823, 34.17826569 ] } },
{ "type": "Feature", "properties": { "observed_on": "6/24/2020", "updated_at": "2020-07-18 20:30:54 UTC", "num_identification_agreements": 1, "place_guess": "E Altadena Dr, Altadena, CA, US", "latitude": 34.19236053, "longitude": -118.1396777, "positional_accuracy": 65.0, "public_positional_accuracy": 65.0, "scientific_name": "Quercus agrifolia", "common_name": "coast live oak" }, "geometry": { "type": "Point", "coordinates": [ -118.1396777, 34.19236053 ] } },
{ "type": "Feature", "properties": { "observed_on": "8/30/2020", "updated_at": "2020-09-01 18:40:18 UTC", "num_identification_agreements": 1, "place_guess": "Altadena, CA, USA", "latitude": 34.20601468, "longitude": -118.1268501, "positional_accuracy": 22.0, "public_positional_accuracy": 22.0, "scientific_name": "Quercus agrifolia", "common_name": "coast live oak" }, "geometry": { "type": "Point", "coordinates": [ -118.1268501, 34.20601468 ] } },
{ "type": "Feature", "properties": { "observed_on": "9/20/2020", "updated_at": "2020-09-21 07:08:28 UTC", "num_identification_agreements": 1, "place_guess": "Altadena, CA, USA", "latitude": 34.20089552, "longitude": -118.1316385, "positional_accuracy": 7.0, "public_positional_accuracy": 7.0, "scientific_name": "Quercus agrifolia", "common_name": "coast live oak" }, "geometry": { "type": "Point", "coordinates": [ -118.1316385, 34.20089552 ] } },
{ "type": "Feature", "properties": { "observed_on": "9/22/2020", "updated_at": "2020-09-24 06:06:24 UTC", "num_identification_agreements": 0, "place_guess": "Rubio Crest Dr, Altadena, CA, US", "latitude": 34.20133833, "longitude": -118.123825, "positional_accuracy": 5.0, "public_positional_accuracy": 5.0, "scientific_name": "Quercus agrifolia", "common_name": "coast live oak" }, "geometry": { "type": "Point", "coordinates": [ -118.123825, 34.20133833 ] } },
{ "type": "Feature", "properties": { "observed_on": "10/7/2020", "updated_at": "2020-10-09 04:11:53 UTC", "num_identification_agreements": 0, "place_guess": "Rubio Crest Dr, Altadena, CA, US", "latitude": 34.201275, "longitude": -118.1237333, "positional_accuracy": 20.0, "public_positional_accuracy": 20.0, "scientific_name": "Quercus agrifolia", "common_name": "coast live oak" }, "geometry": { "type": "Point", "coordinates": [ -118.1237333, 34.201275 ] } },
{ "type": "Feature", "properties": { "observed_on": "10/11/2020", "updated_at": "2020-10-21 01:12:47 UTC", "num_identification_agreements": 1, "place_guess": "El Prieto Canyon Trail", "latitude": 34.21681712, "longitude": -118.162618, "positional_accuracy": 195.0, "public_positional_accuracy": 195.0, "scientific_name": "Quercus agrifolia", "common_name": "coast live oak" }, "geometry": { "type": "Point", "coordinates": [ -118.162618, 34.21681712 ] } },
{ "type": "Feature", "properties": { "observed_on": "10/11/2020", "updated_at": "2020-10-26 04:45:08 UTC", "num_identification_agreements": 0, "place_guess": "El Prieto Canyon Trail", "latitude": 34.21681712, "longitude": -118.162618, "positional_accuracy": 195.0, "public_positional_accuracy": 195.0, "scientific_name": "Quercus agrifolia", "common_name": "coast live oak" }, "geometry": { "type": "Point", "coordinates": [ -118.162618, 34.21681712 ] } },
{ "type": "Feature", "properties": { "observed_on": "10/11/2020", "updated_at": "2020-10-26 04:55:57 UTC", "num_identification_agreements": 0, "place_guess": "5863003004, Altadena, CA 91001, USA", "latitude": 34.21681712, "longitude": -118.162618, "positional_accuracy": 195.0, "public_positional_accuracy": 195.0, "scientific_name": "Quercus agrifolia", "common_name": "coast live oak" }, "geometry": { "type": "Point", "coordinates": [ -118.162618, 34.21681712 ] } },
{ "type": "Feature", "properties": { "observed_on": "10/30/2020", "updated_at": "2021-11-23 06:25:10 UTC", "num_identification_agreements": 1, "place_guess": "Altadena, CA, USA", "latitude": 34.20617778, "longitude": -118.1284222, "positional_accuracy": null, "public_positional_accuracy": null, "scientific_name": "Quercus agrifolia", "common_name": "coast live oak" }, "geometry": { "type": "Point", "coordinates": [ -118.1284222, 34.20617778 ] } },
{ "type": "Feature", "properties": { "observed_on": "11/8/2020", "updated_at": "2022-03-16 14:12:40 UTC", "num_identification_agreements": 1, "place_guess": "Angeles National Forest, Altadena, CA, US", "latitude": 34.19514667, "longitude": -118.109375, "positional_accuracy": 5.0, "public_positional_accuracy": 5.0, "scientific_name": "Quercus agrifolia", "common_name": "coast live oak" }, "geometry": { "type": "Point", "coordinates": [ -118.109375, 34.19514667 ] } },
{ "type": "Feature", "properties": { "observed_on": "12/23/2020", "updated_at": "2020-12-24 22:46:49 UTC", "num_identification_agreements": 1, "place_guess": "Altadena, CA, USA", "latitude": 34.20712332, "longitude": -118.1312395, "positional_accuracy": 15.0, "public_positional_accuracy": 15.0, "scientific_name": "Quercus agrifolia", "common_name": "coast live oak" }, "geometry": { "type": "Point", "coordinates": [ -118.1312395, 34.20712332 ] } },
{ "type": "Feature", "properties": { "observed_on": "12/24/2020", "updated_at": "2021-02-06 18:32:59 UTC", "num_identification_agreements": 1, "place_guess": "Midwick Dr, Altadena, CA, US", "latitude": 34.18383333, "longitude": -118.1049055, "positional_accuracy": 10.0, "public_positional_accuracy": 10.0, "scientific_name": "Quercus agrifolia", "common_name": "coast live oak" }, "geometry": { "type": "Point", "coordinates": [ -118.1049055, 34.18383333 ] } },
{ "type": "Feature", "properties": { "observed_on": "1/2/2021", "updated_at": "2021-01-05 17:49:35 UTC", "num_identification_agreements": 1, "place_guess": "Pasadena, CA 91104, USA", "latitude": 34.17065397, "longitude": -118.1003803, "positional_accuracy": null, "public_positional_accuracy": null, "scientific_name": "Quercus agrifolia", "common_name": "coast live oak" }, "geometry": { "type": "Point", "coordinates": [ -118.1003803, 34.17065397 ] } },
{ "type": "Feature", "properties": { "observed_on": "1/2/2021", "updated_at": "2021-01-04 01:29:29 UTC", "num_identification_agreements": 0, "place_guess": "Devonwood Rd, Altadena, CA, US", "latitude": 34.20669774, "longitude": -118.1342555, "positional_accuracy": 29.0, "public_positional_accuracy": 29.0, "scientific_name": "Quercus agrifolia", "common_name": "coast live oak" }, "geometry": { "type": "Point", "coordinates": [ -118.1342555, 34.20669774 ] } },
{ "type": "Feature", "properties": { "observed_on": "2/26/2021", "updated_at": "2024-07-04 14:29:54 UTC", "num_identification_agreements": 1, "place_guess": "Los Angeles County, US-CA, US", "latitude": 34.20629798, "longitude": -118.1539151, "positional_accuracy": 5.0, "public_positional_accuracy": 5.0, "scientific_name": "Quercus agrifolia", "common_name": "coast live oak" }, "geometry": { "type": "Point", "coordinates": [ -118.1539151, 34.20629798 ] } },
{ "type": "Feature", "properties": { "observed_on": "3/21/2021", "updated_at": "2021-03-27 22:55:46 UTC", "num_identification_agreements": 0, "place_guess": "Altadena, CA, USA", "latitude": 34.20482453, "longitude": -118.1301721, "positional_accuracy": 1.0, "public_positional_accuracy": 1.0, "scientific_name": "Quercus agrifolia", "common_name": "coast live oak" }, "geometry": { "type": "Point", "coordinates": [ -118.1301721, 34.20482453 ] } },
{ "type": "Feature", "properties": { "observed_on": "4/18/2021", "updated_at": "2021-04-22 21:12:24 UTC", "num_identification_agreements": 0, "place_guess": "Angeles National Forest, Altadena, CA, US", "latitude": 34.20672697, "longitude": -118.1248024, "positional_accuracy": 5.0, "public_positional_accuracy": 5.0, "scientific_name": "Quercus agrifolia", "common_name": "coast live oak" }, "geometry": { "type": "Point", "coordinates": [ -118.1248024, 34.20672697 ] } },
{ "type": "Feature", "properties": { "observed_on": "4/17/2021", "updated_at": "2021-04-27 17:02:26 UTC", "num_identification_agreements": 1, "place_guess": "El Prieto Canyon Trail, Altadena, CA 91001, USA", "latitude": 34.2168171, "longitude": -118.162618, "positional_accuracy": 194.0, "public_positional_accuracy": 194.0, "scientific_name": "Quercus agrifolia", "common_name": "coast live oak" }, "geometry": { "type": "Point", "coordinates": [ -118.162618, 34.2168171 ] } },
{ "type": "Feature", "properties": { "observed_on": "5/1/2021", "updated_at": "2021-05-05 03:03:02 UTC", "num_identification_agreements": 1, "place_guess": "N Sunset Ridge Rd, Altadena, CA, US", "latitude": 34.20463548, "longitude": -118.1561348, "positional_accuracy": 10.0, "public_positional_accuracy": 10.0, "scientific_name": "Quercus agrifolia", "common_name": "coast live oak" }, "geometry": { "type": "Point", "coordinates": [ -118.1561348, 34.20463548 ] } },
{ "type": "Feature", "properties": { "observed_on": "5/1/2021", "updated_at": "2024-07-04 14:28:48 UTC", "num_identification_agreements": 1, "place_guess": "N Sunset Ridge Rd, Altadena, CA, US", "latitude": 34.20498953, "longitude": -118.1556119, "positional_accuracy": 5.0, "public_positional_accuracy": 5.0, "scientific_name": "Quercus agrifolia", "common_name": "coast live oak" }, "geometry": { "type": "Point", "coordinates": [ -118.1556119, 34.20498953 ] } },
{ "type": "Feature", "properties": { "observed_on": "5/1/2021", "updated_at": "2021-05-05 03:02:49 UTC", "num_identification_agreements": 1, "place_guess": "Sam Merrill Trail, Altadena, CA, US", "latitude": 34.20473438, "longitude": -118.1269516, "positional_accuracy": 5.0, "public_positional_accuracy": 5.0, "scientific_name": "Quercus agrifolia", "common_name": "coast live oak" }, "geometry": { "type": "Point", "coordinates": [ -118.1269516, 34.20473438 ] } },
{ "type": "Feature", "properties": { "observed_on": "4/13/2021", "updated_at": "2021-05-22 13:51:15 UTC", "num_identification_agreements": 1, "place_guess": "Altadena, CA, USA", "latitude": 34.20416264, "longitude": -118.1261288, "positional_accuracy": 15.0, "public_positional_accuracy": 15.0, "scientific_name": "Quercus agrifolia", "common_name": "coast live oak" }, "geometry": { "type": "Point", "coordinates": [ -118.1261288, 34.20416264 ] } },
{ "type": "Feature", "properties": { "observed_on": "5/3/2021", "updated_at": "2021-05-04 00:01:14 UTC", "num_identification_agreements": 0, "place_guess": "Lake Ave, Altadena, CA, US", "latitude": 34.20387233, "longitude": -118.1292403, "positional_accuracy": 71.0, "public_positional_accuracy": 71.0, "scientific_name": "Quercus agrifolia", "common_name": "coast live oak" }, "geometry": { "type": "Point", "coordinates": [ -118.1292403, 34.20387233 ] } },
{ "type": "Feature", "properties": { "observed_on": "5/1/2021", "updated_at": "2021-05-22 13:44:54 UTC", "num_identification_agreements": 2, "place_guess": "Lincoln Ave, Altadena, CA, US", "latitude": 34.1982878, "longitude": -118.1589861, "positional_accuracy": 5529.0, "public_positional_accuracy": 5529.0, "scientific_name": "Quercus agrifolia", "common_name": "coast live oak" }, "geometry": { "type": "Point", "coordinates": [ -118.1589861, 34.1982878 ] } },
{ "type": "Feature", "properties": { "observed_on": "5/1/2021", "updated_at": "2023-02-14 17:20:26 UTC", "num_identification_agreements": 2, "place_guess": "Lincoln Ave, Altadena, CA, US", "latitude": 34.1982878, "longitude": -118.1589861, "positional_accuracy": 5529.0, "public_positional_accuracy": 5529.0, "scientific_name": "Quercus agrifolia", "common_name": "coast live oak" }, "geometry": { "type": "Point", "coordinates": [ -118.1589861, 34.1982878 ] } },
{ "type": "Feature", "properties": { "observed_on": "5/1/2021", "updated_at": "2021-05-09 02:46:36 UTC", "num_identification_agreements": 2, "place_guess": "Lincoln Ave, Altadena, CA, US", "latitude": 34.1982878, "longitude": -118.1589861, "positional_accuracy": 5529.0, "public_positional_accuracy": 5529.0, "scientific_name": "Quercus agrifolia", "common_name": "coast live oak" }, "geometry": { "type": "Point", "coordinates": [ -118.1589861, 34.1982878 ] } },
{ "type": "Feature", "properties": { "observed_on": "5/1/2021", "updated_at": "2023-02-14 04:49:18 UTC", "num_identification_agreements": 1, "place_guess": "Lincoln Ave, Altadena, CA, US", "latitude": 34.1982878, "longitude": -118.1589861, "positional_accuracy": 5529.0, "public_positional_accuracy": 5529.0, "scientific_name": "Quercus agrifolia", "common_name": "coast live oak" }, "geometry": { "type": "Point", "coordinates": [ -118.1589861, 34.1982878 ] } },
{ "type": "Feature", "properties": { "observed_on": "5/1/2021", "updated_at": "2021-05-08 20:12:29 UTC", "num_identification_agreements": 1, "place_guess": "Lincoln Ave, Altadena, CA, US", "latitude": 34.1982878, "longitude": -118.1589861, "positional_accuracy": 5529.0, "public_positional_accuracy": 5529.0, "scientific_name": "Quercus agrifolia", "common_name": "coast live oak" }, "geometry": { "type": "Point", "coordinates": [ -118.1589861, 34.1982878 ] } },
{ "type": "Feature", "properties": { "observed_on": "5/1/2021", "updated_at": "2021-05-08 20:12:18 UTC", "num_identification_agreements": 1, "place_guess": "Lincoln Ave, Altadena, CA, US", "latitude": 34.1982878, "longitude": -118.1589861, "positional_accuracy": 5529.0, "public_positional_accuracy": 5529.0, "scientific_name": "Quercus agrifolia", "common_name": "coast live oak" }, "geometry": { "type": "Point", "coordinates": [ -118.1589861, 34.1982878 ] } },
{ "type": "Feature", "properties": { "observed_on": "5/1/2021", "updated_at": "2021-05-08 20:11:46 UTC", "num_identification_agreements": 1, "place_guess": "Lincoln Ave, Altadena, CA, US", "latitude": 34.1982878, "longitude": -118.1589861, "positional_accuracy": 5529.0, "public_positional_accuracy": 5529.0, "scientific_name": "Quercus agrifolia", "common_name": "coast live oak" }, "geometry": { "type": "Point", "coordinates": [ -118.1589861, 34.1982878 ] } },
{ "type": "Feature", "properties": { "observed_on": "5/1/2021", "updated_at": "2021-05-08 20:12:06 UTC", "num_identification_agreements": 1, "place_guess": "Lincoln Ave, Altadena, CA, US", "latitude": 34.1982878, "longitude": -118.1589861, "positional_accuracy": 5529.0, "public_positional_accuracy": 5529.0, "scientific_name": "Quercus agrifolia", "common_name": "coast live oak" }, "geometry": { "type": "Point", "coordinates": [ -118.1589861, 34.1982878 ] } },
{ "type": "Feature", "properties": { "observed_on": "5/1/2021", "updated_at": "2021-05-09 02:29:23 UTC", "num_identification_agreements": 2, "place_guess": "Lincoln Ave, Altadena, CA, US", "latitude": 34.1982878, "longitude": -118.1589861, "positional_accuracy": 5529.0, "public_positional_accuracy": 5529.0, "scientific_name": "Quercus agrifolia", "common_name": "coast live oak" }, "geometry": { "type": "Point", "coordinates": [ -118.1589861, 34.1982878 ] } },
{ "type": "Feature", "properties": { "observed_on": "5/1/2021", "updated_at": "2021-05-08 16:31:22 UTC", "num_identification_agreements": 0, "place_guess": "Lincoln Ave, Altadena, CA, US", "latitude": 34.1982878, "longitude": -118.1589861, "positional_accuracy": 5529.0, "public_positional_accuracy": 5529.0, "scientific_name": "Quercus agrifolia", "common_name": "coast live oak" }, "geometry": { "type": "Point", "coordinates": [ -118.1589861, 34.1982878 ] } },
{ "type": "Feature", "properties": { "observed_on": "5/1/2021", "updated_at": "2022-03-16 14:06:41 UTC", "num_identification_agreements": 2, "place_guess": "Lincoln Ave, Altadena, CA, US", "latitude": 34.1982878, "longitude": -118.1589861, "positional_accuracy": 5529.0, "public_positional_accuracy": 5529.0, "scientific_name": "Quercus agrifolia", "common_name": "coast live oak" }, "geometry": { "type": "Point", "coordinates": [ -118.1589861, 34.1982878 ] } },
{ "type": "Feature", "properties": { "observed_on": "6/7/2021", "updated_at": "2021-06-10 18:28:07 UTC", "num_identification_agreements": 1, "place_guess": "E Mendocino St, Altadena, CA, US", "latitude": 34.18713833, "longitude": -118.1386195, "positional_accuracy": 4.0, "public_positional_accuracy": 4.0, "scientific_name": "Quercus agrifolia", "common_name": "coast live oak" }, "geometry": { "type": "Point", "coordinates": [ -118.1386195, 34.18713833 ] } },
{ "type": "Feature", "properties": { "observed_on": "6/22/2021", "updated_at": "2021-06-24 04:17:31 UTC", "num_identification_agreements": 0, "place_guess": "Ellington Villa Dr, Altadena, CA, US", "latitude": 34.204555, "longitude": -118.1266333, "positional_accuracy": 4.0, "public_positional_accuracy": 4.0, "scientific_name": "Quercus agrifolia", "common_name": "coast live oak" }, "geometry": { "type": "Point", "coordinates": [ -118.1266333, 34.204555 ] } },
{ "type": "Feature", "properties": { "observed_on": "8/25/2021", "updated_at": "2021-08-25 16:41:34 UTC", "num_identification_agreements": 0, "place_guess": "Canyon Crest Rd, Altadena, CA, US", "latitude": 34.20270558, "longitude": -118.1593387, "positional_accuracy": 21.0, "public_positional_accuracy": 21.0, "scientific_name": "Quercus agrifolia", "common_name": "coast live oak" }, "geometry": { "type": "Point", "coordinates": [ -118.1593387, 34.20270558 ] } },
{ "type": "Feature", "properties": { "observed_on": "8/25/2021", "updated_at": "2021-08-25 16:54:19 UTC", "num_identification_agreements": 0, "place_guess": "N Sunset Ridge Rd, Altadena, CA, US", "latitude": 34.20262499, "longitude": -118.1574324, "positional_accuracy": 22.0, "public_positional_accuracy": 22.0, "scientific_name": "Quercus agrifolia", "common_name": "coast live oak" }, "geometry": { "type": "Point", "coordinates": [ -118.1574324, 34.20262499 ] } },
{ "type": "Feature", "properties": { "observed_on": "8/25/2021", "updated_at": "2021-08-25 17:14:21 UTC", "num_identification_agreements": 0, "place_guess": "N Sunset Ridge Rd, Altadena, CA, US", "latitude": 34.2028054, "longitude": -118.1574889, "positional_accuracy": 22.0, "public_positional_accuracy": 22.0, "scientific_name": "Quercus agrifolia", "common_name": "coast live oak" }, "geometry": { "type": "Point", "coordinates": [ -118.1574889, 34.2028054 ] } },
{ "type": "Feature", "properties": { "observed_on": "8/26/2021", "updated_at": "2022-03-16 06:16:43 UTC", "num_identification_agreements": 1, "place_guess": "Angeles National Forest, Altadena, CA, US", "latitude": 34.215545, "longitude": -118.1641612, "positional_accuracy": 8.0, "public_positional_accuracy": 8.0, "scientific_name": "Quercus agrifolia", "common_name": "coast live oak" }, "geometry": { "type": "Point", "coordinates": [ -118.1641612, 34.215545 ] } },
{ "type": "Feature", "properties": { "observed_on": "8/28/2021", "updated_at": "2021-11-27 00:40:02 UTC", "num_identification_agreements": 1, "place_guess": "Rubio Canyon Rd, Altadena, CA, US", "latitude": 34.20007833, "longitude": -118.122925, "positional_accuracy": 68.0, "public_positional_accuracy": 68.0, "scientific_name": "Quercus agrifolia", "common_name": "coast live oak" }, "geometry": { "type": "Point", "coordinates": [ -118.122925, 34.20007833 ] } },
{ "type": "Feature", "properties": { "observed_on": "9/1/2021", "updated_at": "2021-11-27 00:20:05 UTC", "num_identification_agreements": 2, "place_guess": "Altadena, CA, USA", "latitude": 34.20319717, "longitude": -118.1275936, "positional_accuracy": 8.0, "public_positional_accuracy": 8.0, "scientific_name": "Quercus agrifolia", "common_name": "coast live oak" }, "geometry": { "type": "Point", "coordinates": [ -118.1275936, 34.20319717 ] } },
{ "type": "Feature", "properties": { "observed_on": "9/23/2021", "updated_at": "2022-08-05 05:57:39 UTC", "num_identification_agreements": 1, "place_guess": "Marathon Rd, Altadena, CA, US", "latitude": 34.19917354, "longitude": -118.1413791, "positional_accuracy": 57.0, "public_positional_accuracy": 57.0, "scientific_name": "Quercus agrifolia", "common_name": "coast live oak" }, "geometry": { "type": "Point", "coordinates": [ -118.1413791, 34.19917354 ] } },
{ "type": "Feature", "properties": { "observed_on": "10/19/2021", "updated_at": "2021-10-28 06:37:30 UTC", "num_identification_agreements": 1, "place_guess": "Canyon Crest Rd, Altadena, CA, US", "latitude": 34.20220833, "longitude": -118.1612362, "positional_accuracy": 1802.0, "public_positional_accuracy": 1802.0, "scientific_name": "Quercus agrifolia", "common_name": "coast live oak" }, "geometry": { "type": "Point", "coordinates": [ -118.1612362, 34.20220833 ] } },
{ "type": "Feature", "properties": { "observed_on": "10/28/2021", "updated_at": "2022-05-24 15:14:49 UTC", "num_identification_agreements": 1, "place_guess": "Altadena", "latitude": 34.19097519, "longitude": -118.1702347, "positional_accuracy": 45.0, "public_positional_accuracy": 45.0, "scientific_name": "Quercus agrifolia", "common_name": "coast live oak" }, "geometry": { "type": "Point", "coordinates": [ -118.1702347, 34.19097519 ] } },
{ "type": "Feature", "properties": { "observed_on": "11/6/2021", "updated_at": "2021-11-07 21:38:00 UTC", "num_identification_agreements": 0, "place_guess": "Altadena, CA, USA", "latitude": 34.1990392, "longitude": -118.1599927, "positional_accuracy": 1100.0, "public_positional_accuracy": 1100.0, "scientific_name": "Quercus agrifolia", "common_name": "coast live oak" }, "geometry": { "type": "Point", "coordinates": [ -118.1599927, 34.1990392 ] } },
{ "type": "Feature", "properties": { "observed_on": "2/5/2022", "updated_at": "2022-02-22 06:53:34 UTC", "num_identification_agreements": 1, "place_guess": "Altadena, CA, USA", "latitude": 34.20380964, "longitude": -118.1530297, "positional_accuracy": 8.0, "public_positional_accuracy": 8.0, "scientific_name": "Quercus agrifolia", "common_name": "coast live oak" }, "geometry": { "type": "Point", "coordinates": [ -118.1530297, 34.20380964 ] } },
{ "type": "Feature", "properties": { "observed_on": "3/6/2022", "updated_at": "2022-03-07 05:30:06 UTC", "num_identification_agreements": 1, "place_guess": "Los Angeles County, CA, USA", "latitude": 34.20344844, "longitude": -118.1158883, "positional_accuracy": 698.0, "public_positional_accuracy": 698.0, "scientific_name": "Quercus agrifolia", "common_name": "coast live oak" }, "geometry": { "type": "Point", "coordinates": [ -118.1158883, 34.20344844 ] } },
{ "type": "Feature", "properties": { "observed_on": "3/18/2022", "updated_at": "2022-03-18 23:51:02 UTC", "num_identification_agreements": 0, "place_guess": "Grandeur Ave, Altadena, CA, US", "latitude": 34.19691574, "longitude": -118.1521672, "positional_accuracy": 4.0, "public_positional_accuracy": 4.0, "scientific_name": "Quercus agrifolia", "common_name": "coast live oak" }, "geometry": { "type": "Point", "coordinates": [ -118.1521672, 34.19691574 ] } },
{ "type": "Feature", "properties": { "observed_on": "3/27/2022", "updated_at": "2024-07-11 00:22:04 UTC", "num_identification_agreements": 1, "place_guess": "Angeles National Forest, Altadena, CA, US", "latitude": 34.20890678, "longitude": -118.1476805, "positional_accuracy": 155.0, "public_positional_accuracy": 155.0, "scientific_name": "Quercus agrifolia", "common_name": "coast live oak" }, "geometry": { "type": "Point", "coordinates": [ -118.1476805, 34.20890678 ] } },
{ "type": "Feature", "properties": { "observed_on": "4/5/2022", "updated_at": "2022-04-23 09:51:52 UTC", "num_identification_agreements": 2, "place_guess": "Los Angeles County, US-CA, US", "latitude": 34.21223986, "longitude": -118.1644783, "positional_accuracy": 2000.0, "public_positional_accuracy": 2000.0, "scientific_name": "Quercus agrifolia", "common_name": "coast live oak" }, "geometry": { "type": "Point", "coordinates": [ -118.1644783, 34.21223986 ] } },
{ "type": "Feature", "properties": { "observed_on": "4/13/2022", "updated_at": "2022-04-13 19:55:57 UTC", "num_identification_agreements": 1, "place_guess": "N Arroyo Blvd, Pasadena, CA, US", "latitude": 34.20437803, "longitude": -118.1620529, "positional_accuracy": 1215.0, "public_positional_accuracy": 1215.0, "scientific_name": "Quercus agrifolia", "common_name": "coast live oak" }, "geometry": { "type": "Point", "coordinates": [ -118.1620529, 34.20437803 ] } },
{ "type": "Feature", "properties": { "observed_on": "4/21/2022", "updated_at": "2024-03-19 19:11:19 UTC", "num_identification_agreements": 2, "place_guess": "Angeles National Forest, Altadena, CA, US", "latitude": 34.20471167, "longitude": -118.1274862, "positional_accuracy": 4.0, "public_positional_accuracy": 4.0, "scientific_name": "Quercus agrifolia", "common_name": "coast live oak" }, "geometry": { "type": "Point", "coordinates": [ -118.1274862, 34.20471167 ] } },
{ "type": "Feature", "properties": { "observed_on": "4/29/2022", "updated_at": "2022-05-03 18:57:55 UTC", "num_identification_agreements": 1, "place_guess": "Highland Ave, Altadena, CA, US", "latitude": 34.18867632, "longitude": -118.1243279, "positional_accuracy": 65.0, "public_positional_accuracy": 65.0, "scientific_name": "Quercus agrifolia", "common_name": "coast live oak" }, "geometry": { "type": "Point", "coordinates": [ -118.1243279, 34.18867632 ] } },
{ "type": "Feature", "properties": { "observed_on": "5/2/2022", "updated_at": "2022-05-04 13:40:22 UTC", "num_identification_agreements": 1, "place_guess": "Angeles National Forest, Altadena, CA, US", "latitude": 34.20472198, "longitude": -118.1269844, "positional_accuracy": 5.0, "public_positional_accuracy": 5.0, "scientific_name": "Quercus agrifolia", "common_name": "coast live oak" }, "geometry": { "type": "Point", "coordinates": [ -118.1269844, 34.20472198 ] } },
{ "type": "Feature", "properties": { "observed_on": "5/6/2022", "updated_at": "2022-05-19 18:04:15 UTC", "num_identification_agreements": 1, "place_guess": "El Prieto Canyon Trail", "latitude": 34.216821, "longitude": -118.162618, "positional_accuracy": 194.0, "public_positional_accuracy": 194.0, "scientific_name": "Quercus agrifolia", "common_name": "coast live oak" }, "geometry": { "type": "Point", "coordinates": [ -118.162618, 34.216821 ] } },
{ "type": "Feature", "properties": { "observed_on": "5/28/2022", "updated_at": "2022-05-28 16:20:27 UTC", "num_identification_agreements": 0, "place_guess": "Altadena, CA, USA", "latitude": 34.1771034, "longitude": -118.1014776, "positional_accuracy": 800.0, "public_positional_accuracy": 800.0, "scientific_name": "Quercus agrifolia", "common_name": "coast live oak" }, "geometry": { "type": "Point", "coordinates": [ -118.1014776, 34.1771034 ] } },
{ "type": "Feature", "properties": { "observed_on": "9/3/2022", "updated_at": "2022-09-06 02:32:16 UTC", "num_identification_agreements": 2, "place_guess": "Angeles National Forest, Altadena, CA, US", "latitude": 34.20829799, "longitude": -118.1460072, "positional_accuracy": 4.0, "public_positional_accuracy": 4.0, "scientific_name": "Quercus agrifolia", "common_name": "coast live oak" }, "geometry": { "type": "Point", "coordinates": [ -118.1460072, 34.20829799 ] } },
{ "type": "Feature", "properties": { "observed_on": "10/8/2022", "updated_at": "2024-03-04 18:33:33 UTC", "num_identification_agreements": 1, "place_guess": "Altadena, CA, USA", "latitude": 34.20201632, "longitude": -118.1220257, "positional_accuracy": 31.0, "public_positional_accuracy": 31.0, "scientific_name": "Quercus agrifolia", "common_name": "coast live oak" }, "geometry": { "type": "Point", "coordinates": [ -118.1220257, 34.20201632 ] } },
{ "type": "Feature", "properties": { "observed_on": "11/11/2022", "updated_at": "2022-11-12 02:19:28 UTC", "num_identification_agreements": 0, "place_guess": "Mount Wilson Rd, Altadena, CA, US", "latitude": 34.19150333, "longitude": -118.1052945, "positional_accuracy": 102.0, "public_positional_accuracy": 102.0, "scientific_name": "Quercus agrifolia", "common_name": "coast live oak" }, "geometry": { "type": "Point", "coordinates": [ -118.1052945, 34.19150333 ] } },
{ "type": "Feature", "properties": { "observed_on": "11/24/2022", "updated_at": "2023-01-30 01:32:24 UTC", "num_identification_agreements": 1, "place_guess": "Rubio Canyon Open Space, Altadena, CA, US", "latitude": 34.20423513, "longitude": -118.1202708, "positional_accuracy": 67.0, "public_positional_accuracy": 67.0, "scientific_name": "Quercus agrifolia", "common_name": "coast live oak" }, "geometry": { "type": "Point", "coordinates": [ -118.1202708, 34.20423513 ] } },
{ "type": "Feature", "properties": { "observed_on": "11/30/2022", "updated_at": "2022-12-04 04:21:24 UTC", "num_identification_agreements": 2, "place_guess": "Los Angeles County, US-CA, US", "latitude": 34.21152138, "longitude": -118.1639944, "positional_accuracy": 2000.0, "public_positional_accuracy": 2000.0, "scientific_name": "Quercus agrifolia", "common_name": "coast live oak" }, "geometry": { "type": "Point", "coordinates": [ -118.1639944, 34.21152138 ] } },
{ "type": "Feature", "properties": { "observed_on": "1/13/2023", "updated_at": "2023-01-17 18:13:55 UTC", "num_identification_agreements": 1, "place_guess": "Angeles National Forest, Altadena, CA, US", "latitude": 34.21496667, "longitude": -118.1435695, "positional_accuracy": 4.0, "public_positional_accuracy": 4.0, "scientific_name": "Quercus agrifolia", "common_name": "coast live oak" }, "geometry": { "type": "Point", "coordinates": [ -118.1435695, 34.21496667 ] } },
{ "type": "Feature", "properties": { "observed_on": "2/22/2023", "updated_at": "2024-08-29 16:48:10 UTC", "num_identification_agreements": 1, "place_guess": "Altadena, CA 91001, USA", "latitude": 34.21529167, "longitude": -118.1477111, "positional_accuracy": null, "public_positional_accuracy": null, "scientific_name": "Quercus agrifolia", "common_name": "coast live oak" }, "geometry": { "type": "Point", "coordinates": [ -118.1477111, 34.21529167 ] } },
{ "type": "Feature", "properties": { "observed_on": "3/27/2023", "updated_at": "2023-03-30 17:29:22 UTC", "num_identification_agreements": 1, "place_guess": "Angeles National Forest, Altadena, CA, US", "latitude": 34.20834667, "longitude": -118.1459667, "positional_accuracy": 4.0, "public_positional_accuracy": 4.0, "scientific_name": "Quercus agrifolia", "common_name": "coast live oak" }, "geometry": { "type": "Point", "coordinates": [ -118.1459667, 34.20834667 ] } },
{ "type": "Feature", "properties": { "observed_on": "4/6/2023", "updated_at": "2023-04-08 17:59:47 UTC", "num_identification_agreements": 0, "place_guess": "Altadena", "latitude": 34.17852783, "longitude": -118.1307297, "positional_accuracy": 56.0, "public_positional_accuracy": 56.0, "scientific_name": "Quercus agrifolia", "common_name": "coast live oak" }, "geometry": { "type": "Point", "coordinates": [ -118.1307297, 34.17852783 ] } },
{ "type": "Feature", "properties": { "observed_on": "4/8/2023", "updated_at": "2024-07-28 00:00:29 UTC", "num_identification_agreements": 1, "place_guess": "Angeles National Forest, Altadena, CA, US", "latitude": 34.20838076, "longitude": -118.1459758, "positional_accuracy": 5.0, "public_positional_accuracy": 5.0, "scientific_name": "Quercus agrifolia", "common_name": "coast live oak" }, "geometry": { "type": "Point", "coordinates": [ -118.1459758, 34.20838076 ] } },
{ "type": "Feature", "properties": { "observed_on": "5/1/2023", "updated_at": "2023-05-02 14:59:56 UTC", "num_identification_agreements": 0, "place_guess": "Angeles National Forest, Altadena, CA, US", "latitude": 34.21499236, "longitude": -118.1435135, "positional_accuracy": 5.0, "public_positional_accuracy": 5.0, "scientific_name": "Quercus agrifolia", "common_name": "coast live oak" }, "geometry": { "type": "Point", "coordinates": [ -118.1435135, 34.21499236 ] } },
{ "type": "Feature", "properties": { "observed_on": "4/29/2023", "updated_at": "2023-05-28 14:32:26 UTC", "num_identification_agreements": 1, "place_guess": "Los Angeles, California, United States", "latitude": 34.19428167, "longitude": -118.1677733, "positional_accuracy": null, "public_positional_accuracy": null, "scientific_name": "Quercus agrifolia", "common_name": "coast live oak" }, "geometry": { "type": "Point", "coordinates": [ -118.1677733, 34.19428167 ] } },
{ "type": "Feature", "properties": { "observed_on": "5/28/2023", "updated_at": "2023-05-28 22:01:27 UTC", "num_identification_agreements": 0, "place_guess": "Altadena, CA, USA", "latitude": 34.21496389, "longitude": -118.1435889, "positional_accuracy": null, "public_positional_accuracy": null, "scientific_name": "Quercus agrifolia", "common_name": "coast live oak" }, "geometry": { "type": "Point", "coordinates": [ -118.1435889, 34.21496389 ] } },
{ "type": "Feature", "properties": { "observed_on": "5/30/2023", "updated_at": "2023-09-06 00:59:29 UTC", "num_identification_agreements": 1, "place_guess": "Angeles National Forest, Altadena, CA, US", "latitude": 34.21283333, "longitude": -118.1640695, "positional_accuracy": 3000.0, "public_positional_accuracy": 3000.0, "scientific_name": "Quercus agrifolia oxyadenia", "common_name": "Southern Coast Live Oak" }, "geometry": { "type": "Point", "coordinates": [ -118.1640695, 34.21283333 ] } },
{ "type": "Feature", "properties": { "observed_on": "6/18/2023", "updated_at": "2023-06-24 23:23:05 UTC", "num_identification_agreements": 0, "place_guess": "Altadena, CA, USA", "latitude": 34.17742861, "longitude": -118.1030407, "positional_accuracy": 7.0, "public_positional_accuracy": 7.0, "scientific_name": "Quercus agrifolia", "common_name": "coast live oak" }, "geometry": { "type": "Point", "coordinates": [ -118.1030407, 34.17742861 ] } },
{ "type": "Feature", "properties": { "observed_on": "7/21/2023", "updated_at": "2024-06-24 02:24:55 UTC", "num_identification_agreements": 1, "place_guess": "Angeles National Forest, Altadena, CA, US", "latitude": 34.21586167, "longitude": -118.1637583, "positional_accuracy": 4.0, "public_positional_accuracy": 4.0, "scientific_name": "Quercus agrifolia", "common_name": "coast live oak" }, "geometry": { "type": "Point", "coordinates": [ -118.1637583, 34.21586167 ] } },
{ "type": "Feature", "properties": { "observed_on": "9/15/2023", "updated_at": "2024-06-24 02:32:30 UTC", "num_identification_agreements": 1, "place_guess": "Angeles National Forest, Altadena, CA, US", "latitude": 34.2053, "longitude": -118.1258388, "positional_accuracy": null, "public_positional_accuracy": null, "scientific_name": "Quercus agrifolia", "common_name": "coast live oak" }, "geometry": { "type": "Point", "coordinates": [ -118.1258388, 34.2053 ] } },
{ "type": "Feature", "properties": { "observed_on": "10/22/2023", "updated_at": "2023-10-22 23:10:47 UTC", "num_identification_agreements": 0, "place_guess": "Oakwood St, Pasadena, CA, US", "latitude": 34.1748713, "longitude": -118.1135103, "positional_accuracy": 6.0, "public_positional_accuracy": 6.0, "scientific_name": "Quercus agrifolia", "common_name": "coast live oak" }, "geometry": { "type": "Point", "coordinates": [ -118.1135103, 34.1748713 ] } },
{ "type": "Feature", "properties": { "observed_on": "1/13/2024", "updated_at": "2024-01-15 04:25:03 UTC", "num_identification_agreements": 0, "place_guess": "Glen Canyon Rd, Altadena, CA, US", "latitude": 34.18068, "longitude": -118.100625, "positional_accuracy": 4.0, "public_positional_accuracy": 4.0, "scientific_name": "Quercus agrifolia", "common_name": "coast live oak" }, "geometry": { "type": "Point", "coordinates": [ -118.100625, 34.18068 ] } },
{ "type": "Feature", "properties": { "observed_on": "1/27/2024", "updated_at": "2024-01-28 16:52:40 UTC", "num_identification_agreements": 1, "place_guess": "Los Angeles County, US-CA, US", "latitude": 34.17756358, "longitude": -118.122325, "positional_accuracy": 9482.0, "public_positional_accuracy": 28874.0, "scientific_name": "Quercus agrifolia", "common_name": "coast live oak" }, "geometry": { "type": "Point", "coordinates": [ -118.122325, 34.17756358 ] } },
{ "type": "Feature", "properties": { "observed_on": "1/29/2024", "updated_at": "2024-01-30 22:25:19 UTC", "num_identification_agreements": 1, "place_guess": "Angeles National Forest, Altadena, CA, US", "latitude": 34.21399272, "longitude": -118.1640309, "positional_accuracy": 34.0, "public_positional_accuracy": 34.0, "scientific_name": "Quercus agrifolia", "common_name": "coast live oak" }, "geometry": { "type": "Point", "coordinates": [ -118.1640309, 34.21399272 ] } },
{ "type": "Feature", "properties": { "observed_on": "2/14/2024", "updated_at": "2024-02-20 14:30:48 UTC", "num_identification_agreements": 1, "place_guess": "Angeles National Forest, Altadena, CA, US", "latitude": 34.21545333, "longitude": -118.1617972, "positional_accuracy": 4.0, "public_positional_accuracy": 4.0, "scientific_name": "Quercus agrifolia", "common_name": "coast live oak" }, "geometry": { "type": "Point", "coordinates": [ -118.1617972, 34.21545333 ] } },
{ "type": "Feature", "properties": { "observed_on": "1/27/2024", "updated_at": "2024-02-20 14:30:45 UTC", "num_identification_agreements": 1, "place_guess": "Mountain View Mortuary & Cemetery, Altadena, CA, US", "latitude": 34.18588833, "longitude": -118.1495055, "positional_accuracy": 28.0, "public_positional_accuracy": 28.0, "scientific_name": "Quercus agrifolia", "common_name": "coast live oak" }, "geometry": { "type": "Point", "coordinates": [ -118.1495055, 34.18588833 ] } },
{ "type": "Feature", "properties": { "observed_on": "2/24/2024", "updated_at": "2024-05-27 18:27:27 UTC", "num_identification_agreements": 1, "place_guess": "Rubio Canyon Rd, Altadena, CA, US", "latitude": 34.20167754, "longitude": -118.1220176, "positional_accuracy": 4.0, "public_positional_accuracy": 4.0, "scientific_name": "Quercus agrifolia", "common_name": "coast live oak" }, "geometry": { "type": "Point", "coordinates": [ -118.1220176, 34.20167754 ] } },
{ "type": "Feature", "properties": { "observed_on": "3/5/2024", "updated_at": "2024-03-05 23:14:04 UTC", "num_identification_agreements": 0, "place_guess": "Altadena, CA, USA", "latitude": 34.18228889, "longitude": -118.1694583, "positional_accuracy": null, "public_positional_accuracy": null, "scientific_name": "Quercus agrifolia", "common_name": "coast live oak" }, "geometry": { "type": "Point", "coordinates": [ -118.1694583, 34.18228889 ] } },
{ "type": "Feature", "properties": { "observed_on": "4/17/2024", "updated_at": "2024-04-18 15:12:31 UTC", "num_identification_agreements": 2, "place_guess": "Woodglen Ln, Altadena, CA, US", "latitude": 34.19657927, "longitude": -118.1162871, "positional_accuracy": 13.0, "public_positional_accuracy": 13.0, "scientific_name": "Quercus agrifolia", "common_name": "coast live oak" }, "geometry": { "type": "Point", "coordinates": [ -118.1162871, 34.19657927 ] } },
{ "type": "Feature", "properties": { "observed_on": "4/28/2024", "updated_at": "2024-04-28 16:21:04 UTC", "num_identification_agreements": 0, "place_guess": "Saint James Pl, Altadena, CA, US", "latitude": 34.19331668, "longitude": -118.1347388, "positional_accuracy": 6.0, "public_positional_accuracy": 6.0, "scientific_name": "Quercus agrifolia", "common_name": "coast live oak" }, "geometry": { "type": "Point", "coordinates": [ -118.1347388, 34.19331668 ] } },
{ "type": "Feature", "properties": { "observed_on": "4/29/2024", "updated_at": "2024-04-30 21:41:28 UTC", "num_identification_agreements": 1, "place_guess": "Altadena, CA, USA", "latitude": 34.20412745, "longitude": -118.1260724, "positional_accuracy": 8.0, "public_positional_accuracy": 8.0, "scientific_name": "Quercus agrifolia", "common_name": "coast live oak" }, "geometry": { "type": "Point", "coordinates": [ -118.1260724, 34.20412745 ] } },
{ "type": "Feature", "properties": { "observed_on": "4/29/2024", "updated_at": "2024-06-21 03:59:23 UTC", "num_identification_agreements": 2, "place_guess": "W Chaparral Ct, Altadena, CA, US", "latitude": 34.20625623, "longitude": -118.1538083, "positional_accuracy": 4.0, "public_positional_accuracy": 4.0, "scientific_name": "Quercus agrifolia", "common_name": "coast live oak" }, "geometry": { "type": "Point", "coordinates": [ -118.1538083, 34.20625623 ] } },
{ "type": "Feature", "properties": { "observed_on": "5/23/2024", "updated_at": "2024-05-24 03:01:04 UTC", "num_identification_agreements": 0, "place_guess": "Los Angeles County, US-CA, US", "latitude": 34.18961979, "longitude": -118.1092879, "positional_accuracy": 200.0, "public_positional_accuracy": 28874.0, "scientific_name": "Quercus agrifolia", "common_name": "coast live oak" }, "geometry": { "type": "Point", "coordinates": [ -118.1092879, 34.18961979 ] } },
{ "type": "Feature", "properties": { "observed_on": "6/10/2024", "updated_at": "2024-06-11 15:15:50 UTC", "num_identification_agreements": 2, "place_guess": "Loma Alta Park, Altadena, CA, US", "latitude": 34.20329705, "longitude": -118.1588111, "positional_accuracy": 9.0, "public_positional_accuracy": 9.0, "scientific_name": "Quercus agrifolia", "common_name": "coast live oak" }, "geometry": { "type": "Point", "coordinates": [ -118.1588111, 34.20329705 ] } },
{ "type": "Feature", "properties": { "observed_on": "6/19/2024", "updated_at": "2024-09-04 23:47:01 UTC", "num_identification_agreements": 2, "place_guess": "Rubio Canyon Open Space, Altadena, CA, US", "latitude": 34.203975, "longitude": -118.1198278, "positional_accuracy": 6.0, "public_positional_accuracy": 6.0, "scientific_name": "Quercus agrifolia", "common_name": "coast live oak" }, "geometry": { "type": "Point", "coordinates": [ -118.1198278, 34.203975 ] } },
{ "type": "Feature", "properties": { "observed_on": "7/1/2024", "updated_at": "2024-07-07 22:14:27 UTC", "num_identification_agreements": 3, "place_guess": "Altadena, CA, US", "latitude": 34.20701167, "longitude": -118.1501528, "positional_accuracy": 3.0, "public_positional_accuracy": 3.0, "scientific_name": "Quercus agrifolia agrifolia", "common_name": "California Live Oak" }, "geometry": { "type": "Point", "coordinates": [ -118.1501528, 34.20701167 ] } },
{ "type": "Feature", "properties": { "observed_on": "7/1/2024", "updated_at": "2024-07-07 22:14:16 UTC", "num_identification_agreements": 3, "place_guess": "Altadena, CA, US", "latitude": 34.207405, "longitude": -118.1502695, "positional_accuracy": 4.0, "public_positional_accuracy": 4.0, "scientific_name": "Quercus agrifolia agrifolia", "common_name": "California Live Oak" }, "geometry": { "type": "Point", "coordinates": [ -118.1502695, 34.207405 ] } },
{ "type": "Feature", "properties": { "observed_on": "7/15/2024", "updated_at": "2024-08-07 04:59:21 UTC", "num_identification_agreements": 2, "place_guess": "W Chaparral Ct, Altadena, CA, US", "latitude": 34.20553333, "longitude": -118.1553638, "positional_accuracy": 4.0, "public_positional_accuracy": 4.0, "scientific_name": "Quercus agrifolia agrifolia", "common_name": "California Live Oak" }, "geometry": { "type": "Point", "coordinates": [ -118.1553638, 34.20553333 ] } },
{ "type": "Feature", "properties": { "observed_on": "7/25/2024", "updated_at": "2024-11-04 03:08:08 UTC", "num_identification_agreements": 1, "place_guess": "Chaney Trail, Altadena, CA, US", "latitude": 34.20728333, "longitude": -118.1478722, "positional_accuracy": 4.0, "public_positional_accuracy": 4.0, "scientific_name": "Quercus agrifolia", "common_name": "coast live oak" }, "geometry": { "type": "Point", "coordinates": [ -118.1478722, 34.20728333 ] } },
{ "type": "Feature", "properties": { "observed_on": "7/25/2024", "updated_at": "2024-11-04 03:08:08 UTC", "num_identification_agreements": 1, "place_guess": "Chaney Trail, Altadena, CA, US", "latitude": 34.20615, "longitude": -118.1497278, "positional_accuracy": 4.0, "public_positional_accuracy": 4.0, "scientific_name": "Quercus agrifolia", "common_name": "coast live oak" }, "geometry": { "type": "Point", "coordinates": [ -118.1497278, 34.20615 ] } },
{ "type": "Feature", "properties": { "observed_on": "7/31/2024", "updated_at": "2024-11-04 03:08:08 UTC", "num_identification_agreements": 1, "place_guess": "Angeles National Forest, Altadena, CA, US", "latitude": 34.20981667, "longitude": -118.1458888, "positional_accuracy": 4.0, "public_positional_accuracy": 4.0, "scientific_name": "Quercus agrifolia", "common_name": "coast live oak" }, "geometry": { "type": "Point", "coordinates": [ -118.1458888, 34.20981667 ] } },
{ "type": "Feature", "properties": { "observed_on": "8/1/2024", "updated_at": "2024-11-04 03:08:08 UTC", "num_identification_agreements": 1, "place_guess": "W Chaparral Ct, Altadena, CA, US", "latitude": 34.20617833, "longitude": -118.1538555, "positional_accuracy": 3.0, "public_positional_accuracy": 3.0, "scientific_name": "Quercus agrifolia", "common_name": "coast live oak" }, "geometry": { "type": "Point", "coordinates": [ -118.1538555, 34.20617833 ] } },
{ "type": "Feature", "properties": { "observed_on": "8/1/2024", "updated_at": "2024-11-04 03:08:08 UTC", "num_identification_agreements": 2, "place_guess": "W Loma Alta Dr, Altadena, CA, US", "latitude": 34.20387833, "longitude": -118.1542888, "positional_accuracy": 4.0, "public_positional_accuracy": 4.0, "scientific_name": "Quercus agrifolia agrifolia", "common_name": "California Live Oak" }, "geometry": { "type": "Point", "coordinates": [ -118.1542888, 34.20387833 ] } },
{ "type": "Feature", "properties": { "observed_on": "8/15/2024", "updated_at": "2024-08-24 20:16:18 UTC", "num_identification_agreements": 1, "place_guess": "W Chaparral Ct, Altadena, CA, US", "latitude": 34.20565, "longitude": -118.1553888, "positional_accuracy": 27.0, "public_positional_accuracy": 27.0, "scientific_name": "Quercus agrifolia", "common_name": "coast live oak" }, "geometry": { "type": "Point", "coordinates": [ -118.1553888, 34.20565 ] } },
{ "type": "Feature", "properties": { "observed_on": "8/15/2024", "updated_at": "2024-10-02 01:59:05 UTC", "num_identification_agreements": 2, "place_guess": "W Chaparral Ct, Altadena, CA, US", "latitude": 34.20568, "longitude": -118.155075, "positional_accuracy": 7.0, "public_positional_accuracy": 7.0, "scientific_name": "Quercus agrifolia", "common_name": "coast live oak" }, "geometry": { "type": "Point", "coordinates": [ -118.155075, 34.20568 ] } },
{ "type": "Feature", "properties": { "observed_on": "8/15/2024", "updated_at": "2024-10-11 23:22:52 UTC", "num_identification_agreements": 2, "place_guess": "W Chaparral Ct, Altadena, CA, US", "latitude": 34.20620833, "longitude": -118.1537862, "positional_accuracy": 15.0, "public_positional_accuracy": 15.0, "scientific_name": "Quercus agrifolia", "common_name": "coast live oak" }, "geometry": { "type": "Point", "coordinates": [ -118.1537862, 34.20620833 ] } },
{ "type": "Feature", "properties": { "observed_on": "9/9/2024", "updated_at": "2024-09-09 21:12:10 UTC", "num_identification_agreements": 1, "place_guess": "Angeles National Forest, Altadena, CA, US", "latitude": 34.20535333, "longitude": -118.1257167, "positional_accuracy": null, "public_positional_accuracy": null, "scientific_name": "Quercus agrifolia", "common_name": "coast live oak" }, "geometry": { "type": "Point", "coordinates": [ -118.1257167, 34.20535333 ] } },
{ "type": "Feature", "properties": { "observed_on": "9/15/2024", "updated_at": "2024-09-20 05:25:04 UTC", "num_identification_agreements": 3, "place_guess": "Angeles National Forest, Altadena, CA, US", "latitude": 34.20818, "longitude": -118.1475, "positional_accuracy": 4.0, "public_positional_accuracy": 4.0, "scientific_name": "Quercus agrifolia", "common_name": "coast live oak" }, "geometry": { "type": "Point", "coordinates": [ -118.1475, 34.20818 ] } },
{ "type": "Feature", "properties": { "observed_on": "9/16/2024", "updated_at": "2024-09-16 20:14:33 UTC", "num_identification_agreements": 0, "place_guess": "El Sereno Ave, Altadena, CA, US", "latitude": 34.20688833, "longitude": -118.1423638, "positional_accuracy": 4.0, "public_positional_accuracy": 4.0, "scientific_name": "Quercus agrifolia", "common_name": "coast live oak" }, "geometry": { "type": "Point", "coordinates": [ -118.1423638, 34.20688833 ] } },
{ "type": "Feature", "properties": { "observed_on": "9/22/2024", "updated_at": "2024-09-22 19:59:50 UTC", "num_identification_agreements": 1, "place_guess": "Altadena, CA, US", "latitude": 34.20742, "longitude": -118.1502445, "positional_accuracy": 20.0, "public_positional_accuracy": 20.0, "scientific_name": "Quercus agrifolia", "common_name": "coast live oak" }, "geometry": { "type": "Point", "coordinates": [ -118.1502445, 34.20742 ] } },
{ "type": "Feature", "properties": { "observed_on": "10/16/2024", "updated_at": "2024-10-25 05:20:13 UTC", "num_identification_agreements": 1, "place_guess": "Altadena, CA, USA", "latitude": 34.21475278, "longitude": -118.1474472, "positional_accuracy": null, "public_positional_accuracy": null, "scientific_name": "Quercus agrifolia", "common_name": "coast live oak" }, "geometry": { "type": "Point", "coordinates": [ -118.1474472, 34.21475278 ] } },
{ "type": "Feature", "properties": { "observed_on": "10/16/2024", "updated_at": "2024-10-18 19:59:54 UTC", "num_identification_agreements": 0, "place_guess": "Altadena, CA, USA", "latitude": 34.214775, "longitude": -118.1475139, "positional_accuracy": null, "public_positional_accuracy": null, "scientific_name": "Quercus agrifolia", "common_name": "coast live oak" }, "geometry": { "type": "Point", "coordinates": [ -118.1475139, 34.214775 ] } },
{ "type": "Feature", "properties": { "observed_on": "10/19/2024", "updated_at": "2024-10-20 17:40:49 UTC", "num_identification_agreements": 1, "place_guess": "Altadena, CA, USA", "latitude": 34.21058128, "longitude": -118.1507693, "positional_accuracy": 490.0, "public_positional_accuracy": 490.0, "scientific_name": "Quercus agrifolia", "common_name": "coast live oak" }, "geometry": { "type": "Point", "coordinates": [ -118.1507693, 34.21058128 ] } },
{ "type": "Feature", "properties": { "observed_on": "10/22/2024", "updated_at": "2025-01-23 06:37:23 UTC", "num_identification_agreements": 4, "place_guess": "Altadena, CA, USA", "latitude": 34.21464404, "longitude": -118.1462756, "positional_accuracy": 69.0, "public_positional_accuracy": 69.0, "scientific_name": "Quercus agrifolia", "common_name": "coast live oak" }, "geometry": { "type": "Point", "coordinates": [ -118.1462756, 34.21464404 ] } },
{ "type": "Feature", "properties": { "observed_on": "10/29/2024", "updated_at": "2024-10-31 00:29:30 UTC", "num_identification_agreements": 0, "place_guess": "Altadena, CA, USA", "latitude": 34.20164306, "longitude": -118.134612, "positional_accuracy": 5.0, "public_positional_accuracy": 5.0, "scientific_name": "Quercus agrifolia", "common_name": "coast live oak" }, "geometry": { "type": "Point", "coordinates": [ -118.134612, 34.20164306 ] } },
{ "type": "Feature", "properties": { "observed_on": "11/1/2024", "updated_at": "2024-11-03 22:33:24 UTC", "num_identification_agreements": 0, "place_guess": "Pasadena, CA 91107, USA", "latitude": 34.215, "longitude": -118.147, "positional_accuracy": null, "public_positional_accuracy": null, "scientific_name": "Quercus agrifolia", "common_name": "coast live oak" }, "geometry": { "type": "Point", "coordinates": [ -118.147, 34.215 ] } },
{ "type": "Feature", "properties": { "observed_on": "11/10/2024", "updated_at": "2024-11-11 21:14:35 UTC", "num_identification_agreements": 0, "place_guess": "Altadena, CA, USA", "latitude": 34.20119365, "longitude": -118.1264315, "positional_accuracy": 3.0, "public_positional_accuracy": 3.0, "scientific_name": "Quercus agrifolia", "common_name": "coast live oak" }, "geometry": { "type": "Point", "coordinates": [ -118.1264315, 34.20119365 ] } },
{ "type": "Feature", "properties": { "observed_on": "11/23/2024", "updated_at": "2024-12-02 01:27:12 UTC", "num_identification_agreements": 0, "place_guess": "W Chaparral Ct, Altadena, CA, US", "latitude": 34.20615, "longitude": -118.1538472, "positional_accuracy": 5.0, "public_positional_accuracy": 5.0, "scientific_name": "Quercus agrifolia", "common_name": "coast live oak" }, "geometry": { "type": "Point", "coordinates": [ -118.1538472, 34.20615 ] } },
{ "type": "Feature", "properties": { "observed_on": "12/12/2024", "updated_at": "2024-12-21 03:37:13 UTC", "num_identification_agreements": 1, "place_guess": "New York Dr & Altadena Dr, Altadena, CA 91107, USA", "latitude": 34.17486389, "longitude": -118.0974417, "positional_accuracy": null, "public_positional_accuracy": null, "scientific_name": "Quercus agrifolia", "common_name": "coast live oak" }, "geometry": { "type": "Point", "coordinates": [ -118.0974417, 34.17486389 ] } }
]
}
