{
"type": "FeatureCollection",
"name": "altadena_boundary",
"crs": { "type": "name", "properties": { "name": "urn:ogc:def:crs:OGC:1.3:CRS84" } },
"features": [
{ "type": "Feature", "properties": { "OBJECTID": 4, "dbgis_USER2_DIST_DRP_CITY_C_2": 244113957.90774408, "PERIMETER": 95045.302682900001, "GPLAN_INDEX2_": null, "GPLAN_INDEX2_ID": null, "CITY": null, "CITYNAME_ALF": null, "SYMBOL_COLORNAME": null, "COMP_NO": null, "TYPE": "COMMUNITY", "ADOPTED": "07-10-86", "SYMBOL": 83.0, "NAME": "ALTADENA", "ACRES": 5604.0629350999998, "CITY_COMM_NAME": "ALTADENA", "ZCIP_PHASE": null, "SQ_MILES": 8.75634834, "JURISDICTION": "UNINCORPORATED AREA", "area_1": null, "dbgis_USER2_DIST_DRP_CITY_C_20": null, "GlobalID": "8664fd7c-b3a9-4bb0-b563-b1a3fc1e9a2c" }, "geometry": { "type": "Polygon", "coordinates": [ [ [ -118.159761215334996, 34.217273967229801 ], [ -118.157397923003998, 34.216744070655899 ], [ -118.157390551665003, 34.218554660073202 ], [ -118.153065981184994, 34.218367269103098 ], [ -118.153085564218003, 34.215738721025403 ], [ -118.153052355702997, 34.215737097004002 ], [ -118.144310687672998, 34.215242939183199 ], [ -118.135578316812001, 34.214748679523801 ], [ -118.135507013169999, 34.214707776672199 ], [ -118.135249777962002, 34.214560213292401 ], [ -118.130875508722994, 34.212050754931198 ], [ -118.128907154657995, 34.210921436907597 ], [ -118.126490696958001, 34.209534939979903 ], [ -118.122775906537996, 34.2074032990623 ], [ -118.122140938696006, 34.207415734668302 ], [ -118.122041863337003, 34.207417675572501 ], [ -118.119284438831002, 34.207471639737399 ], [ -118.118545761129994, 34.2074860852494 ], [ -118.117774949563, 34.207501154349004 ], [ -118.117778056136004, 34.206281520884701 ], [ -118.117780656752998, 34.205260243753798 ], [ -118.117781038811998, 34.205110284452701 ], [ -118.117782498669001, 34.204537374254599 ], [ -118.116695992824006, 34.203913509897497 ], [ -118.115723442057998, 34.203355612708698 ], [ -118.114964373575006, 34.202736007080603 ], [ -118.114117862905999, 34.202044797554201 ], [ -118.113315918534994, 34.201389421332102 ], [ -118.112918251029996, 34.201064427783699 ], [ -118.112119488939001, 34.200463659955297 ], [ -118.109151433495995, 34.198229321665401 ], [ -118.107373174884003, 34.196890333315601 ], [ -118.106375024851005, 34.196138719595702 ], [ -118.104820045729994, 34.195175469145298 ], [ -118.104819701408005, 34.1951751566124 ], [ -118.104819702998995, 34.195173830458501 ], [ -118.104820286445999, 34.194164682933703 ], [ -118.104820288466001, 34.1941611047545 ], [ -118.104820503732995, 34.193787973412199 ], [ -118.104820507922, 34.193784395231098 ], [ -118.104821512449007, 34.1934099478717 ], [ -118.104821516637998, 34.193406369690599 ], [ -118.104821476691001, 34.193383182341996 ], [ -118.104821471115997, 34.193379604169301 ], [ -118.104820212839002, 34.193300255185399 ], [ -118.104820156271003, 34.193296676155398 ], [ -118.104956670346994, 34.193298309465199 ], [ -118.105084844193996, 34.1932996253149 ], [ -118.105097113792993, 34.193299751688699 ], [ -118.105320127769005, 34.193302039648103 ], [ -118.105605116627999, 34.193304786080702 ], [ -118.106054458830002, 34.193309147654503 ], [ -118.106124234964, 34.193310102487601 ], [ -118.106842237386999, 34.1933175671249 ], [ -118.106845537778995, 34.193317601172701 ], [ -118.106395475637001, 34.192825606724199 ], [ -118.106289937585004, 34.192708640177003 ], [ -118.105989954231006, 34.192380395319297 ], [ -118.105893684246993, 34.192269108067499 ], [ -118.105589408436003, 34.191917344126097 ], [ -118.105494690629001, 34.191800657735598 ], [ -118.105352105473997, 34.191624243251603 ], [ -118.105175778524, 34.191407534253102 ], [ -118.104923690991995, 34.191098646060503 ], [ -118.104929097276994, 34.190880327472698 ], [ -118.104929186085002, 34.190876750119799 ], [ -118.104828361200006, 34.190875792660499 ], [ -118.104796748083999, 34.190875518038901 ], [ -118.104747312048005, 34.190875038869798 ], [ -118.104602012371004, 34.190714199807502 ], [ -118.104600618519996, 34.190712656689797 ], [ -118.104788494778006, 34.190437514444497 ], [ -118.104829687163999, 34.190377162709702 ], [ -118.104933986166003, 34.190327885637601 ], [ -118.104936317981995, 34.190236654064996 ], [ -118.104938049137004, 34.190166444918397 ], [ -118.104948717995001, 34.189747714081598 ], [ -118.104948794479, 34.189744692082598 ], [ -118.104893595947999, 34.189368171274801 ], [ -118.104888559105007, 34.189333799355801 ], [ -118.104870849418006, 34.189213540530503 ], [ -118.104847394283993, 34.189177975622798 ], [ -118.104455998549994, 34.188585021059197 ], [ -118.104416406742999, 34.188523695224902 ], [ -118.104136127710007, 34.188227084251899 ], [ -118.103984119068002, 34.188200011315402 ], [ -118.103983887444997, 34.188199571567303 ], [ -118.103855258539994, 34.187934127946001 ], [ -118.103787199069998, 34.1877936601865 ], [ -118.103734522414001, 34.187685000544398 ], [ -118.103734189595002, 34.187684312961501 ], [ -118.103766179635997, 34.187402986156201 ], [ -118.103768076861002, 34.187386249405201 ], [ -118.103791766238004, 34.187185029858398 ], [ -118.103820007449002, 34.186984633104402 ], [ -118.103820413931004, 34.186981745151201 ], [ -118.103693704939005, 34.186769224102598 ], [ -118.103626215364997, 34.186661290223398 ], [ -118.103598284450001, 34.186589072651699 ], [ -118.103272478725003, 34.186637246899402 ], [ -118.103154583419993, 34.1866519658249 ], [ -118.103153393553995, 34.186652131819798 ], [ -118.102946115712001, 34.186665737613197 ], [ -118.102940068213996, 34.1866661349259 ], [ -118.102940266603994, 34.186666024770297 ], [ -118.103214975542002, 34.1864843692465 ], [ -118.103216670844006, 34.186483248098199 ], [ -118.103048660699002, 34.186240425088201 ], [ -118.102818120519999, 34.185913706234501 ], [ -118.102529432431993, 34.185678238744302 ], [ -118.102426726033997, 34.185754964020603 ], [ -118.102426593315002, 34.185754662120097 ], [ -118.102347207804996, 34.185597138964397 ], [ -118.102316547710998, 34.1855363268755 ], [ -118.102151744728999, 34.185194341401797 ], [ -118.102150534250001, 34.185191828955197 ], [ -118.102344418445, 34.1850204724105 ], [ -118.102346003885003, 34.185019125083102 ], [ -118.102379198343002, 34.1849899694217 ], [ -118.102385771776, 34.1849841931569 ], [ -118.102451660550997, 34.184925913780503 ], [ -118.102453822418994, 34.184924001604799 ], [ -118.102357515912004, 34.184849957444797 ], [ -118.102331504595, 34.184829941120199 ], [ -118.102297036707, 34.184803366992398 ], [ -118.102142091475002, 34.1846740065061 ], [ -118.102021187380004, 34.184565323482403 ], [ -118.101786013077003, 34.184342950698102 ], [ -118.101702663612002, 34.184272386744098 ], [ -118.101582842710997, 34.184184622403002 ], [ -118.101580068939995, 34.184182907315602 ], [ -118.101454708323999, 34.184105083274702 ], [ -118.101451095572997, 34.1841030154878 ], [ -118.101447481787005, 34.1841009882707 ], [ -118.101443822438995, 34.1840989610916 ], [ -118.101440207571002, 34.184096935678099 ], [ -118.101436547139997, 34.184094909401303 ], [ -118.101432884592001, 34.1840929263996 ], [ -118.101429217654001, 34.184090901931 ], [ -118.101425558358002, 34.184088916221803 ], [ -118.101421891469002, 34.184086931420303 ], [ -118.101418231089994, 34.184084947514798 ], [ -118.101414515388001, 34.1840829654586 ], [ -118.101410850670007, 34.184080981556598 ], [ -118.101407187091993, 34.184079042729998 ], [ -118.101403470357994, 34.184077103046299 ], [ -118.101399754655006, 34.184075119186602 ], [ -118.101396043343001, 34.184073177695097 ], [ -118.101392324491002, 34.184071280384799 ], [ -118.101388608839002, 34.184069338896698 ], [ -118.101384897529002, 34.184067398306397 ], [ -118.101377463079999, 34.184063603682397 ], [ -118.101373697579007, 34.184061703706 ], [ -118.101369986319995, 34.184059805487202 ], [ -118.101366216486994, 34.1840579109234 ], [ -118.101362446701998, 34.184056056026897 ], [ -118.101358681201006, 34.184054156050003 ], [ -118.101354915753006, 34.184052299346597 ], [ -118.101351148142996, 34.184050448054002 ], [ -118.101347378355996, 34.184048591353999 ], [ -118.101343610792, 34.184046778826897 ], [ -118.101339843182004, 34.184044927533897 ], [ -118.101336026800993, 34.184043113244599 ], [ -118.101332261408999, 34.184041301616901 ], [ -118.101328441777, 34.184039490936101 ], [ -118.101324621055994, 34.1840376757483 ], [ -118.101320853497995, 34.184035866826697 ], [ -118.101317031695999, 34.184034054344302 ], [ -118.101313217536998, 34.184032283325799 ], [ -118.101309397959, 34.184030515917897 ], [ -118.101305527395994, 34.1840287485524 ], [ -118.101301707814002, 34.184026977538103 ], [ -118.101297889321003, 34.184025210128901 ], [ -118.101294018808005, 34.184023484233499 ], [ -118.101290199279006, 34.184021756492299 ], [ -118.101286328713996, 34.184019987323197 ], [ -118.101282456031001, 34.1840182605278 ], [ -118.101278636559996, 34.184016579665702 ], [ -118.101270893364998, 34.184013126973902 ], [ -118.101267022900004, 34.184011439843502 ], [ -118.101263098203006, 34.184009759069099 ], [ -118.101259227745999, 34.184008077347599 ], [ -118.101255359453006, 34.184006392017999 ], [ -118.101251434752996, 34.184004708538602 ], [ -118.101247564345996, 34.184003068287097 ], [ -118.101243641866006, 34.184001426276097 ], [ -118.101239719391003, 34.183999787871002 ], [ -118.101235846812997, 34.183998145817903 ], [ -118.101231926506998, 34.183996507410697 ], [ -118.101228002945007, 34.183994867203097 ], [ -118.101224082686997, 34.183993267561497 ], [ -118.101220155874003, 34.183991629159401 ], [ -118.101216182461997, 34.183990030463598 ], [ -118.101212262206005, 34.183988432624602 ], [ -118.101208337665, 34.183986878964198 ], [ -118.101204364254997, 34.183985281169399 ], [ -118.101200444049994, 34.183983724800598 ], [ -118.101196464184, 34.183982171186003 ], [ -118.101192489688998, 34.1839805733918 ], [ -118.101188568458994, 34.183979065705998 ], [ -118.101184594013006, 34.183977507578902 ], [ -118.101180620657999, 34.183975954859903 ], [ -118.101012960733996, 34.183911427260902 ], [ -118.101006353307994, 34.1839088363689 ], [ -118.100999744796994, 34.183906244576001 ], [ -118.100993137322007, 34.183903612213001 ], [ -118.100986582947002, 34.183900933827204 ], [ -118.100980028525001, 34.183898216675203 ], [ -118.100973523948994, 34.183895452601703 ], [ -118.100967021491002, 34.183892646154 ], [ -118.100960519032995, 34.183889838804603 ], [ -118.100954065291006, 34.183886948473202 ], [ -118.100947613721004, 34.183884059942699 ], [ -118.100941214163996, 34.183881123587298 ], [ -118.100934815695993, 34.183878189935299 ], [ -118.100928467025994, 34.183875170595897 ], [ -118.100922121607994, 34.1838721485489 ], [ -118.100915824957994, 34.1838690867935 ], [ -118.100909526086994, 34.183865981766097 ], [ -118.100903283573999, 34.183862833417898 ], [ -118.100897043174996, 34.183859639089498 ], [ -118.100890796274001, 34.183856450175398 ], [ -118.100884604645003, 34.183853216138303 ], [ -118.100878467203003, 34.183849937880701 ], [ -118.100872327540003, 34.183846617252698 ], [ -118.100866185710004, 34.183843297527702 ], [ -118.100860095898994, 34.183839935386999 ], [ -118.100854059190993, 34.183836529026799 ], [ -118.100848023517003, 34.183833080293397 ], [ -118.100842040947995, 34.1838295891435 ], [ -118.100836054038993, 34.183826097095299 ], [ -118.100830068161997, 34.183822560871 ], [ -118.100824187463004, 34.183818984891403 ], [ -118.100818253556, 34.183815364780699 ], [ -118.100812425960001, 34.183811743679698 ], [ -118.100806598313, 34.183808080206497 ], [ -118.100800769531006, 34.183804375263399 ], [ -118.100794993850002, 34.183800624297803 ], [ -118.100789264823007, 34.183796879603797 ], [ -118.100783542247996, 34.183793087122901 ], [ -118.100777813112003, 34.183789250472103 ], [ -118.100772191378994, 34.183785420042497 ], [ -118.100766565244996, 34.183781538228899 ], [ -118.100760945580006, 34.183777622151503 ], [ -118.100755377924997, 34.183773656446199 ], [ -118.100749861259999, 34.183769693402901 ], [ -118.100744339120993, 34.183765687991901 ], [ -118.100738874426, 34.183761641062297 ], [ -118.100728044730999, 34.1837534560648 ], [ -118.100722680874, 34.183749366678697 ], [ -118.100717316911002, 34.183745188942197 ], [ -118.100712009353003, 34.183741007552499 ], [ -118.100706747312998, 34.183736789161898 ], [ -118.100701490643999, 34.183732525689997 ], [ -118.100696279537999, 34.183728263982999 ], [ -118.100691124790998, 34.183723958955397 ], [ -118.100685967874, 34.183719653027801 ], [ -118.100680868401994, 34.183715305581799 ], [ -118.100675812266999, 34.1837109130229 ], [ -118.100670760423, 34.183706478989798 ], [ -118.100665758481, 34.183702045816503 ], [ -118.100660811861999, 34.183697609892398 ], [ -118.100655860803002, 34.183693091030896 ], [ -118.100650966154006, 34.183688571220699 ], [ -118.100646121401994, 34.183684047762704 ], [ -118.100641325370006, 34.183679444027597 ], [ -118.100636535896996, 34.183674881757398 ], [ -118.100631792968997, 34.183670234704302 ], [ -118.100627048953996, 34.1836655858489 ], [ -118.100622360214004, 34.183660894575397 ], [ -118.100617721372998, 34.183656201457097 ], [ -118.100613136727006, 34.183651470429197 ], [ -118.100608603062994, 34.183646735752603 ], [ -118.100604065008, 34.183641957806003 ], [ -118.100599583309005, 34.183637135637298 ], [ -118.100595103787995, 34.183632318875901 ], [ -118.100590722931997, 34.183627458758799 ], [ -118.100586339900005, 34.183622593234098 ], [ -118.100582015401002, 34.183617688894799 ], [ -118.100577685475002, 34.183612781855203 ], [ -118.100573410826001, 34.183607834200501 ], [ -118.100569240322997, 34.183602890065302 ], [ -118.100565014431993, 34.1835978936872 ], [ -118.100560893725003, 34.183592862061801 ], [ -118.100556773015995, 34.1835878277316 ], [ -118.100552758565996, 34.183582750941 ], [ -118.100548738691998, 34.183577674154797 ], [ -118.100544722077998, 34.1835726009718 ], [ -118.100540809549997, 34.183567481724097 ], [ -118.100536898054003, 34.183562318300403 ], [ -118.100533035374994, 34.183557155737603 ], [ -118.100529224718002, 34.183551951661002 ], [ -118.100525462877002, 34.183546747543602 ], [ -118.100521708626999, 34.183541541616798 ], [ -118.100518003145993, 34.183536295080401 ], [ -118.100514396329004, 34.183531005188499 ], [ -118.100510742862994, 34.183525712630498 ], [ -118.100507194626999, 34.183520422689597 ], [ -118.100503690818002, 34.183515091241297 ], [ -118.100500192382, 34.183509717416499 ], [ -118.100496744975004, 34.183504378708903 ], [ -118.100493345258002, 34.183499005703297 ], [ -118.100490002979996, 34.183493586671901 ], [ -118.100486657453004, 34.183488171249202 ], [ -118.100483419260996, 34.183482706153001 ], [ -118.100480173481998, 34.1834772455707 ], [ -118.100476989539004, 34.1834717867401 ], [ -118.100473850019, 34.183466282795898 ], [ -118.100470763654997, 34.183460779708902 ], [ -118.100467729360005, 34.183455274775604 ], [ -118.100464693928998, 34.183449726569599 ], [ -118.10046171274, 34.183444180121597 ], [ -118.100458778146006, 34.183438590361398 ], [ -118.100455952033997, 34.183433002313997 ], [ -118.100453074935004, 34.1834274125058 ], [ -118.100450299756005, 34.183421780240998 ], [ -118.100447573392998, 34.183416147935603 ], [ -118.100444851318002, 34.183410472353003 ], [ -118.100442232301006, 34.183404798487899 ], [ -118.100439611113003, 34.183399122821399 ], [ -118.100437039827995, 34.183393448916497 ], [ -118.100434525986003, 34.183387731690402 ], [ -118.100432059873995, 34.183382013523101 ], [ -118.100429595934997, 34.183376298058498 ], [ -118.100427232827997, 34.183370537433603 ], [ -118.100424869719006, 34.183364774104 ], [ -118.100422612924007, 34.183359014292201 ], [ -118.100420352824997, 34.183353213012801 ], [ -118.100418143710002, 34.183347409887901 ], [ -118.100415988834996, 34.183341606717903 ], [ -118.100413884896994, 34.1833357629367 ], [ -118.100411784263002, 34.183329959721597 ], [ -118.100409781208, 34.183324113151997 ], [ -118.10040783126, 34.183318225969401 ], [ -118.100405885699999, 34.183312379352003 ], [ -118.100404039889, 34.183306488476703 ], [ -118.100402195168996, 34.183300603009698 ], [ -118.100400402519, 34.1832947174995 ], [ -118.100398659768004, 34.183288829243097 ], [ -118.100396972287001, 34.183282895864401 ], [ -118.100395334712005, 34.183276966951901 ], [ -118.100393749204997, 34.183271036192998 ], [ -118.100392161532994, 34.183265109042097 ], [ -118.100390675772005, 34.183259131320803 ], [ -118.100389193325995, 34.183253204082497 ], [ -118.100387813880005, 34.183247230780601 ], [ -118.100386433349001, 34.183241256578 ], [ -118.100385109230999, 34.183235285033199 ], [ -118.100383829535005, 34.183229268375101 ], [ -118.100382605215003, 34.183223294042797 ], [ -118.100381431833995, 34.183217280902497 ], [ -118.100380310518005, 34.183211264112799 ], [ -118.100379239103006, 34.183205246380098 ], [ -118.100378226271999, 34.1831992331065 ], [ -118.100377260087001, 34.183193219794099 ], [ -118.100376291732999, 34.183187206483602 ], [ -118.100375426376004, 34.183181144404898 ], [ -118.100374565362003, 34.183175085928703 ], [ -118.100373806373995, 34.183169072444301 ], [ -118.100373047332994, 34.183163015686603 ], [ -118.100372337108993, 34.183156958888297 ], [ -118.100371681121999, 34.183150900241998 ], [ -118.100371076119998, 34.1831448415533 ], [ -118.100370525358997, 34.183138782819697 ], [ -118.100370022332001, 34.183132727652499 ], [ -118.100369572407999, 34.183126628266301 ], [ -118.100369176772006, 34.183120569403798 ], [ -118.100368778971003, 34.183114514149402 ], [ -118.100368482001002, 34.183108413734701 ], [ -118.100368239326002, 34.183102358351398 ], [ -118.100367998764, 34.183096256988399 ], [ -118.100367856971999, 34.1830901997184 ], [ -118.100367717302007, 34.183084102779397 ], [ -118.100367629748007, 34.183078043661297 ], [ -118.100364757931999, 34.182712046946001 ], [ -118.100349553667996, 34.180716359063901 ], [ -118.100349549984003, 34.180716001159098 ], [ -118.100349549407994, 34.180715521545103 ], [ -118.100349555879006, 34.180712780885102 ], [ -118.100349512958999, 34.1807095606517 ], [ -118.100349474379996, 34.180706341316103 ], [ -118.100349428203998, 34.1807031192822 ], [ -118.100349336522001, 34.1806999423627 ], [ -118.100349292516995, 34.180696722130001 ], [ -118.100349196444995, 34.180693501940603 ], [ -118.100349103628005, 34.180690283551598 ], [ -118.100349006466004, 34.180687059756998 ], [ -118.100348913645007, 34.180683837761798 ], [ -118.100348818710998, 34.180680662648001 ], [ -118.100348725890996, 34.1806774406529 ], [ -118.100348577749003, 34.180674220506603 ], [ -118.100348431776993, 34.180671000358601 ], [ -118.100348284773006, 34.180667823485003 ], [ -118.100348140967995, 34.180664601532101 ], [ -118.100347850109998, 34.180658162136702 ], [ -118.100347703053998, 34.180654941989602 ], [ -118.100347502890997, 34.180651761553897 ], [ -118.100347304850999, 34.180648541449102 ], [ -118.100347108980003, 34.180645321342503 ], [ -118.100346913161005, 34.180642144509299 ], [ -118.100346715121006, 34.180638924404498 ], [ -118.100346462836001, 34.180635698935603 ], [ -118.100346262626999, 34.1806324788325 ], [ -118.100346014741007, 34.180629303845699 ], [ -118.100345766800004, 34.180626081979099 ], [ -118.100345519943005, 34.180622860111797 ], [ -118.100345269884002, 34.180619681520596 ], [ -118.100345017606003, 34.180616461460801 ], [ -118.100344770749999, 34.1806132404949 ], [ -118.100344468626005, 34.180610064651503 ], [ -118.100344165359999, 34.180606841027803 ], [ -118.100343866488998, 34.180603664280099 ], [ -118.100343568650999, 34.180600444258097 ], [ -118.100343263217994, 34.180597223340897 ], [ -118.100342962175006, 34.180594043890402 ], [ -118.100342611184999, 34.180590824813997 ], [ -118.100342258075003, 34.180587647209798 ], [ -118.100341958064007, 34.180584424484998 ], [ -118.100341602783999, 34.180581246882603 ], [ -118.100341249623995, 34.180578026906502 ], [ -118.100340847696003, 34.180574846638201 ], [ -118.100340494535999, 34.180571626662001 ], [ -118.100340087187007, 34.1805684482012 ], [ -118.100339736194996, 34.1805652273218 ], [ -118.100339334268995, 34.180562047955 ], [ -118.100338924751995, 34.180558871299098 ], [ -118.100338468535, 34.180555647802301 ], [ -118.100338067698999, 34.180552472942303 ], [ -118.100337661438004, 34.1805492962838 ], [ -118.100337207389998, 34.180546072785098 ], [ -118.100336747975007, 34.1805428961706 ], [ -118.100336293978003, 34.180539714142498 ], [ -118.100335837767005, 34.180536496054799 ], [ -118.100335381601994, 34.180533315831497 ], [ -118.100334927608998, 34.180530137409498 ], [ -118.100334419380999, 34.180526961737002 ], [ -118.100333908926999, 34.180523739186697 ], [ -118.100333400698005, 34.180520561711198 ], [ -118.100332894632004, 34.180517379726197 ], [ -118.100332388571999, 34.180514203150302 ], [ -118.100331879256998, 34.180511024774098 ], [ -118.100331371028005, 34.180507848200101 ], [ -118.100330810724003, 34.180504666260099 ], [ -118.100330251513, 34.180501490629901 ], [ -118.100329691211002, 34.180498310492901 ], [ -118.100329136286007, 34.180495090684097 ], [ -118.100328573864999, 34.180491952019302 ], [ -118.100328014655005, 34.180488777290599 ], [ -118.100327403370002, 34.180485597195897 ], [ -118.100326794257001, 34.1804824189025 ], [ -118.100326233957006, 34.1804792396671 ], [ -118.100325618333002, 34.180476059575902 ], [ -118.100325009222004, 34.180472883085599 ], [ -118.100324348040999, 34.180469704835303 ], [ -118.100323736754007, 34.1804665229376 ], [ -118.100323074542999, 34.180463390666198 ], [ -118.100322463259999, 34.180460212374498 ], [ -118.100321802077005, 34.1804570323212 ], [ -118.100321134438005, 34.180453896448299 ], [ -118.100320474339995, 34.180450716393999 ], [ -118.100319754580994, 34.180447538192396 ], [ -118.100319094539003, 34.180444405017703 ], [ -118.100318383455004, 34.1804412232026 ], [ -118.100317669122006, 34.180438045898001 ], [ -118.100316953752994, 34.180434909163097 ], [ -118.100316235080001, 34.1804317309605 ], [ -118.100315525138001, 34.180428596925601 ], [ -118.100314810854002, 34.180425460189802 ], [ -118.100314042280999, 34.180422281127001 ], [ -118.100313329084003, 34.180419146193302 ], [ -118.100312560511995, 34.180415968032101 ], [ -118.100311796325997, 34.180412828633003 ], [ -118.100311032142997, 34.1804096919386 ], [ -118.100310263574002, 34.180406515580401 ], [ -118.100309446238995, 34.180403379831503 ], [ -118.100308679886993, 34.180400243138799 ], [ -118.100307863634995, 34.180397105585897 ], [ -118.100307046303001, 34.180393972541701 ], [ -118.100306225712998, 34.180390834992401 ], [ -118.100305408376997, 34.180387698342003 ], [ -118.100304589958, 34.180384562594 ], [ -118.100303722723993, 34.180381425984898 ], [ -118.100302851153998, 34.1803782920841 ], [ -118.100302032734007, 34.180375155434497 ], [ -118.100301165499005, 34.180372017923901 ], [ -118.100300293928001, 34.180368883121503 ], [ -118.100299424523001, 34.180365745612697 ], [ -118.100298500883994, 34.1803626108534 ], [ -118.100297634786003, 34.180359516615397 ], [ -118.100296712231, 34.180356380953597 ], [ -118.100295790759006, 34.180353244389501 ], [ -118.100294869289002, 34.180350108726898 ], [ -118.100293950041006, 34.180347017237501 ], [ -118.100293026396997, 34.1803438779705 ], [ -118.100292106061005, 34.180340783777403 ], [ -118.100291132520994, 34.180337647256401 ], [ -118.100290164456993, 34.180334553102803 ], [ -118.100289236479, 34.180331418347102 ], [ -118.100288267333994, 34.180328327800503 ], [ -118.100287294932002, 34.180325235453502 ], [ -118.100286266067002, 34.180322096273798 ], [ -118.100285293664996, 34.180319003025303 ], [ -118.100284272449997, 34.180315910718797 ], [ -118.100283300046002, 34.180312816568801 ], [ -118.100282271186003, 34.180309680995101 ], [ -118.100281248882993, 34.180306585984901 ], [ -118.100280224415002, 34.180303495484097 ], [ -118.100279145702004, 34.180300397816097 ], [ -118.100278125573993, 34.180297307311598 ], [ -118.100277049032002, 34.180294211444902 ], [ -118.100276022393999, 34.180291119142801 ], [ -118.100274945905994, 34.180288068352503 ], [ -118.100273870452, 34.180284974287801 ], [ -118.100272741843995, 34.180281880267103 ], [ -118.100271664218994, 34.180278785302697 ], [ -118.100270589901996, 34.180275735412103 ], [ -118.100269462380993, 34.180272642292103 ], [ -118.100268330519, 34.180269548274097 ], [ -118.100267206303002, 34.180266497523299 ], [ -118.100266078781004, 34.180263403501698 ], [ -118.100264946970995, 34.180260352757202 ], [ -118.100263818366003, 34.180257260539499 ], [ -118.100262640999006, 34.180254210734198 ], [ -118.100261509187007, 34.1802511581866 ], [ -118.100260331765, 34.180248063304802 ], [ -118.100259152226002, 34.180245011698197 ], [ -118.100257970515997, 34.180241959191903 ], [ -118.100256795321997, 34.180238912089301 ], [ -118.100255564801998, 34.180235863229598 ], [ -118.100254380923005, 34.180232810725101 ], [ -118.100253149316003, 34.180229759161598 ], [ -118.100251920963998, 34.180226708497003 ], [ -118.100250685017002, 34.180223656035601 ], [ -118.100249456667996, 34.180220607173901 ], [ -118.100248222893995, 34.180217557415297 ], [ -118.100246992370998, 34.180214504949298 ], [ -118.100245710913995, 34.180211493995998 ], [ -118.100244480395006, 34.180208445136103 ], [ -118.100243195638001, 34.180205395419698 ], [ -118.100241912016003, 34.1802023880742 ], [ -118.100240629420995, 34.180199332045298 ], [ -118.100239344718005, 34.180196327405199 ], [ -118.100238010113003, 34.180193320101999 ], [ -118.100236725353994, 34.1801902685824 ], [ -118.100235392917, 34.180187259474302 ], [ -118.100234058311003, 34.180184251269502 ], [ -118.100232725824, 34.180181200690903 ], [ -118.100231390133004, 34.180178191585497 ], [ -118.100230055525998, 34.180175181577603 ], [ -118.099445565254996, 34.178426602778302 ], [ -118.099272343126003, 34.178040536377999 ], [ -118.098945080470003, 34.177286769369204 ], [ -118.098720304100993, 34.176768267066699 ], [ -118.098554982268993, 34.176399748716399 ], [ -118.098294347719005, 34.175818953807102 ], [ -118.098252039369001, 34.175708585791099 ], [ -118.098251219665002, 34.175706098231302 ], [ -118.098250452027997, 34.175703610629199 ], [ -118.098249686551995, 34.175701116714599 ], [ -118.098248870107, 34.175698632758298 ], [ -118.098248104584002, 34.175696098274898 ], [ -118.098247334777, 34.1756936106745 ], [ -118.098246567136997, 34.175691121269303 ], [ -118.098245853733005, 34.175688632721702 ], [ -118.098245088262999, 34.175686143314699 ], [ -118.098244372690999, 34.175683655670298 ], [ -118.098243605003006, 34.1756811247947 ], [ -118.098242892681995, 34.175678634443102 ], [ -118.098242177108006, 34.175676144995599 ], [ -118.098241461488996, 34.175673617683799 ], [ -118.098240750254007, 34.1756711282328 ], [ -118.098240035762004, 34.175668636079799 ], [ -118.098239372204006, 34.175666104218102 ], [ -118.098238657715996, 34.175663615671198 ], [ -118.098237996326006, 34.175661082906203 ], [ -118.098237331736996, 34.1756585970234 ], [ -118.098236618282002, 34.175656064300703 ], [ -118.098235953691002, 34.175653576614799 ], [ -118.098235341115, 34.175651045613201 ], [ -118.098234678641006, 34.175648512849001 ], [ -118.098234017303994, 34.175646024258903 ], [ -118.098233410152005, 34.1756434941545 ], [ -118.098232746592998, 34.175640961391203 ], [ -118.098232136188997, 34.175638432190901 ], [ -118.098231523660999, 34.175635941758102 ], [ -118.098215910570005, 34.175635980582399 ], [ -118.098131514867006, 34.175636215871101 ], [ -118.098121596401995, 34.175636223918197 ], [ -118.097668652427998, 34.175636892550699 ], [ -118.097642236813002, 34.175636913879501 ], [ -118.097423995946002, 34.175637158390003 ], [ -118.095762650908995, 34.175639515674199 ], [ -118.095661813237001, 34.175639650466998 ], [ -118.095010499969007, 34.175640520874602 ], [ -118.095010204592, 34.175438009293302 ], [ -118.095010199437993, 34.175434431120799 ], [ -118.095009957694003, 34.175250466695303 ], [ -118.095009956878997, 34.175246888519403 ], [ -118.095010266344005, 34.175136531865199 ], [ -118.095010272037001, 34.175132953684098 ], [ -118.095160082229995, 34.175168422039199 ], [ -118.095171328095006, 34.175171088934498 ], [ -118.095210713041993, 34.175180430252603 ], [ -118.095215219687006, 34.175149754816701 ], [ -118.095228652505995, 34.175070771025702 ], [ -118.095301006718003, 34.174620942016503 ], [ -118.095446931956999, 34.174556801112402 ], [ -118.095534367742005, 34.174518371933601 ], [ -118.095546218438002, 34.174415454610603 ], [ -118.095566216346, 34.174225475408903 ], [ -118.095581868969006, 34.1740781808208 ], [ -118.095585337532, 34.174046687601503 ], [ -118.095603955563007, 34.173877568207601 ], [ -118.095617206735, 34.173755991685503 ], [ -118.095623782247998, 34.173695533423903 ], [ -118.095659935322004, 34.173363836988301 ], [ -118.096620036413995, 34.172005333837703 ], [ -118.096620860485999, 34.172004168401301 ], [ -118.096575348152001, 34.171871509307998 ], [ -118.096480874912004, 34.171596001113002 ], [ -118.096387098777996, 34.171322497294803 ], [ -118.096324072087995, 34.171138742471797 ], [ -118.096320127208003, 34.171129293061298 ], [ -118.096238674553007, 34.170933846488403 ], [ -118.096158182634994, 34.170740680872299 ], [ -118.096134976879995, 34.170685054124597 ], [ -118.096031810515001, 34.170437471105899 ], [ -118.095598672763003, 34.170445562925003 ], [ -118.095401100410996, 34.170177279079901 ], [ -118.095252895293001, 34.169975015722301 ], [ -118.095216670479999, 34.169924098733901 ], [ -118.095122357999003, 34.169958273359697 ], [ -118.095025286818, 34.169775589512902 ], [ -118.095023695525995, 34.169772594975903 ], [ -118.095234652727996, 34.169695009164698 ], [ -118.095235517893002, 34.169694691144599 ], [ -118.095127580883002, 34.1692898769072 ], [ -118.095071868551997, 34.169184079180702 ], [ -118.095069998976996, 34.169180529519998 ], [ -118.095347095573004, 34.169176272513901 ], [ -118.095896937912002, 34.1691683685805 ], [ -118.095898386105006, 34.169058007421903 ], [ -118.096079942483001, 34.169055088405102 ], [ -118.097057282414994, 34.169039469692102 ], [ -118.097057381989998, 34.169032754108102 ], [ -118.097744903603001, 34.169033914192802 ], [ -118.097751323156999, 34.168615573392501 ], [ -118.098175832831998, 34.168615696512099 ], [ -118.098192362283001, 34.168615738085599 ], [ -118.098324335051004, 34.168615761581499 ], [ -118.098324798777995, 34.168586777885402 ], [ -118.098332746405006, 34.168055622734599 ], [ -118.098340145994001, 34.167561144114998 ], [ -118.098488714585997, 34.167561138607702 ], [ -118.098527492317004, 34.167561381987802 ], [ -118.098669677936996, 34.167562173002501 ], [ -118.098682802157995, 34.167561804385997 ], [ -118.098686174077002, 34.167561736724302 ], [ -118.098727100299996, 34.1675619061646 ], [ -118.098838277184996, 34.167562502318297 ], [ -118.098860359244, 34.167562291341198 ], [ -118.09886802938, 34.167562203031501 ], [ -118.098884558657005, 34.167562273359401 ], [ -118.098931765802007, 34.167562480868 ], [ -118.099006875350995, 34.167562831399799 ], [ -118.099033321939004, 34.167562728607699 ], [ -118.099049851082, 34.1675626862218 ], [ -118.099175473518002, 34.167563160246303 ], [ -118.099194118765993, 34.1675631720002 ], [ -118.099248202102004, 34.167563270970497 ], [ -118.099344071654002, 34.167563461811902 ], [ -118.099446520540994, 34.167563816654898 ], [ -118.099512637481993, 34.167563955195 ], [ -118.099644872585003, 34.167564345758699 ], [ -118.099651781559004, 34.167564444643403 ], [ -118.099681237327999, 34.167564778275498 ], [ -118.099814859258004, 34.167564860088099 ], [ -118.099843223533995, 34.167564863719797 ], [ -118.099849835533007, 34.167565133227598 ], [ -118.099969275408995, 34.167565281571697 ], [ -118.100008516003996, 34.1675653041207 ], [ -118.100018433708001, 34.1675654608988 ], [ -118.100029442281993, 34.167565424747799 ], [ -118.100041574524994, 34.167565414712101 ], [ -118.100187032969004, 34.167565788334102 ], [ -118.100239926602995, 34.167565964476601 ], [ -118.100355631279001, 34.167566226423403 ], [ -118.100438277565999, 34.167566486870797 ], [ -118.100448757023997, 34.167566588153697 ], [ -118.100524230119007, 34.167567102421302 ], [ -118.100636628564999, 34.1675670368871 ], [ -118.100692828301007, 34.167567430053801 ], [ -118.100835013156001, 34.167567558602499 ], [ -118.100843245305995, 34.167567633777601 ], [ -118.100861427528002, 34.167567723192199 ], [ -118.101030025781, 34.167568106249497 ], [ -118.101033331620997, 34.1675681070937 ], [ -118.101198624137993, 34.167568573815501 ], [ -118.101231682627997, 34.167568656134002 ], [ -118.101367223509001, 34.1675689816445 ], [ -118.101430034687993, 34.167569176900599 ], [ -118.101435621486999, 34.167569227207998 ], [ -118.101535822198997, 34.1675697201009 ], [ -118.101625906322994, 34.167569726472102 ], [ -118.101628385699001, 34.1675697243885 ], [ -118.101704420255999, 34.167569935434898 ], [ -118.101826737799001, 34.167570272451897 ], [ -118.101831696584995, 34.167570295322399 ], [ -118.101873019699994, 34.167570398453599 ], [ -118.102041618060994, 34.167570860336603 ], [ -118.102238316162996, 34.167571409120498 ], [ -118.102436668268993, 34.167571955281801 ], [ -118.102635019294993, 34.167572502020199 ], [ -118.102734192572996, 34.167572721628197 ], [ -118.102833337548006, 34.1675728555335 ], [ -118.103081276384998, 34.167573578435899 ], [ -118.103286240276006, 34.167574200508597 ], [ -118.103491203017995, 34.167574767241597 ], [ -118.103696166879999, 34.167575360671997 ], [ -118.103901129662006, 34.1675759546576 ], [ -118.104106092446003, 34.167576547394297 ], [ -118.104311056317997, 34.167577140684102 ], [ -118.104516019106995, 34.167577732726002 ], [ -118.104720981900996, 34.167578325321898 ], [ -118.104925945781005, 34.167578916668099 ], [ -118.105127602709004, 34.167579483495601 ], [ -118.105130908579, 34.167579507667703 ], [ -118.105342484138006, 34.167580093461403 ], [ -118.105557364519001, 34.167580730092297 ], [ -118.105657468874, 34.167581325133298 ], [ -118.105755683707997, 34.167581793726399 ], [ -118.105937505563006, 34.167582321554001 ], [ -118.106119328538995, 34.167582876153197 ], [ -118.106301150432998, 34.167583431381502 ], [ -118.106367234931994, 34.167583620294401 ], [ -118.106482972329005, 34.167583985435002 ], [ -118.106598677155006, 34.167584323447599 ], [ -118.106664795312994, 34.167584540115598 ], [ -118.106740830210995, 34.167584995014401 ], [ -118.106840005506996, 34.167585072417602 ], [ -118.106863146465003, 34.167585134010601 ], [ -118.107005298123994, 34.167585558248199 ], [ -118.107094556155999, 34.167585834440501 ], [ -118.107170590777997, 34.1675860708988 ], [ -118.107325966939996, 34.167586538032701 ], [ -118.107335884483007, 34.167586556276603 ], [ -118.107402001737995, 34.167586910476501 ], [ -118.107501177141998, 34.1675870693768 ], [ -118.107557376640997, 34.167587239379898 ], [ -118.107666437264996, 34.167587582279999 ], [ -118.107772258108, 34.167587845028201 ], [ -118.107831763514994, 34.167588066950998 ], [ -118.107997056143006, 34.167588551426 ], [ -118.108102843436995, 34.167588868908297 ], [ -118.108162348809003, 34.167589062720999 ], [ -118.108327642526007, 34.167589546743102 ], [ -118.108492901575005, 34.167590058517902 ], [ -118.108674724549005, 34.167590582229003 ], [ -118.108706130170006, 34.167590689232398 ], [ -118.108712741881007, 34.167590713039502 ], [ -118.108856546476005, 34.167591132713603 ], [ -118.108917705343998, 34.167591764613398 ], [ -118.109038368406999, 34.167591683826302 ], [ -118.109129280708004, 34.167592150854396 ], [ -118.109220191424001, 34.167592233763202 ], [ -118.109287961429004, 34.1675924475051 ], [ -118.109385483924996, 34.167592606353701 ], [ -118.10938544631, 34.167596184564502 ], [ -118.109381098984002, 34.168005258216397 ], [ -118.109380828336, 34.1680876638097 ], [ -118.109380821089005, 34.168091241993103 ], [ -118.109380657551, 34.168170131518501 ], [ -118.109374592487995, 34.168596029296502 ], [ -118.109540489112007, 34.1685965390649 ], [ -118.109622430211004, 34.1685966739715 ], [ -118.109704990610993, 34.168596801950102 ], [ -118.109887013253996, 34.168597378652699 ], [ -118.110068837344002, 34.168597900268701 ], [ -118.110234133068005, 34.168598381684902 ], [ -118.110399427746003, 34.168598889922102 ], [ -118.110564722389, 34.168599370887399 ], [ -118.110730017034001, 34.168599851626801 ], [ -118.110895279144998, 34.168600333071502 ], [ -118.111060607415993, 34.168600813328197 ], [ -118.111225902067005, 34.168601293389798 ], [ -118.111391197841002, 34.168601800270302 ], [ -118.111556426335, 34.168602279941098 ], [ -118.111556361698007, 34.1686058581776 ], [ -118.111554516723999, 34.168707360560802 ], [ -118.111552015509005, 34.169037107783403 ], [ -118.111551512755995, 34.169066733460603 ], [ -118.111549947312, 34.16915177453 ], [ -118.111279791553997, 34.169151609615298 ], [ -118.111236011073004, 34.169151567853 ], [ -118.111236007160002, 34.169155146033503 ], [ -118.111234670176003, 34.169736288634702 ], [ -118.111234663009, 34.169739866818297 ], [ -118.111234017955994, 34.170121373738603 ], [ -118.111234008620002, 34.170124951924201 ], [ -118.111233557758993, 34.170253934394502 ], [ -118.111436999763001, 34.170399898820797 ], [ -118.111564677640004, 34.170399600799101 ], [ -118.111860494813001, 34.170399300499703 ], [ -118.112310434311993, 34.170398773505603 ], [ -118.112892613040003, 34.170398313493003 ], [ -118.113026888852005, 34.1703981177549 ], [ -118.113039242067998, 34.169559814788897 ], [ -118.113165572577998, 34.1695586661912 ], [ -118.113264748917999, 34.169557776392999 ], [ -118.113347396956996, 34.169557039038402 ], [ -118.113430010477998, 34.169556443200101 ], [ -118.113512723512997, 34.169555647973603 ], [ -118.113522641179998, 34.1695555836708 ], [ -118.113592395338998, 34.169554899722101 ], [ -118.113594709930993, 34.169554911071003 ], [ -118.113678018498007, 34.169554173771502 ], [ -118.113760665407995, 34.169553409089602 ], [ -118.113843312354007, 34.169552671397099 ], [ -118.113925959260996, 34.169551906602301 ], [ -118.114008606241995, 34.169551196744301 ], [ -118.114091253183005, 34.169550458882298 ], [ -118.114190430514, 34.169549514232003 ], [ -118.114271986145994, 34.169589883490502 ], [ -118.114353323741, 34.169630174467002 ], [ -118.114353853034999, 34.169630173966503 ], [ -118.114358811873004, 34.169630142231597 ], [ -118.114519181256995, 34.169629111484703 ], [ -118.114534995876994, 34.169628950460101 ], [ -118.114684474981999, 34.169627415934698 ], [ -118.114750592522995, 34.169626776236903 ], [ -118.114849769746996, 34.169625692210303 ], [ -118.115015064179005, 34.169624519095798 ], [ -118.115049775469004, 34.169623881151601 ], [ -118.115180357998, 34.1696229049072 ], [ -118.115341322546001, 34.169621679575499 ], [ -118.115440202429994, 34.1696204934753 ], [ -118.115539079037006, 34.169619292872802 ], [ -118.115635611466999, 34.169618650675602 ], [ -118.115709333519007, 34.169618196109802 ], [ -118.115868015556003, 34.169616642300497 ], [ -118.115945701439003, 34.169615861946198 ], [ -118.116028350890005, 34.169615334617902 ], [ -118.116187066731001, 34.169613918291802 ], [ -118.116352526683002, 34.1696124673215 ], [ -118.116436724397005, 34.169611531633997 ], [ -118.116517655362003, 34.169610687385202 ], [ -118.116682949389002, 34.1696092604641 ], [ -118.116821796362998, 34.169608058105702 ], [ -118.116974396054005, 34.169606674601702 ], [ -118.116974980180999, 34.1696884501252 ], [ -118.116975382384993, 34.1697440940425 ], [ -118.116975965392996, 34.169825843422799 ], [ -118.116976367597999, 34.169881487340298 ], [ -118.116976370822997, 34.169884565164502 ], [ -118.116976374776996, 34.169885065510499 ], [ -118.116976991822, 34.169963235779299 ], [ -118.116977013101007, 34.169966813935901 ], [ -118.116977314850999, 34.170018879773401 ], [ -118.116977336130006, 34.170022457930003 ], [ -118.116977904368994, 34.170100628246097 ], [ -118.116978306576996, 34.170156272163702 ], [ -118.116978883082993, 34.170238021550801 ], [ -118.116979975150002, 34.170285943186698 ], [ -118.116980111778005, 34.170293664669003 ], [ -118.116980828202003, 34.1703754130193 ], [ -118.116981303082994, 34.170431056866803 ], [ -118.116981979377996, 34.170512805256003 ], [ -118.116982420637996, 34.170568449136098 ], [ -118.116983183705003, 34.170650197441603 ], [ -118.116983571820995, 34.1707058422747 ], [ -118.116984281743996, 34.170787590631598 ], [ -118.116984723005999, 34.170843234511899 ], [ -118.116985399308007, 34.170924982901496 ], [ -118.116985887496995, 34.170966887401399 ], [ -118.116986682825001, 34.171062375011097 ], [ -118.116987094576999, 34.171072927035198 ], [ -118.116987159657, 34.171076800851701 ], [ -118.116987317728004, 34.171090540033902 ], [ -118.116988382440994, 34.171214193921799 ], [ -118.116989329337997, 34.171323420720398 ], [ -118.116989447316001, 34.171337186987401 ], [ -118.116990622486995, 34.171467682488903 ], [ -118.116990664645002, 34.171474552115697 ], [ -118.116991948180996, 34.171611945127601 ], [ -118.116993192671998, 34.171749337276097 ], [ -118.116994461028995, 34.171886729401599 ], [ -118.116995798809995, 34.172024122361698 ], [ -118.116997082360996, 34.172161514472997 ], [ -118.116998364832, 34.172298906585503 ], [ -118.116999648391996, 34.1724362986972 ], [ -118.117000931956994, 34.172573691710603 ], [ -118.117002215525005, 34.172711083822698 ], [ -118.117003499096995, 34.172848475934998 ], [ -118.117004782674996, 34.172985868948999 ], [ -118.117006065132003, 34.173123233115298 ], [ -118.117007382381004, 34.173260653143103 ], [ -118.117008665970999, 34.1733980461577 ], [ -118.117009948440995, 34.173535410324703 ], [ -118.11701138846, 34.173690004403703 ], [ -118.117011398895002, 34.173693582570898 ], [ -118.117011619063007, 34.173758624228199 ], [ -118.116733430029996, 34.173761246955202 ], [ -118.116692310540998, 34.173761591354399 ], [ -118.116622255576999, 34.173762192634101 ], [ -118.116622270334005, 34.173765770797203 ], [ -118.116629120255993, 34.174999827889103 ], [ -118.116629140436999, 34.175003406046997 ], [ -118.116630880862999, 34.1753146273685 ], [ -118.116713233309, 34.175314092651597 ], [ -118.117094858277, 34.175311333815102 ], [ -118.117106429809994, 34.1753113496572 ], [ -118.117328502239999, 34.175309705500403 ], [ -118.117361501529999, 34.175309462524702 ], [ -118.117361516318994, 34.175313040687698 ], [ -118.117364522542005, 34.175865510530699 ], [ -118.117364522144996, 34.175869088708502 ], [ -118.117364404132005, 34.1759163461886 ], [ -118.118023246874003, 34.175911336235401 ], [ -118.118105667435998, 34.175885681139597 ], [ -118.118187789748006, 34.175860092090801 ], [ -118.118354733394995, 34.175858994850998 ], [ -118.118350795919, 34.175473065802699 ], [ -118.118350759395, 34.175469487660997 ], [ -118.118516088272997, 34.175468418823897 ], [ -118.118514888774001, 34.175307200069703 ], [ -118.118514872852003, 34.175303621907901 ], [ -118.118680179560997, 34.175302450994799 ], [ -118.118742995343993, 34.175301757365098 ], [ -118.118845484660994, 34.1753009147372 ], [ -118.118908300675997, 34.175300386001602 ], [ -118.119010790068998, 34.1752995982269 ], [ -118.119073639628994, 34.175299014379 ], [ -118.119176096399002, 34.175298171503101 ], [ -118.119238912409998, 34.175297642595702 ], [ -118.119341401718003, 34.175296799547503 ], [ -118.119404217790006, 34.175296314729302 ], [ -118.119450734422998, 34.175296004647201 ], [ -118.119506707384005, 34.175295674385303 ], [ -118.119535801603007, 34.175295316574498 ], [ -118.119569523037001, 34.175294898287099 ], [ -118.119672046003004, 34.175294081971401 ], [ -118.119734861967999, 34.175293525760601 ], [ -118.119837351463005, 34.175292819324703 ], [ -118.119900200893994, 34.175292153008002 ], [ -118.120002658258997, 34.175291734953902 ], [ -118.120065473647003, 34.175290779193602 ], [ -118.120167963016996, 34.175289990438301 ], [ -118.120230778936005, 34.1752894060225 ], [ -118.120333268660005, 34.175288865047797 ], [ -118.120396084220005, 34.175288032625403 ], [ -118.120498607128994, 34.175287188563097 ], [ -118.120581259847, 34.175286557153903 ], [ -118.120594451629998, 34.175286379020697 ], [ -118.120663912683, 34.175286007727401 ], [ -118.120773013884005, 34.1752849089482 ], [ -118.120822639655003, 34.175284887329703 ], [ -118.120829219474004, 34.175284935749701 ], [ -118.120966422109007, 34.1752832867314 ], [ -118.120994524102002, 34.175283121588102 ], [ -118.121462338955993, 34.175279162844703 ], [ -118.121478869735995, 34.175279201235298 ], [ -118.121594046620004, 34.175278332715401 ], [ -118.121595923008002, 34.175533873473498 ], [ -118.121711331368004, 34.175533063209002 ], [ -118.122127902987003, 34.175529648390501 ], [ -118.122296546841994, 34.175527884071101 ], [ -118.122429360774007, 34.175527447686001 ], [ -118.122427435689005, 34.175410664371299 ], [ -118.122427752212005, 34.1752750629282 ], [ -118.122427756731, 34.175271484745998 ], [ -118.122538677684005, 34.17527090542 ], [ -118.122563307524004, 34.175270710073299 ], [ -118.122728646203996, 34.175269228876502 ], [ -118.122893951487995, 34.175267907058597 ], [ -118.123062563342998, 34.175266141702899 ], [ -118.123089012540007, 34.175266169780897 ], [ -118.123170497266003, 34.175189932672602 ], [ -118.123254686614999, 34.175111185594403 ], [ -118.123441481320995, 34.175109758184902 ], [ -118.1234513996, 34.175109666022003 ], [ -118.123615911729999, 34.175108399019898 ], [ -118.123781216721, 34.175107103035103 ], [ -118.123946521708007, 34.175105806824298 ], [ -118.124111827774996, 34.175104511287998 ], [ -118.124277132751004, 34.175103214625402 ], [ -118.124443264297, 34.175101944833699 ], [ -118.124607776342003, 34.175100640421299 ], [ -118.124773081303005, 34.175099343080703 ], [ -118.124938387439002, 34.175098109521699 ], [ -118.125133447254996, 34.1750965609736 ], [ -118.125232310163, 34.175095732010902 ], [ -118.125331184914003, 34.1750948452571 ], [ -118.125521914710006, 34.175093350153702 ], [ -118.125707089865003, 34.175091899288802 ], [ -118.125892231338, 34.175090415720298 ], [ -118.126077372804005, 34.175088930966901 ], [ -118.126263341923007, 34.175087473013399 ], [ -118.126263357092995, 34.1750910511754 ], [ -118.126264324963998, 34.175260649842798 ], [ -118.126448778051994, 34.175259185975101 ], [ -118.126485377332003, 34.175258900684703 ], [ -118.126758858713004, 34.175256690494898 ], [ -118.126759552908993, 34.175256685259697 ], [ -118.127195793781993, 34.175253208926698 ], [ -118.127294702859999, 34.175252672128998 ], [ -118.127393600111006, 34.175252204680703 ], [ -118.127702756307997, 34.175249542773798 ], [ -118.127735847855007, 34.175249369894097 ], [ -118.127901153848995, 34.175247874447798 ], [ -118.127955704466004, 34.175247379503901 ], [ -118.128011908147002, 34.175246880081303 ], [ -118.128122662454999, 34.175245893727102 ], [ -118.128203661946003, 34.175245220093899 ], [ -118.128259865667005, 34.175244748503403 ], [ -118.128321028594996, 34.175244271625097 ], [ -118.128402028140997, 34.175243635723298 ], [ -118.128630150446995, 34.175241882351003 ], [ -118.128633789616003, 34.175801977369701 ], [ -118.128634420913002, 34.175884404611303 ], [ -118.128635035966994, 34.175966848999401 ], [ -118.128640287096005, 34.1765220235527 ], [ -118.128683268383, 34.176521812848897 ], [ -118.128927957209996, 34.176520453290799 ], [ -118.128949447300997, 34.176520342030301 ], [ -118.128954406551003, 34.176520315106004 ], [ -118.129258574928002, 34.176518643524801 ], [ -118.129568529337007, 34.176517102914502 ], [ -118.129667771846002, 34.176516582752498 ], [ -118.129766899380002, 34.176516066238499 ], [ -118.130064455690999, 34.176514619698303 ], [ -118.130263652327002, 34.176513618281298 ], [ -118.130362837448004, 34.176513167930104 ], [ -118.130511615122003, 34.176512489095501 ], [ -118.130610801217998, 34.176511970023597 ], [ -118.130659567202002, 34.176511728028899 ], [ -118.130759611336998, 34.176511232249297 ], [ -118.130809203905002, 34.176511013641999 ], [ -118.130957122398002, 34.176510280195203 ], [ -118.131007541464001, 34.176510029959502 ], [ -118.131024105945997, 34.176509957022397 ], [ -118.131205945228004, 34.176509072925903 ], [ -118.131255537748999, 34.176508826188197 ], [ -118.131387553463, 34.176508188806999 ], [ -118.131553096179005, 34.176507376884501 ], [ -118.131767994989005, 34.1765063459925 ], [ -118.131784525973003, 34.176506355027001 ], [ -118.131916961250994, 34.176505584085803 ], [ -118.131916807449997, 34.176509163333201 ], [ -118.131898522667001, 34.176935245211297 ], [ -118.132815679483002, 34.177346702959603 ], [ -118.133869930988993, 34.177820562069599 ], [ -118.134521009894002, 34.178112995157903 ], [ -118.136847412286997, 34.179157956753997 ], [ -118.136867500186, 34.179166938520297 ], [ -118.138142427155003, 34.179739834056001 ], [ -118.140275849133999, 34.180698033424498 ], [ -118.141470873277001, 34.181234525937498 ], [ -118.141731692506994, 34.181351006790599 ], [ -118.142208338450004, 34.181564622367098 ], [ -118.142546373517007, 34.1815631245845 ], [ -118.142698465717004, 34.181561984209999 ], [ -118.142931565872004, 34.181560967014903 ], [ -118.143346515833997, 34.1815588540927 ], [ -118.143840780255005, 34.181556148705099 ], [ -118.143925176197001, 34.181555776947803 ], [ -118.144039100588998, 34.1815552834233 ], [ -118.144647474956997, 34.181552771459401 ], [ -118.145103752637993, 34.181550054044301 ], [ -118.145169732889002, 34.181549370844898 ], [ -118.145236138352999, 34.181548054223697 ], [ -118.145717216384, 34.181546733639699 ], [ -118.146185103516999, 34.181545400039802 ], [ -118.146267970032994, 34.181544480364899 ], [ -118.146350421227993, 34.181544265231999 ], [ -118.146400016070004, 34.181543656179898 ], [ -118.147010042502004, 34.181541193439401 ], [ -118.147668011492001, 34.181538047944102 ], [ -118.147767184594002, 34.181537282229598 ], [ -118.147866393228, 34.181536980679098 ], [ -118.148456612361997, 34.181533729788001 ], [ -118.149081516066005, 34.181529883335998 ], [ -118.149214341375995, 34.181529311152801 ], [ -118.149217653155006, 34.181529289937998 ], [ -118.149349330991996, 34.181528233998201 ], [ -118.149812287181007, 34.181524803605903 ], [ -118.149862742308997, 34.181524247061702 ], [ -118.149977571026994, 34.181522977816499 ], [ -118.150010635084001, 34.181523046800201 ], [ -118.150142888692997, 34.181521865772403 ], [ -118.150209015471006, 34.181521261681297 ], [ -118.150623930235, 34.181518464815198 ], [ -118.150657026630995, 34.181517819568803 ], [ -118.150789070772007, 34.181517790252798 ], [ -118.150947988612003, 34.181516879817401 ], [ -118.150954601432005, 34.181516898610298 ], [ -118.151534567343006, 34.1815138140811 ], [ -118.152158827641998, 34.1815106340932 ], [ -118.152275480979995, 34.181510003162998 ], [ -118.152391959772004, 34.181509429136703 ], [ -118.153002930507995, 34.181506878182901 ], [ -118.153638778295999, 34.181503709254301 ], [ -118.153756729929995, 34.181501812200302 ], [ -118.153874215746995, 34.181500852315303 ], [ -118.154619438984, 34.1814964481812 ], [ -118.154695821296997, 34.181495911467202 ], [ -118.155146838910994, 34.181493502768497 ], [ -118.155229522531002, 34.181492890019499 ], [ -118.155310836352001, 34.181492423218103 ], [ -118.155765461193994, 34.181489639755597 ], [ -118.155940699203001, 34.181489221924998 ], [ -118.156117622695007, 34.181488086750299 ], [ -118.156249612146993, 34.181487257293902 ], [ -118.156291206221994, 34.1814869835802 ], [ -118.156468057024, 34.181485847986799 ], [ -118.156644987063004, 34.181484739979702 ], [ -118.156818537980001, 34.181483608147502 ], [ -118.156906983596997, 34.181483410500903 ], [ -118.156992156406005, 34.181483189991802 ], [ -118.157169078942005, 34.181482136221199 ], [ -118.157364121341999, 34.181480975677303 ], [ -118.157528348526, 34.181479799963398 ], [ -118.157695848773002, 34.181478784739497 ], [ -118.157858983729994, 34.1814776875324 ], [ -118.158025955651993, 34.1814766554117 ], [ -118.158188497058006, 34.181476039953601 ], [ -118.158355500411005, 34.181474996518403 ], [ -118.158518603928997, 34.181473917394896 ], [ -118.158684483471006, 34.181472885796801 ], [ -118.158848713216997, 34.181472503437703 ], [ -118.159018988406004, 34.181470979682103 ], [ -118.159022162501003, 34.181471003456402 ], [ -118.159080156813005, 34.181471064226699 ], [ -118.159544701531004, 34.181467624241598 ], [ -118.159679491598993, 34.181467251636697 ], [ -118.159679508200995, 34.181470829794499 ], [ -118.159679531063006, 34.181474845186898 ], [ -118.159814182838005, 34.181474191336498 ], [ -118.160153084909993, 34.181472012126399 ], [ -118.160343200106993, 34.181470798308901 ], [ -118.160564726128001, 34.1814690755049 ], [ -118.160756494715997, 34.181467968829701 ], [ -118.160921279817998, 34.181465879023101 ], [ -118.161037001495004, 34.181464827078699 ], [ -118.161152724044996, 34.181464228492899 ], [ -118.161269532687996, 34.181463752759697 ], [ -118.161434850399004, 34.181462787556299 ], [ -118.161594123328996, 34.181461607524902 ], [ -118.161617827838, 34.181461620929298 ], [ -118.16174621623, 34.181461036404201 ], [ -118.161898874648998, 34.181460647346299 ], [ -118.161963353239997, 34.181460451034702 ], [ -118.161995552343996, 34.181460324972399 ], [ -118.162049314534002, 34.181460170914903 ], [ -118.162201930414, 34.181458545531399 ], [ -118.162312170649002, 34.181458023507602 ], [ -118.162354027755995, 34.181458031338501 ], [ -118.162506119916998, 34.181457085127498 ], [ -118.162657816133006, 34.181456139257797 ], [ -118.162961108586998, 34.181454160535097 ], [ -118.163006537510995, 34.181453992938202 ], [ -118.163011926440007, 34.181453875688497 ], [ -118.163052770438, 34.181453364459003 ], [ -118.163056132069997, 34.1814533220629 ], [ -118.163357011596005, 34.181451707114597 ], [ -118.163489264955004, 34.181450538538797 ], [ -118.163699200230994, 34.181449457633903 ], [ -118.164044733089995, 34.181447148557503 ], [ -118.164124188789998, 34.181446773011601 ], [ -118.164213484437994, 34.181445827809299 ], [ -118.164218621412999, 34.182122670227002 ], [ -118.164218631701004, 34.182126248392997 ], [ -118.164219676632001, 34.182424935302201 ], [ -118.164222389358997, 34.1827271701803 ], [ -118.164223700028003, 34.182906082811002 ], [ -118.164224524757003, 34.183029284136197 ], [ -118.167361765045996, 34.183016497745101 ], [ -118.167358690111001, 34.182381566589598 ], [ -118.167358676434006, 34.182377988428399 ], [ -118.167344669369001, 34.182138133199501 ], [ -118.167313016315006, 34.1818994408547 ], [ -118.167263836215, 34.181662807189397 ], [ -118.167197313786005, 34.181429120265001 ], [ -118.167196160033001, 34.1814255490889 ], [ -118.16727183834, 34.181425083839002 ], [ -118.167375451539002, 34.181424518583697 ], [ -118.167918252712994, 34.181421785557298 ], [ -118.168279210435003, 34.181419810792598 ], [ -118.168737925906001, 34.1814168268278 ], [ -118.168802280346, 34.181416410675702 ], [ -118.168959098594001, 34.1814153956621 ], [ -118.169141431474998, 34.181414221257498 ], [ -118.169208847107001, 34.181413787085297 ], [ -118.169385543595993, 34.181412660766703 ], [ -118.169486965350004, 34.181412008421397 ], [ -118.169512838971997, 34.181482380004198 ], [ -118.169814352703, 34.182302393507101 ], [ -118.169814581891004, 34.182302540134998 ], [ -118.169816776985996, 34.182308692713299 ], [ -118.169867279905006, 34.182445630313097 ], [ -118.169917916508993, 34.182583145586399 ], [ -118.170069295838999, 34.182994125164697 ], [ -118.170098644923996, 34.1830766930713 ], [ -118.170353381059002, 34.183769398988403 ], [ -118.170392893878002, 34.183877318915101 ], [ -118.170416551496999, 34.183941749629497 ], [ -118.170533216630005, 34.184258280763899 ], [ -118.170554429093997, 34.184315703685101 ], [ -118.170582419873, 34.1844014684212 ], [ -118.170604317682006, 34.184488476843903 ], [ -118.170616092935006, 34.184550426134201 ], [ -118.170623198179996, 34.184601803434703 ], [ -118.170624703507002, 34.1846127630387 ], [ -118.170627475800998, 34.1846443875746 ], [ -118.170629934329, 34.184675356237797 ], [ -118.170631798209001, 34.184738106545502 ], [ -118.170631756611002, 34.184740047602503 ], [ -118.170630912305995, 34.184779724314801 ], [ -118.170617444713002, 34.184938738395502 ], [ -118.170617746237994, 34.1849403048328 ], [ -118.170584135511007, 34.185094479950401 ], [ -118.170581056553999, 34.185109240568202 ], [ -118.170577766579996, 34.185117351783497 ], [ -118.170551112352996, 34.185196445611098 ], [ -118.170524511348006, 34.185269218717004 ], [ -118.170489489215001, 34.185363987544498 ], [ -118.170466372139003, 34.185426452117802 ], [ -118.170408201567, 34.185584371600498 ], [ -118.170384917045993, 34.185646177374203 ], [ -118.170386273077995, 34.185646175464001 ], [ -118.170391530141998, 34.185646168058497 ], [ -118.170390209613998, 34.185649748099202 ], [ -118.170355061297002, 34.1857450327417 ], [ -118.170276372485006, 34.1859410843063 ], [ -118.170246725748001, 34.186020714183002 ], [ -118.170204231094999, 34.1859788698779 ], [ -118.169962233435996, 34.185741243580402 ], [ -118.169872413524999, 34.185653052979198 ], [ -118.169868172880001, 34.1856492941371 ], [ -118.169863536164002, 34.185645481759202 ], [ -118.169859260851993, 34.185640678991497 ], [ -118.169782871006007, 34.185590312353199 ], [ -118.169697355349001, 34.185551371552698 ], [ -118.169605162929003, 34.185524971793697 ], [ -118.169508933993001, 34.185511869123303 ], [ -118.169459365023997, 34.185510276153998 ], [ -118.169246094852994, 34.185511480794602 ], [ -118.168996419300001, 34.185512846817197 ], [ -118.168761358430004, 34.185514164888701 ], [ -118.168759672668003, 34.185514194286597 ], [ -118.168677596844006, 34.185514734294301 ], [ -118.168677640953007, 34.185518312413201 ], [ -118.168679187633998, 34.1856438873481 ], [ -118.168684835964001, 34.186264199275698 ], [ -118.168692343204, 34.187098558448398 ], [ -118.168699998368993, 34.187942166235999 ], [ -118.168707730543005, 34.188786762901501 ], [ -118.168711524124006, 34.1891954247642 ], [ -118.168761123844007, 34.189195053562003 ], [ -118.168878509844006, 34.189194174818603 ], [ -118.169010775716004, 34.189193164283402 ], [ -118.169045495503994, 34.189192897596499 ], [ -118.169209208102004, 34.189191624722604 ], [ -118.169252194549998, 34.189191316661699 ], [ -118.169367927197001, 34.189190440658301 ], [ -118.169488620902996, 34.189189529645397 ], [ -118.169539840271995, 34.1891891279069 ], [ -118.169700246277998, 34.1891879139962 ], [ -118.169725046159996, 34.189187741267098 ], [ -118.169782912423997, 34.189187276007097 ], [ -118.169865578569002, 34.189186637961498 ], [ -118.169966464959998, 34.189185891318203 ], [ -118.170030911994999, 34.189185388745102 ], [ -118.170196244330995, 34.189184139304402 ], [ -118.170204510939001, 34.189184072679403 ], [ -118.170363229955001, 34.189182862066197 ], [ -118.170444243920002, 34.189182801129498 ], [ -118.170526944919999, 34.1891827666092 ], [ -118.170705468866004, 34.189180233926898 ], [ -118.170705148557005, 34.189183817067097 ], [ -118.170700425419, 34.189236573272296 ], [ -118.170700752002006, 34.1892365908421 ], [ -118.170889060023001, 34.189246528496803 ], [ -118.170996341887005, 34.189252174639698 ], [ -118.171194731721002, 34.189262638485403 ], [ -118.171731999800997, 34.1892915264972 ], [ -118.171729494307002, 34.189294969399 ], [ -118.171576164301996, 34.189505642423804 ], [ -118.171524793507004, 34.189577681875797 ], [ -118.171513694937005, 34.189584428451198 ], [ -118.171382880440007, 34.189663891884898 ], [ -118.171295064595995, 34.189717242723297 ], [ -118.171210814583006, 34.189768444607701 ], [ -118.171037195517997, 34.189873906222601 ], [ -118.170705478849001, 34.190075382184197 ], [ -118.170620997369994, 34.190126748963898 ], [ -118.170617315480001, 34.190169346136003 ], [ -118.170581485930995, 34.190582099996703 ], [ -118.170567174360002, 34.1907469653083 ], [ -118.170534510739003, 34.191123388360197 ], [ -118.170533089553004, 34.191139877581499 ], [ -118.170513357320004, 34.191160569413398 ], [ -118.170119435917002, 34.191574156433802 ], [ -118.170041034647994, 34.191656483683097 ], [ -118.169961644897995, 34.191740955211998 ], [ -118.169823418443997, 34.191886374434397 ], [ -118.169822329317, 34.1918875019769 ], [ -118.169564254153997, 34.192158942064303 ], [ -118.169399001222004, 34.192332782515102 ], [ -118.169315351432004, 34.192420778263397 ], [ -118.169290859919997, 34.192361596312402 ], [ -118.169231377, 34.192217965423502 ], [ -118.169151157708001, 34.1920241878382 ], [ -118.169035581488998, 34.191745109774601 ], [ -118.168994448950002, 34.1916489097717 ], [ -118.168773696890995, 34.1911137665615 ], [ -118.168726210572004, 34.190998697253399 ], [ -118.168695370528994, 34.190923666090796 ], [ -118.168645976228007, 34.190907535336699 ], [ -118.168563145858002, 34.190880326254899 ], [ -118.168562821476996, 34.190850759162203 ], [ -118.168549195064003, 34.189242564984198 ], [ -118.168545085298007, 34.188808536251003 ], [ -118.168456756181001, 34.188809016300901 ], [ -118.168259250065006, 34.188810006110202 ], [ -118.168181543737006, 34.188810361195401 ], [ -118.168060851042, 34.188810968890103 ], [ -118.167940157314007, 34.188811603511901 ], [ -118.167802335874995, 34.1888123438139 ], [ -118.167703732033999, 34.1888128655144 ], [ -118.167503679882003, 34.188813939659198 ], [ -118.167503696820006, 34.188817517816098 ], [ -118.167504931728999, 34.189012444446497 ], [ -118.167505929645998, 34.189078364885198 ], [ -118.167507869063002, 34.189204791239703 ], [ -118.167509191305996, 34.189369685916603 ], [ -118.167510514533006, 34.189534527401896 ], [ -118.167511870376003, 34.189699401297403 ], [ -118.167513226222994, 34.189864274291502 ], [ -118.167514515891995, 34.190029144672799 ], [ -118.167515831605002, 34.190194015919801 ], [ -118.167515852883994, 34.190197594070703 ], [ -118.167516213620999, 34.190269819805302 ], [ -118.167516231644996, 34.190273397960802 ], [ -118.167516276518, 34.190282249139599 ], [ -118.167516293457993, 34.190285827296599 ], [ -118.167516885897001, 34.190411918344303 ], [ -118.167517237590999, 34.190441766679498 ], [ -118.167518523604002, 34.190510677101301 ], [ -118.167518518923998, 34.190513753134901 ], [ -118.167518522099996, 34.190514255283802 ], [ -118.167518487373997, 34.190540216748303 ], [ -118.167419347923001, 34.190507818614201 ], [ -118.166989751369996, 34.190367776147397 ], [ -118.166939523370004, 34.190351606180897 ], [ -118.166888963247999, 34.1903353537108 ], [ -118.166796412573007, 34.190305006878702 ], [ -118.166482171018004, 34.191200340069301 ], [ -118.166483302231001, 34.191200714451199 ], [ -118.166634185765005, 34.191250692277698 ], [ -118.166789541439002, 34.191301752800697 ], [ -118.166941522924006, 34.191352104669299 ], [ -118.167210840454004, 34.191441093442201 ], [ -118.167364508381993, 34.191491441547399 ], [ -118.167363411479002, 34.191494657928097 ], [ -118.167298002641999, 34.191686440250699 ], [ -118.167299105641007, 34.191686806550301 ], [ -118.16745165076, 34.191737478846797 ], [ -118.167506271874998, 34.1917555086901 ], [ -118.167601984255995, 34.191787229043797 ], [ -118.167755671674996, 34.191838204092598 ], [ -118.167901069476002, 34.191886475038402 ], [ -118.167906364044995, 34.191888198630899 ], [ -118.167910831472994, 34.191889703397401 ], [ -118.168062449843006, 34.191939889384003 ], [ -118.168204241333001, 34.191986873080801 ], [ -118.168361354487004, 34.192038891079399 ], [ -118.168444708593, 34.192066501654899 ], [ -118.168460922568997, 34.1920718648282 ], [ -118.168540043755996, 34.192098032471002 ], [ -118.168620220951993, 34.192124368078098 ], [ -118.168619894886007, 34.1921278367262 ], [ -118.168617823744, 34.192149850517097 ], [ -118.168602187098003, 34.192316036380198 ], [ -118.168597071647, 34.192370286887403 ], [ -118.168576547561997, 34.192588716126401 ], [ -118.168557866731007, 34.192786754647301 ], [ -118.168557966354996, 34.192789349117497 ], [ -118.168559272631001, 34.192849578650602 ], [ -118.168559283302997, 34.192862931226202 ], [ -118.168536539802005, 34.193132970064198 ], [ -118.168470872910007, 34.1933981127302 ], [ -118.168373857966998, 34.193631954648701 ], [ -118.168253445705005, 34.1938851137051 ], [ -118.168252711061996, 34.193886659051202 ], [ -118.168171298426998, 34.194069258563601 ], [ -118.168029177910995, 34.194024418221296 ], [ -118.167984661774, 34.194104223257099 ], [ -118.167723506962005, 34.194017587790803 ], [ -118.167715002934003, 34.194014741724899 ], [ -118.167743706348006, 34.194027864293602 ], [ -118.167839257905996, 34.194099894283099 ], [ -118.167896585292993, 34.194195932168597 ], [ -118.167897849327005, 34.194199750205399 ], [ -118.167907526798999, 34.194243372725197 ], [ -118.167907148457999, 34.194244062922301 ], [ -118.167896422978004, 34.194263613105797 ], [ -118.167864628125997, 34.194321582464603 ], [ -118.167787891383, 34.194461500310098 ], [ -118.167711780196996, 34.194600238035598 ], [ -118.167637223222002, 34.1947361409457 ], [ -118.167560150539998, 34.194876635190496 ], [ -118.167484334766996, 34.195014820625403 ], [ -118.167409804122002, 34.195150696312098 ], [ -118.167335273232993, 34.195286571952998 ], [ -118.167262818648993, 34.195418625787298 ], [ -118.167190462400995, 34.195550596501199 ], [ -118.167116918600001, 34.1956845467734 ], [ -118.167040580353998, 34.195823704501898 ], [ -118.166955564481995, 34.195978682521897 ], [ -118.166432913845995, 34.196899857855499 ], [ -118.166338729282003, 34.197065437448103 ], [ -118.166244908294004, 34.197230713552599 ], [ -118.165821616304001, 34.197976457572302 ], [ -118.165781874887003, 34.198055491650699 ], [ -118.165752552121006, 34.198127196410901 ], [ -118.165520395586995, 34.198694400288701 ], [ -118.165413663262001, 34.198955182775599 ], [ -118.165307688295997, 34.199214122302799 ], [ -118.165201184552004, 34.199474299360503 ], [ -118.165073090863999, 34.199787319331499 ], [ -118.164948319660994, 34.200092118974901 ], [ -118.164920083951003, 34.200162833069101 ], [ -118.164900856363005, 34.200189760993197 ], [ -118.164863687544994, 34.200241746203503 ], [ -118.164568494237997, 34.200662436014497 ], [ -118.164484462388003, 34.2007814235957 ], [ -118.164451251776995, 34.200828731558303 ], [ -118.164402702673001, 34.200897822437 ], [ -118.164334701323, 34.200994590608097 ], [ -118.164323356950007, 34.201009825680103 ], [ -118.164243708493004, 34.2011230346302 ], [ -118.164217525037003, 34.201160250254397 ], [ -118.164159580393999, 34.201242655892301 ], [ -118.164100873772995, 34.201326078562502 ], [ -118.164071522192003, 34.201366759433498 ], [ -118.164029604814004, 34.201426225427703 ], [ -118.163988117588005, 34.201485964889898 ], [ -118.163364675007003, 34.201534594058003 ], [ -118.163147980662004, 34.201547993848202 ], [ -118.162635376828007, 34.20158494455 ], [ -118.162633651863004, 34.201585068575802 ], [ -118.162688453740003, 34.2014669735428 ], [ -118.162736601706001, 34.201362626782398 ], [ -118.162745164531998, 34.201344122138799 ], [ -118.162788536830007, 34.201250196278998 ], [ -118.162846564510005, 34.201124540192502 ], [ -118.162851899814996, 34.201112964552699 ], [ -118.162911804114003, 34.200983267045302 ], [ -118.162918190729997, 34.200969434354 ], [ -118.162975922992999, 34.200844385333802 ], [ -118.162982411689995, 34.200830609298002 ], [ -118.163041919486005, 34.200701434246902 ], [ -118.163047814470005, 34.200688675935801 ], [ -118.163106104934997, 34.200562415343398 ], [ -118.163113020842999, 34.200547402724197 ], [ -118.163172101037006, 34.200419492133001 ], [ -118.163178720806997, 34.200405083935998 ], [ -118.163236483695997, 34.200280004998703 ], [ -118.163242378621007, 34.200267246678102 ], [ -118.163300403852006, 34.200141591277202 ], [ -118.163308670369005, 34.200123718967497 ], [ -118.163373317275003, 34.199983656225797 ], [ -118.163379703740006, 34.199969824411603 ], [ -118.163450738042002, 34.199815984806001 ], [ -118.163459527582006, 34.199796506150697 ], [ -118.163460937411003, 34.1997933831422 ], [ -118.163040259485001, 34.199658193627002 ], [ -118.160648226505003, 34.1988935670771 ], [ -118.16014751857, 34.198730732724698 ], [ -118.160135892696999, 34.198756137957503 ], [ -118.159875426189004, 34.199326035151302 ], [ -118.159632609240006, 34.199857299487903 ], [ -118.159559724923994, 34.200015371073 ], [ -118.159560858763996, 34.200016506409298 ], [ -118.159714726445998, 34.200170591541898 ], [ -118.159851377180999, 34.200307443007702 ], [ -118.160361061784997, 34.200817873064601 ], [ -118.160361194421, 34.200818009921598 ], [ -118.160621805188995, 34.201079014691899 ], [ -118.160740628933993, 34.201198004234399 ], [ -118.160818631389006, 34.201276132806498 ], [ -118.160863195708004, 34.201319462487398 ], [ -118.160862065526999, 34.201321935089098 ], [ -118.160670503103006, 34.201740995401998 ], [ -118.160672207434999, 34.201740859711798 ], [ -118.160872310824999, 34.201724926971004 ], [ -118.161085659419996, 34.201707990889503 ], [ -118.161337034255993, 34.201688310850798 ], [ -118.161417584519995, 34.201681773678303 ], [ -118.16152224164, 34.201673307446001 ], [ -118.161523348282998, 34.2017669534996 ], [ -118.161524297867004, 34.201847273317902 ], [ -118.161524976989, 34.2019078075759 ], [ -118.161525093234005, 34.201914615789903 ], [ -118.161526575403997, 34.201981942920497 ], [ -118.161638760726007, 34.202120836355803 ], [ -118.161660209724005, 34.202147681462201 ], [ -118.161673402983993, 34.202163492028298 ], [ -118.161810313927006, 34.202329940039597 ], [ -118.161854169915998, 34.202382337912603 ], [ -118.161859805657002, 34.2023890630133 ], [ -118.161870413217997, 34.202402018259598 ], [ -118.161962076386999, 34.202514256212297 ], [ -118.162047791347007, 34.202617434455099 ], [ -118.162102270066995, 34.202684821304302 ], [ -118.162235897258995, 34.202845722504101 ], [ -118.162244119215998, 34.202856043935903 ], [ -118.162367807386005, 34.2030245149599 ], [ -118.162383623924995, 34.203045569745797 ], [ -118.162410680405998, 34.2030816136376 ], [ -118.162484892736003, 34.203182003248799 ], [ -118.162539176628997, 34.203255957824197 ], [ -118.162595383154994, 34.203332603569002 ], [ -118.162702588255002, 34.203476997553501 ], [ -118.162710474573998, 34.2036714266548 ], [ -118.162715165353006, 34.203804005044603 ], [ -118.162718287388998, 34.203896054470498 ], [ -118.162740110624995, 34.204555570570299 ], [ -118.162745005871002, 34.204589225385597 ], [ -118.162744504738995, 34.2045893135084 ], [ -118.162728738564994, 34.204592077175597 ], [ -118.162737242022999, 34.204594165405801 ], [ -118.162925122652993, 34.2046403134892 ], [ -118.163969716400999, 34.204898685921002 ], [ -118.164040446526997, 34.205093881700499 ], [ -118.164162146045996, 34.205425137816697 ], [ -118.164340946752006, 34.205327152781003 ], [ -118.164500447837995, 34.205774592626 ], [ -118.164609001613996, 34.206079733462197 ], [ -118.16464025594, 34.206163583895602 ], [ -118.164834972261005, 34.206369931868601 ], [ -118.164912524978007, 34.206451108308997 ], [ -118.165147604138994, 34.206696996944203 ], [ -118.165165004030996, 34.206715246344203 ], [ -118.165348186276006, 34.206908528912201 ], [ -118.165473333706998, 34.207039486545803 ], [ -118.165499980687997, 34.207067423734799 ], [ -118.165640275295004, 34.207214627719203 ], [ -118.165669972328004, 34.207246242551797 ], [ -118.165669572737002, 34.207249387642598 ], [ -118.165653200986995, 34.2073781362079 ], [ -118.165629684623994, 34.207561506655999 ], [ -118.165606151950996, 34.207753120730402 ], [ -118.165565833930998, 34.208069758789001 ], [ -118.165566295131001, 34.208069770779503 ], [ -118.165609033693997, 34.208070882475603 ], [ -118.165638765397006, 34.208071684708003 ], [ -118.165653476073004, 34.208072083780202 ], [ -118.165787411764001, 34.2080755830859 ], [ -118.165896563166996, 34.208078455406202 ], [ -118.166047059831996, 34.208082425755101 ], [ -118.166048303489006, 34.208275132826003 ], [ -118.166050945175996, 34.208605561417301 ], [ -118.166050940904995, 34.208607779192 ], [ -118.166050943610003, 34.2086091396 ], [ -118.166050781606998, 34.208704484946203 ], [ -118.166050774615002, 34.208708063136299 ], [ -118.166050760014997, 34.208715455718902 ], [ -118.166050754107999, 34.208719033907499 ], [ -118.166050658852001, 34.208757354557903 ], [ -118.166050664308997, 34.208758461631703 ], [ -118.166051087057994, 34.2087937082485 ], [ -118.166052053586, 34.208880319806802 ], [ -118.166052067211993, 34.208883897968597 ], [ -118.166053220386999, 34.209135870075102 ], [ -118.166053238353001, 34.209139448230999 ], [ -118.166054414582007, 34.209370812185703 ], [ -118.166054415185997, 34.209374390365397 ], [ -118.166054110733, 34.209530161991701 ], [ -118.166055426094005, 34.209695060308 ], [ -118.166056741367001, 34.209857182807397 ], [ -118.166056737136998, 34.209859421317098 ], [ -118.166056739800993, 34.209860760990097 ], [ -118.166056654903002, 34.209911384833603 ], [ -118.166058065041, 34.210024073497998 ], [ -118.166207378245005, 34.210196063797802 ], [ -118.166359006628994, 34.210370747213197 ], [ -118.166416000404993, 34.210436408550997 ], [ -118.166471828176995, 34.210500659667197 ], [ -118.166499542669001, 34.210532634032703 ], [ -118.166687148492997, 34.210748688413197 ], [ -118.166916095239998, 34.211012416191203 ], [ -118.167163787982005, 34.211188597812601 ], [ -118.167256950210998, 34.211760273867903 ], [ -118.167256394852004, 34.211760397243999 ], [ -118.167005453016003, 34.211816266523599 ], [ -118.166633382116004, 34.211815047665098 ], [ -118.166633407014999, 34.211782931454202 ], [ -118.166633406385998, 34.211779353274501 ], [ -118.166046372278998, 34.2117785384524 ], [ -118.165963690248006, 34.2117660674067 ], [ -118.165806517893998, 34.211935001901402 ], [ -118.165695454303005, 34.212054384359199 ], [ -118.165584422896998, 34.212173739624497 ], [ -118.165473357585995, 34.212293121879803 ], [ -118.165361697498994, 34.212413162062496 ], [ -118.165034855214998, 34.212203288104398 ], [ -118.165009572296995, 34.212230471321398 ], [ -118.164984289361996, 34.212257654533197 ], [ -118.164986367937999, 34.212258989572398 ], [ -118.165259071506, 34.212434105125702 ], [ -118.165266060978993, 34.212479541807198 ], [ -118.165270866114994, 34.212510782342903 ], [ -118.165270399394004, 34.212511282429197 ], [ -118.165200067707005, 34.2125868583407 ], [ -118.165089036023005, 34.2127062401958 ], [ -118.164977572934006, 34.212826034536903 ], [ -118.164866506973993, 34.212945416233701 ], [ -118.164778641428995, 34.213038688520598 ], [ -118.164780092016002, 34.213040733924302 ], [ -118.164831147659001, 34.213112699493998 ], [ -118.164860734109993, 34.2131544551102 ], [ -118.164946906663999, 34.213275930894 ], [ -118.164946011601003, 34.213278238233002 ], [ -118.164914590486006, 34.2133592629771 ], [ -118.164899188720995, 34.213398991043199 ], [ -118.164744088478997, 34.213799100273299 ], [ -118.164595533539, 34.2140135542274 ], [ -118.164228264683004, 34.214543733961499 ], [ -118.164090766179996, 34.214663067873602 ], [ -118.163951813699995, 34.2147832564482 ], [ -118.163814215494, 34.214902508140597 ], [ -118.163676583305005, 34.215021786767899 ], [ -118.163537992315995, 34.215141534429002 ], [ -118.163443070257003, 34.215223757086598 ], [ -118.163436352242996, 34.215229576534497 ], [ -118.163437096744005, 34.215229599870199 ], [ -118.163440347160005, 34.215229703663603 ], [ -118.163443510755002, 34.215229805771102 ], [ -118.164333401746006, 34.215258588118502 ], [ -118.164395293229006, 34.215260591994301 ], [ -118.165373515005001, 34.215292234328302 ], [ -118.166028063553995, 34.215313402968803 ], [ -118.167855180361002, 34.215366110885903 ], [ -118.167862836994999, 34.215366331957902 ], [ -118.168098761162994, 34.215373135550401 ], [ -118.170003437887004, 34.215428047240401 ], [ -118.170200855599006, 34.215433732443799 ], [ -118.170255635055995, 34.215435302476997 ], [ -118.17021207674, 34.218791619793201 ], [ -118.170209392309999, 34.218998442236902 ], [ -118.170201032288006, 34.219642572510303 ], [ -118.161891385123994, 34.2177515488547 ], [ -118.160532383440994, 34.217446867429302 ], [ -118.159761215334996, 34.217273967229801 ] ] ] } }
]
}
