{
"type": "FeatureCollection",
"name": "oaks_by_altadena_bg",
"crs": { "type": "name", "properties": { "name": "urn:ogc:def:crs:OGC:1.3:CRS84" } },
"features": [
{ "type": "Feature", "properties": { "OBJECTID_left": 23443, "BG20": "4601011", "CT20": "460101", "LABEL": "BG 1", "ShapeSTArea": 6508409.6875007721, "ShapeSTLength": 13090.37955826633, "oaks_count_x": 1, "oaks_count_y": 1, "oaks_count": 1, "index_right": 0, "OBJECTID_right": 4, "dbgis_USER2_DIST_DRP_CITY_C_2": 244113957.90774408, "PERIMETER": 95045.302682900001, "GPLAN_INDEX2_": null, "GPLAN_INDEX2_ID": null, "CITY": null, "CITYNAME_ALF": null, "SYMBOL_COLORNAME": null, "COMP_NO": null, "TYPE": "COMMUNITY", "ADOPTED": "07-10-86", "SYMBOL": 83.0, "NAME": "ALTADENA", "ACRES": 5604.0629350999998, "CITY_COMM_NAME": "ALTADENA", "ZCIP_PHASE": null, "SQ_MILES": 8.75634834, "JURISDICTION": "UNINCORPORATED AREA", "area_1": null, "dbgis_USER2_DIST_DRP_CITY_C_20": null, "GlobalID": "8664fd7c-b3a9-4bb0-b563-b1a3fc1e9a2c" }, "geometry": { "type": "Polygon", "coordinates": [ [ [ -118.110388186965224, 34.192221826596224 ], [ -118.110473186300268, 34.192288827436364 ], [ -118.110592187276637, 34.192397826524989 ], [ -118.110697186621906, 34.192515826577285 ], [ -118.110787187029402, 34.192641827843389 ], [ -118.110876186731033, 34.192800826906634 ], [ -118.111054186471236, 34.193164827274693 ], [ -118.111091186769187, 34.19322682766969 ], [ -118.111120187179495, 34.193276827005377 ], [ -118.111253187095741, 34.193451827215426 ], [ -118.111335187707212, 34.193554827452864 ], [ -118.111429186957864, 34.19364982721298 ], [ -118.111534186723432, 34.193736826486521 ], [ -118.111649187283689, 34.193813827472709 ], [ -118.11177418728218, 34.193879826739781 ], [ -118.111906187105305, 34.193935826829915 ], [ -118.112045187034752, 34.193978827423635 ], [ -118.11209218737261, 34.193990826537323 ], [ -118.112237186304213, 34.194017827284867 ], [ -118.112384187164849, 34.194032826617246 ], [ -118.112970186919327, 34.194038826814094 ], [ -118.113829187823484, 34.194050826928994 ], [ -118.114917187631534, 34.194043827429333 ], [ -118.115841188053352, 34.194039826843301 ], [ -118.115928187569324, 34.194041826940783 ], [ -118.116042187912541, 34.19404382722243 ], [ -118.116243187909546, 34.194058826851418 ], [ -118.116443187814156, 34.194084827594686 ], [ -118.116769187355075, 34.194149826599983 ], [ -118.117137187937786, 34.194222827527483 ], [ -118.11731518795645, 34.193633827045218 ], [ -118.117331188083838, 34.193540827583561 ], [ -118.117332187439033, 34.192682827506211 ], [ -118.117327187303701, 34.192262826930879 ], [ -118.117319188359033, 34.19137382651482 ], [ -118.117312187124583, 34.190669826578528 ], [ -118.117695188528216, 34.190674826765395 ], [ -118.117837187359072, 34.190662826173522 ], [ -118.11804518835747, 34.190665826514866 ], [ -118.118185187565501, 34.19067982582677 ], [ -118.11899618785705, 34.190680826603057 ], [ -118.119169188134904, 34.190664826307284 ], [ -118.119526188881878, 34.190659825787215 ], [ -118.119706187297055, 34.190670826786437 ], [ -118.119857188556864, 34.190665826123414 ], [ -118.120158187973601, 34.190641826249042 ], [ -118.120308188248785, 34.190622826136533 ], [ -118.120362188821304, 34.190613826521783 ], [ -118.120499188392571, 34.190590826391336 ], [ -118.12070618766036, 34.190550826418779 ], [ -118.120878188148168, 34.190513826207003 ], [ -118.121118187902155, 34.190454826130818 ], [ -118.121253187890346, 34.190426826353466 ], [ -118.121332188049237, 34.190413826391975 ], [ -118.121603188603231, 34.19039182645885 ], [ -118.121820188425374, 34.190380826706793 ], [ -118.122038188168531, 34.190374826351231 ], [ -118.122255189179199, 34.190375826101842 ], [ -118.123273189249403, 34.19036382583559 ], [ -118.123264188984962, 34.189394825785925 ], [ -118.123257188090435, 34.188566825918777 ], [ -118.123250188897188, 34.187742826148892 ], [ -118.123247189011707, 34.187433825717115 ], [ -118.123250188488583, 34.187266825691964 ], [ -118.123248188543968, 34.186959825642042 ], [ -118.123240188339537, 34.185849825989379 ], [ -118.123157187819658, 34.185857825972221 ], [ -118.120540187672091, 34.185874826318859 ], [ -118.118518186787938, 34.185887825802162 ], [ -118.118315188132897, 34.185888825995121 ], [ -118.117270186515285, 34.185894826403214 ], [ -118.114852186129724, 34.18590982652541 ], [ -118.114869187149353, 34.187552826817544 ], [ -118.114877187511311, 34.189075825630496 ], [ -118.114888187555593, 34.190679826001229 ], [ -118.114258187718931, 34.190682826187512 ], [ -118.114048188074605, 34.190697826601877 ], [ -118.113700186305877, 34.190699826540893 ], [ -118.112961187029981, 34.190706826906734 ], [ -118.112657187251287, 34.190691826746473 ], [ -118.11255618648832, 34.190681826321352 ], [ -118.11243418664364, 34.190663827112402 ], [ -118.112451186793393, 34.19081282631867 ], [ -118.112478186435141, 34.190911826315201 ], [ -118.112493187215932, 34.190977826994974 ], [ -118.112494186328547, 34.191043827171782 ], [ -118.112481186994543, 34.19110982684284 ], [ -118.112455186504874, 34.191172826583504 ], [ -118.112416186481511, 34.191230826787432 ], [ -118.112365186921849, 34.19128282671484 ], [ -118.112254187361017, 34.191378826555166 ], [ -118.112089186507802, 34.191491826934659 ], [ -118.111747187551671, 34.191678827038878 ], [ -118.111619186312026, 34.191744827318885 ], [ -118.111422186282567, 34.191838826786828 ], [ -118.111221187524691, 34.191926826313328 ], [ -118.111018186305174, 34.192008826751042 ], [ -118.110810187461951, 34.192085827025714 ], [ -118.110600186222456, 34.192156827279348 ], [ -118.110388186965224, 34.192221826596224 ] ] ] } },
{ "type": "Feature", "properties": { "OBJECTID_left": 23445, "BG20": "4601013", "CT20": "460101", "LABEL": "BG 3", "ShapeSTArea": 4966223.8610569919, "ShapeSTLength": 11390.562590797856, "oaks_count_x": 1, "oaks_count_y": 1, "oaks_count": 1, "index_right": 0, "OBJECTID_right": 4, "dbgis_USER2_DIST_DRP_CITY_C_2": 244113957.90774408, "PERIMETER": 95045.302682900001, "GPLAN_INDEX2_": null, "GPLAN_INDEX2_ID": null, "CITY": null, "CITYNAME_ALF": null, "SYMBOL_COLORNAME": null, "COMP_NO": null, "TYPE": "COMMUNITY", "ADOPTED": "07-10-86", "SYMBOL": 83.0, "NAME": "ALTADENA", "ACRES": 5604.0629350999998, "CITY_COMM_NAME": "ALTADENA", "ZCIP_PHASE": null, "SQ_MILES": 8.75634834, "JURISDICTION": "UNINCORPORATED AREA", "area_1": null, "dbgis_USER2_DIST_DRP_CITY_C_20": null, "GlobalID": "8664fd7c-b3a9-4bb0-b563-b1a3fc1e9a2c" }, "geometry": { "type": "Polygon", "coordinates": [ [ [ -118.123273189249403, 34.19036382583559 ], [ -118.123286189046894, 34.19176382685179 ], [ -118.123294188209115, 34.193092826557674 ], [ -118.123457188753335, 34.193093825994929 ], [ -118.125665189002461, 34.193100826489399 ], [ -118.126464189599901, 34.193103826244425 ], [ -118.126997189869229, 34.193072826747972 ], [ -118.127264189521981, 34.193069826228609 ], [ -118.127414189150244, 34.193094825565822 ], [ -118.127571189058301, 34.19314982661286 ], [ -118.12775218937071, 34.193215826039506 ], [ -118.127883189211019, 34.193250825714074 ], [ -118.127965189334219, 34.193321826559107 ], [ -118.128016189811305, 34.193399826291724 ], [ -118.127573189891962, 34.193797825486939 ], [ -118.127392189445288, 34.194098826629663 ], [ -118.127313188963939, 34.194368826515934 ], [ -118.127116189609509, 34.195011826519867 ], [ -118.127086189649873, 34.195088826288845 ], [ -118.126915189875646, 34.195376826041553 ], [ -118.12672718928205, 34.19571382627155 ], [ -118.126671189476255, 34.195754826170436 ], [ -118.126579189327117, 34.195802827146409 ], [ -118.12655518973466, 34.195819827191741 ], [ -118.126352189752964, 34.195967826539338 ], [ -118.125897189339881, 34.196332826144165 ], [ -118.125817189827899, 34.196395826351896 ], [ -118.125568190209322, 34.196632826322571 ], [ -118.125455190146411, 34.196795826855045 ], [ -118.125413189513026, 34.196909826684575 ], [ -118.125396189859458, 34.197023826731787 ], [ -118.125432189390253, 34.197411826581259 ], [ -118.125510190158906, 34.197638826130529 ], [ -118.1256421895133, 34.197931826574283 ], [ -118.125819189908128, 34.198147826256971 ], [ -118.12584119036994, 34.198173826981126 ], [ -118.125964190046744, 34.198239827207786 ], [ -118.126139190140947, 34.19835382743323 ], [ -118.126334189820582, 34.198458826367592 ], [ -118.126710189605049, 34.198685827319409 ], [ -118.126957190789341, 34.19850982742085 ], [ -118.127391189900663, 34.198270826861012 ], [ -118.128923190000094, 34.198235826530059 ], [ -118.1296891906144, 34.198142827093122 ], [ -118.13092619023864, 34.197951825971174 ], [ -118.130956190515136, 34.197954826251795 ], [ -118.130986190185723, 34.197372826326621 ], [ -118.131009190503264, 34.196869826166832 ], [ -118.131015191424225, 34.196732826544363 ], [ -118.131061190595304, 34.195725825513811 ], [ -118.131093190294067, 34.195015826659407 ], [ -118.131095190192369, 34.194953826169979 ], [ -118.131120190599319, 34.19438082531294 ], [ -118.131152191199917, 34.193627826097199 ], [ -118.131153189510897, 34.193605825842987 ], [ -118.131193189838896, 34.192678825971029 ], [ -118.131212190322643, 34.192241825831246 ], [ -118.13122419055226, 34.191962825777253 ], [ -118.131271190140112, 34.190870825408048 ], [ -118.131272189615913, 34.190826825980317 ], [ -118.131297190231209, 34.190254825796806 ], [ -118.131077189861116, 34.190278826053792 ], [ -118.13061919018385, 34.190330825966747 ], [ -118.130571189979108, 34.190336826092967 ], [ -118.130011189875034, 34.190336826142612 ], [ -118.129528190226424, 34.190337825715339 ], [ -118.128736189723597, 34.190339826049481 ], [ -118.128607189296076, 34.190340826033875 ], [ -118.127056189860127, 34.190350825875882 ], [ -118.126663189485299, 34.190344825433087 ], [ -118.125789189229977, 34.190350825687354 ], [ -118.124506188942917, 34.190356826585123 ], [ -118.123273189249403, 34.19036382583559 ] ] ] } },
{ "type": "Feature", "properties": { "OBJECTID_left": 23446, "BG20": "4601014", "CT20": "460101", "LABEL": "BG 4", "ShapeSTArea": 4042749.6117078327, "ShapeSTLength": 8184.3192168392306, "oaks_count_x": 1, "oaks_count_y": 1, "oaks_count": 1, "index_right": 0, "OBJECTID_right": 4, "dbgis_USER2_DIST_DRP_CITY_C_2": 244113957.90774408, "PERIMETER": 95045.302682900001, "GPLAN_INDEX2_": null, "GPLAN_INDEX2_ID": null, "CITY": null, "CITYNAME_ALF": null, "SYMBOL_COLORNAME": null, "COMP_NO": null, "TYPE": "COMMUNITY", "ADOPTED": "07-10-86", "SYMBOL": 83.0, "NAME": "ALTADENA", "ACRES": 5604.0629350999998, "CITY_COMM_NAME": "ALTADENA", "ZCIP_PHASE": null, "SQ_MILES": 8.75634834, "JURISDICTION": "UNINCORPORATED AREA", "area_1": null, "dbgis_USER2_DIST_DRP_CITY_C_20": null, "GlobalID": "8664fd7c-b3a9-4bb0-b563-b1a3fc1e9a2c" }, "geometry": { "type": "Polygon", "coordinates": [ [ [ -118.123240188339537, 34.185849825989379 ], [ -118.123248188543968, 34.186959825642042 ], [ -118.123250188488583, 34.187266825691964 ], [ -118.123247189011707, 34.187433825717115 ], [ -118.123250188897188, 34.187742826148892 ], [ -118.123257188090435, 34.188566825918777 ], [ -118.123264188984962, 34.189394825785925 ], [ -118.123273189249403, 34.19036382583559 ], [ -118.124506188942917, 34.190356826585123 ], [ -118.125789189229977, 34.190350825687354 ], [ -118.126663189485299, 34.190344825433087 ], [ -118.127056189860127, 34.190350825875882 ], [ -118.128607189296076, 34.190340826033875 ], [ -118.128736189723597, 34.190339826049481 ], [ -118.129528190226424, 34.190337825715339 ], [ -118.130011189875034, 34.190336826142612 ], [ -118.130571189979108, 34.190336826092967 ], [ -118.13061919018385, 34.190330825966747 ], [ -118.131077189861116, 34.190278826053792 ], [ -118.131297190231209, 34.190254825796806 ], [ -118.131332189231074, 34.189447825163015 ], [ -118.131338190331874, 34.189317825920604 ], [ -118.131375190061547, 34.188521825396251 ], [ -118.131406188976698, 34.187841826029469 ], [ -118.131446189696646, 34.187530825428951 ], [ -118.131455189696126, 34.187286825169465 ], [ -118.131477189683594, 34.186741825482102 ], [ -118.131514189896805, 34.185838824861079 ], [ -118.12991618987418, 34.185842825418085 ], [ -118.128629189050315, 34.185851825130875 ], [ -118.128516189250774, 34.185821825078449 ], [ -118.127372188958475, 34.185823824886945 ], [ -118.12585118836968, 34.185830825256829 ], [ -118.124477188851714, 34.185835826105105 ], [ -118.12332318845101, 34.185840825250175 ], [ -118.123240188339537, 34.185849825989379 ] ] ] } },
{ "type": "Feature", "properties": { "OBJECTID_left": 23448, "BG20": "4602001", "CT20": "460200", "LABEL": "BG 1", "ShapeSTArea": 14126448.330570543, "ShapeSTLength": 16562.59351412622, "oaks_count_x": 12, "oaks_count_y": 12, "oaks_count": 12, "index_right": 0, "OBJECTID_right": 4, "dbgis_USER2_DIST_DRP_CITY_C_2": 244113957.90774408, "PERIMETER": 95045.302682900001, "GPLAN_INDEX2_": null, "GPLAN_INDEX2_ID": null, "CITY": null, "CITYNAME_ALF": null, "SYMBOL_COLORNAME": null, "COMP_NO": null, "TYPE": "COMMUNITY", "ADOPTED": "07-10-86", "SYMBOL": 83.0, "NAME": "ALTADENA", "ACRES": 5604.0629350999998, "CITY_COMM_NAME": "ALTADENA", "ZCIP_PHASE": null, "SQ_MILES": 8.75634834, "JURISDICTION": "UNINCORPORATED AREA", "area_1": null, "dbgis_USER2_DIST_DRP_CITY_C_20": null, "GlobalID": "8664fd7c-b3a9-4bb0-b563-b1a3fc1e9a2c" }, "geometry": { "type": "Polygon", "coordinates": [ [ [ -118.125147190099185, 34.208436828379064 ], [ -118.125606190651027, 34.208689828236402 ], [ -118.128951191250238, 34.210534827690964 ], [ -118.131972191793309, 34.212200828111655 ], [ -118.13288119212929, 34.212740827912178 ], [ -118.13504019257455, 34.21389382787288 ], [ -118.135291192797979, 34.212688828109066 ], [ -118.136854192290699, 34.211158827333101 ], [ -118.137345192324574, 34.210297827563451 ], [ -118.137433192354507, 34.210142827376963 ], [ -118.138885192649269, 34.209381827307759 ], [ -118.140183192802638, 34.208701826849214 ], [ -118.139975193261705, 34.208295827582944 ], [ -118.140161193107659, 34.208233826684832 ], [ -118.140286193213498, 34.208172826624462 ], [ -118.140394193631721, 34.208131826808092 ], [ -118.140502192876724, 34.208130826954779 ], [ -118.141022192494191, 34.208161826975299 ], [ -118.141143192658532, 34.207900826791708 ], [ -118.141196192719221, 34.207783827279286 ], [ -118.141209193285334, 34.207754826962152 ], [ -118.141218192463612, 34.207699826633046 ], [ -118.141242193289457, 34.207558827011589 ], [ -118.141259192927095, 34.207460826900252 ], [ -118.141317192376633, 34.207085826573206 ], [ -118.141382193360315, 34.206883826471525 ], [ -118.141457193477194, 34.206701826844252 ], [ -118.141656193242909, 34.206404826916511 ], [ -118.141888193644803, 34.206206826626627 ], [ -118.141934193995908, 34.2061678265026 ], [ -118.142205193149962, 34.205842827056827 ], [ -118.142480193303513, 34.205070826654421 ], [ -118.143408192936405, 34.203073826511954 ], [ -118.14323119317217, 34.20309582711274 ], [ -118.143140193585907, 34.202946825979019 ], [ -118.142308192683473, 34.202722826658523 ], [ -118.141958192196014, 34.202628826745773 ], [ -118.141295192357362, 34.202352826347074 ], [ -118.141188192787439, 34.202300826507091 ], [ -118.140340192656907, 34.201890826523623 ], [ -118.140117192181876, 34.201782826376963 ], [ -118.139430192097777, 34.201450826898778 ], [ -118.138460192142645, 34.200977826352904 ], [ -118.137510191111446, 34.200515826453554 ], [ -118.136958192530031, 34.200248826650302 ], [ -118.136145191017931, 34.199854826583973 ], [ -118.135598192397026, 34.200623826207661 ], [ -118.135155191415507, 34.201245826079443 ], [ -118.134457191105994, 34.202202826834601 ], [ -118.133663192195684, 34.203347826854646 ], [ -118.133309191478844, 34.203883827257727 ], [ -118.132529191333319, 34.20396782704713 ], [ -118.132500191195192, 34.203970827554386 ], [ -118.131947191108708, 34.204004827358474 ], [ -118.13101219160535, 34.204058827374091 ], [ -118.130812190928481, 34.204076827396527 ], [ -118.13070219180895, 34.204048827511805 ], [ -118.129986191217569, 34.204012827232773 ], [ -118.129310190781851, 34.203994826828804 ], [ -118.129223189947496, 34.204017826799451 ], [ -118.129135190615216, 34.204049827762333 ], [ -118.128986190761282, 34.204050827836696 ], [ -118.128790191621292, 34.204021827017996 ], [ -118.128706191316112, 34.204007827273784 ], [ -118.128674191663919, 34.204019827339152 ], [ -118.128662190518824, 34.204035826960741 ], [ -118.128633190956521, 34.204073826698178 ], [ -118.128584191103684, 34.204213827128427 ], [ -118.128479191510664, 34.204379827687596 ], [ -118.128310191044818, 34.204570827901527 ], [ -118.128195190215806, 34.204656827898127 ], [ -118.127996190788664, 34.204724827450285 ], [ -118.127788191188245, 34.204811827843855 ], [ -118.127659191040209, 34.20491282737229 ], [ -118.1275671905899, 34.205025827709576 ], [ -118.12743619030762, 34.205262826938515 ], [ -118.127332190051419, 34.20552582753092 ], [ -118.127268190687772, 34.205592828174296 ], [ -118.127218189917812, 34.20565482769431 ], [ -118.127190191359261, 34.205701827824157 ], [ -118.12716019026648, 34.205851827321325 ], [ -118.12710519096629, 34.205937828111715 ], [ -118.126958190926416, 34.206058828244416 ], [ -118.12676919039167, 34.206148827975674 ], [ -118.126662190875095, 34.206192827495073 ], [ -118.126316190600917, 34.206323827450305 ], [ -118.126186190508719, 34.206389828094103 ], [ -118.126117190695794, 34.206436827456976 ], [ -118.126081190824053, 34.206483827555658 ], [ -118.12606819080581, 34.206584827954757 ], [ -118.126108190712202, 34.206788827186045 ], [ -118.126095190865811, 34.20686982801336 ], [ -118.12604518983261, 34.206924827556826 ], [ -118.125915190452133, 34.206979827420284 ], [ -118.12591119022818, 34.207006827943658 ], [ -118.125935191030763, 34.207102827787345 ], [ -118.126035190173098, 34.207248828556772 ], [ -118.126069190473345, 34.207344827874103 ], [ -118.126065189807861, 34.207375827596735 ], [ -118.126038190957715, 34.207441827996327 ], [ -118.125973190522487, 34.207492827712677 ], [ -118.125951190140626, 34.207508827558129 ], [ -118.125115190650462, 34.207508827674552 ], [ -118.125069189850251, 34.207693828023572 ], [ -118.125080190857545, 34.207738827413294 ], [ -118.125094189924965, 34.208156827843545 ], [ -118.125147190099185, 34.208436828379064 ] ] ] } },
{ "type": "Feature", "properties": { "OBJECTID_left": 23449, "BG20": "4602002", "CT20": "460200", "LABEL": "BG 2", "ShapeSTArea": 3249416.3056155127, "ShapeSTLength": 7448.5689915817175, "oaks_count_x": 1, "oaks_count_y": 1, "oaks_count": 1, "index_right": 0, "OBJECTID_right": 4, "dbgis_USER2_DIST_DRP_CITY_C_2": 244113957.90774408, "PERIMETER": 95045.302682900001, "GPLAN_INDEX2_": null, "GPLAN_INDEX2_ID": null, "CITY": null, "CITYNAME_ALF": null, "SYMBOL_COLORNAME": null, "COMP_NO": null, "TYPE": "COMMUNITY", "ADOPTED": "07-10-86", "SYMBOL": 83.0, "NAME": "ALTADENA", "ACRES": 5604.0629350999998, "CITY_COMM_NAME": "ALTADENA", "ZCIP_PHASE": null, "SQ_MILES": 8.75634834, "JURISDICTION": "UNINCORPORATED AREA", "area_1": null, "dbgis_USER2_DIST_DRP_CITY_C_20": null, "GlobalID": "8664fd7c-b3a9-4bb0-b563-b1a3fc1e9a2c" }, "geometry": { "type": "Polygon", "coordinates": [ [ [ -118.136145191017931, 34.199854826583973 ], [ -118.136958192530031, 34.200248826650302 ], [ -118.137510191111446, 34.200515826453554 ], [ -118.138460192142645, 34.200977826352904 ], [ -118.139430192097777, 34.201450826898778 ], [ -118.140117192181876, 34.201782826376963 ], [ -118.140340192656907, 34.201890826523623 ], [ -118.141188192787439, 34.202300826507091 ], [ -118.141295192357362, 34.202352826347074 ], [ -118.141958192196014, 34.202628826745773 ], [ -118.142308192683473, 34.202722826658523 ], [ -118.143140193585907, 34.202946825979019 ], [ -118.14323119317217, 34.20309582711274 ], [ -118.143408192936405, 34.203073826511954 ], [ -118.143490193479366, 34.202896826228212 ], [ -118.14428119300365, 34.201205825482106 ], [ -118.144528193316546, 34.200680825685495 ], [ -118.144837193667328, 34.199996825556163 ], [ -118.145094193672847, 34.199429826490828 ], [ -118.14515019328293, 34.199313825944095 ], [ -118.144441193431931, 34.199061825543616 ], [ -118.143888193011918, 34.198871825910565 ], [ -118.142379192325777, 34.198405825431557 ], [ -118.142315192901634, 34.198384825630946 ], [ -118.141047192347955, 34.197967825966423 ], [ -118.140028191414672, 34.197632825889734 ], [ -118.138149191529862, 34.197037826113927 ], [ -118.13803319213541, 34.197199825821116 ], [ -118.137770191289817, 34.197570826400991 ], [ -118.137300191293832, 34.198231826392913 ], [ -118.137273192415378, 34.198268826138154 ], [ -118.136771191057761, 34.198974826066809 ], [ -118.136145191017931, 34.199854826583973 ] ] ] } },
{ "type": "Feature", "properties": { "OBJECTID_left": 23450, "BG20": "4602003", "CT20": "460200", "LABEL": "BG 3", "ShapeSTArea": 6224871.461764656, "ShapeSTLength": 11636.689067649644, "oaks_count_x": 2, "oaks_count_y": 2, "oaks_count": 2, "index_right": 0, "OBJECTID_right": 4, "dbgis_USER2_DIST_DRP_CITY_C_2": 244113957.90774408, "PERIMETER": 95045.302682900001, "GPLAN_INDEX2_": null, "GPLAN_INDEX2_ID": null, "CITY": null, "CITYNAME_ALF": null, "SYMBOL_COLORNAME": null, "COMP_NO": null, "TYPE": "COMMUNITY", "ADOPTED": "07-10-86", "SYMBOL": 83.0, "NAME": "ALTADENA", "ACRES": 5604.0629350999998, "CITY_COMM_NAME": "ALTADENA", "ZCIP_PHASE": null, "SQ_MILES": 8.75634834, "JURISDICTION": "UNINCORPORATED AREA", "area_1": null, "dbgis_USER2_DIST_DRP_CITY_C_20": null, "GlobalID": "8664fd7c-b3a9-4bb0-b563-b1a3fc1e9a2c" }, "geometry": { "type": "Polygon", "coordinates": [ [ [ -118.13070219180895, 34.204048827511805 ], [ -118.130812190928481, 34.204076827396527 ], [ -118.13101219160535, 34.204058827374091 ], [ -118.131947191108708, 34.204004827358474 ], [ -118.132500191195192, 34.203970827554386 ], [ -118.132529191333319, 34.20396782704713 ], [ -118.133309191478844, 34.203883827257727 ], [ -118.133663192195684, 34.203347826854646 ], [ -118.134457191105994, 34.202202826834601 ], [ -118.135155191415507, 34.201245826079443 ], [ -118.135598192397026, 34.200623826207661 ], [ -118.136145191017931, 34.199854826583973 ], [ -118.136771191057761, 34.198974826066809 ], [ -118.137273192415378, 34.198268826138154 ], [ -118.137300191293832, 34.198231826392913 ], [ -118.137770191289817, 34.197570826400991 ], [ -118.13803319213541, 34.197199825821116 ], [ -118.138149191529862, 34.197037826113927 ], [ -118.138372191588317, 34.196723825628034 ], [ -118.138755192485348, 34.196172826091463 ], [ -118.13825519152924, 34.196042826125897 ], [ -118.136729192053181, 34.195645826605336 ], [ -118.13593019216961, 34.195391826195262 ], [ -118.136576190434241, 34.194476826573201 ], [ -118.135337190816685, 34.19408482584506 ], [ -118.135247191682481, 34.194055825962039 ], [ -118.135226190839873, 34.194021825638536 ], [ -118.135266190976623, 34.193935825292989 ], [ -118.135492190776574, 34.193608825782874 ], [ -118.134086190411082, 34.193131826104079 ], [ -118.132470190508386, 34.192634826110925 ], [ -118.131595190326152, 34.192335825381825 ], [ -118.131412189921647, 34.192279825551182 ], [ -118.131329189890678, 34.192255825865544 ], [ -118.131212190322643, 34.192241825831246 ], [ -118.131193189838896, 34.192678825971029 ], [ -118.131153189510897, 34.193605825842987 ], [ -118.131152191199917, 34.193627826097199 ], [ -118.131120190599319, 34.19438082531294 ], [ -118.131095190192369, 34.194953826169979 ], [ -118.131093190294067, 34.195015826659407 ], [ -118.131061190595304, 34.195725825513811 ], [ -118.131015191424225, 34.196732826544363 ], [ -118.131009190503264, 34.196869826166832 ], [ -118.130986190185723, 34.197372826326621 ], [ -118.130956190515136, 34.197954826251795 ], [ -118.130895191355819, 34.199133826845625 ], [ -118.130867190827274, 34.199685826126505 ], [ -118.130867190172637, 34.200134826692839 ], [ -118.130828190755778, 34.200509826654887 ], [ -118.130787190256854, 34.201112826993437 ], [ -118.13076819108268, 34.201775826607303 ], [ -118.130780190789778, 34.202087826487698 ], [ -118.130777191419369, 34.202303826768521 ], [ -118.130767190429353, 34.202542827277753 ], [ -118.130760191731099, 34.202772827256595 ], [ -118.130739191143164, 34.203295826592907 ], [ -118.130700191102278, 34.203881827266748 ], [ -118.13070219180895, 34.204048827511805 ] ] ] } },
{ "type": "Feature", "properties": { "OBJECTID_left": 23451, "BG20": "4602004", "CT20": "460200", "LABEL": "BG 4", "ShapeSTArea": 3402042.6718472983, "ShapeSTLength": 7777.8199601690985, "oaks_count_x": 1, "oaks_count_y": 1, "oaks_count": 1, "index_right": 0, "OBJECTID_right": 4, "dbgis_USER2_DIST_DRP_CITY_C_2": 244113957.90774408, "PERIMETER": 95045.302682900001, "GPLAN_INDEX2_": null, "GPLAN_INDEX2_ID": null, "CITY": null, "CITYNAME_ALF": null, "SYMBOL_COLORNAME": null, "COMP_NO": null, "TYPE": "COMMUNITY", "ADOPTED": "07-10-86", "SYMBOL": 83.0, "NAME": "ALTADENA", "ACRES": 5604.0629350999998, "CITY_COMM_NAME": "ALTADENA", "ZCIP_PHASE": null, "SQ_MILES": 8.75634834, "JURISDICTION": "UNINCORPORATED AREA", "area_1": null, "dbgis_USER2_DIST_DRP_CITY_C_20": null, "GlobalID": "8664fd7c-b3a9-4bb0-b563-b1a3fc1e9a2c" }, "geometry": { "type": "Polygon", "coordinates": [ [ [ -118.131212190322643, 34.192241825831246 ], [ -118.131329189890678, 34.192255825865544 ], [ -118.131412189921647, 34.192279825551182 ], [ -118.131595190326152, 34.192335825381825 ], [ -118.132470190508386, 34.192634826110925 ], [ -118.134086190411082, 34.193131826104079 ], [ -118.135492190776574, 34.193608825782874 ], [ -118.135266190976623, 34.193935825292989 ], [ -118.135226190839873, 34.194021825638536 ], [ -118.135247191682481, 34.194055825962039 ], [ -118.135337190816685, 34.19408482584506 ], [ -118.136576190434241, 34.194476826573201 ], [ -118.137125190736811, 34.193698825641611 ], [ -118.137206191154817, 34.19358482528132 ], [ -118.137702191895613, 34.192869825857009 ], [ -118.137857191174447, 34.192646824967909 ], [ -118.138026191586135, 34.192251825429054 ], [ -118.138291191462685, 34.191671825338318 ], [ -118.138436191088388, 34.191354826126762 ], [ -118.138775191312391, 34.190629825370067 ], [ -118.138989192026116, 34.190204825770266 ], [ -118.137762191479482, 34.1898038253536 ], [ -118.137602191673068, 34.189760825005955 ], [ -118.13744319064763, 34.189716825316658 ], [ -118.136644191402695, 34.189439825311325 ], [ -118.136383190642448, 34.18935882515823 ], [ -118.134828190169571, 34.188879825796 ], [ -118.13465819022025, 34.188826824802682 ], [ -118.134187190190246, 34.188681825699071 ], [ -118.133815190440288, 34.188566825535347 ], [ -118.132717190124382, 34.188226825380085 ], [ -118.131564189856448, 34.187868824638315 ], [ -118.131406188976698, 34.187841826029469 ], [ -118.131375190061547, 34.188521825396251 ], [ -118.131338190331874, 34.189317825920604 ], [ -118.131332189231074, 34.189447825163015 ], [ -118.131297190231209, 34.190254825796806 ], [ -118.131272189615913, 34.190826825980317 ], [ -118.131271190140112, 34.190870825408048 ], [ -118.13122419055226, 34.191962825777253 ], [ -118.131212190322643, 34.192241825831246 ] ] ] } },
{ "type": "Feature", "properties": { "OBJECTID_left": 23452, "BG20": "4602005", "CT20": "460200", "LABEL": "BG 5", "ShapeSTArea": 7315769.244075682, "ShapeSTLength": 11456.322902363196, "oaks_count_x": 1, "oaks_count_y": 1, "oaks_count": 1, "index_right": 0, "OBJECTID_right": 4, "dbgis_USER2_DIST_DRP_CITY_C_2": 244113957.90774408, "PERIMETER": 95045.302682900001, "GPLAN_INDEX2_": null, "GPLAN_INDEX2_ID": null, "CITY": null, "CITYNAME_ALF": null, "SYMBOL_COLORNAME": null, "COMP_NO": null, "TYPE": "COMMUNITY", "ADOPTED": "07-10-86", "SYMBOL": 83.0, "NAME": "ALTADENA", "ACRES": 5604.0629350999998, "CITY_COMM_NAME": "ALTADENA", "ZCIP_PHASE": null, "SQ_MILES": 8.75634834, "JURISDICTION": "UNINCORPORATED AREA", "area_1": null, "dbgis_USER2_DIST_DRP_CITY_C_20": null, "GlobalID": "8664fd7c-b3a9-4bb0-b563-b1a3fc1e9a2c" }, "geometry": { "type": "Polygon", "coordinates": [ [ [ -118.138149191529862, 34.197037826113927 ], [ -118.140028191414672, 34.197632825889734 ], [ -118.141047192347955, 34.197967825966423 ], [ -118.142315192901634, 34.198384825630946 ], [ -118.142379192325777, 34.198405825431557 ], [ -118.143888193011918, 34.198871825910565 ], [ -118.144441193431931, 34.199061825543616 ], [ -118.14515019328293, 34.199313825944095 ], [ -118.145194192159153, 34.199198825149082 ], [ -118.145405193049243, 34.198692825062075 ], [ -118.146051193442133, 34.197298826098148 ], [ -118.146385192658514, 34.196645825235571 ], [ -118.14687919278424, 34.195625825783594 ], [ -118.147295193279092, 34.194636824711317 ], [ -118.147332193363084, 34.194558825108288 ], [ -118.147706192869876, 34.193756824393276 ], [ -118.14772619351848, 34.193713825756639 ], [ -118.14789119294737, 34.193350824346844 ], [ -118.14804819279361, 34.1930208249562 ], [ -118.148126192750141, 34.192852825498768 ], [ -118.148413193133266, 34.192246824716676 ], [ -118.147283192520547, 34.191880825342373 ], [ -118.146356192671405, 34.191582824949975 ], [ -118.146173192836272, 34.191523824605071 ], [ -118.145684192122459, 34.191369825272126 ], [ -118.145553192607494, 34.191348824922066 ], [ -118.145420192246675, 34.19134382451513 ], [ -118.145321192774873, 34.19134882528143 ], [ -118.145187192450081, 34.191380824679356 ], [ -118.145059192635387, 34.191427825432406 ], [ -118.1449011928798, 34.19150482529588 ], [ -118.144839192714954, 34.19153482498988 ], [ -118.1444611927529, 34.191718825237899 ], [ -118.144442192065867, 34.191727825379772 ], [ -118.144363191952579, 34.191755824794782 ], [ -118.144236192453747, 34.191780825208014 ], [ -118.144131192603382, 34.19178882433777 ], [ -118.144062192265451, 34.191786824894962 ], [ -118.143950191539687, 34.19177282491561 ], [ -118.143924192874437, 34.191767824403009 ], [ -118.143445191667482, 34.191612825060631 ], [ -118.142797191283307, 34.19140382516116 ], [ -118.141958191299793, 34.191131825283541 ], [ -118.139815191625701, 34.190462825299107 ], [ -118.13966919149631, 34.19041682562802 ], [ -118.138989192026116, 34.190204825770266 ], [ -118.138775191312391, 34.190629825370067 ], [ -118.138436191088388, 34.191354826126762 ], [ -118.138291191462685, 34.191671825338318 ], [ -118.138026191586135, 34.192251825429054 ], [ -118.137857191174447, 34.192646824967909 ], [ -118.137702191895613, 34.192869825857009 ], [ -118.137206191154817, 34.19358482528132 ], [ -118.137125190736811, 34.193698825641611 ], [ -118.136576190434241, 34.194476826573201 ], [ -118.13593019216961, 34.195391826195262 ], [ -118.136729192053181, 34.195645826605336 ], [ -118.13825519152924, 34.196042826125897 ], [ -118.138755192485348, 34.196172826091463 ], [ -118.138372191588317, 34.196723825628034 ], [ -118.138149191529862, 34.197037826113927 ] ] ] } },
{ "type": "Feature", "properties": { "OBJECTID_left": 23453, "BG20": "4603011", "CT20": "460301", "LABEL": "BG 1", "ShapeSTArea": 5231037.4579169769, "ShapeSTLength": 10446.794068540781, "oaks_count_x": 1, "oaks_count_y": 1, "oaks_count": 1, "index_right": 0, "OBJECTID_right": 4, "dbgis_USER2_DIST_DRP_CITY_C_2": 244113957.90774408, "PERIMETER": 95045.302682900001, "GPLAN_INDEX2_": null, "GPLAN_INDEX2_ID": null, "CITY": null, "CITYNAME_ALF": null, "SYMBOL_COLORNAME": null, "COMP_NO": null, "TYPE": "COMMUNITY", "ADOPTED": "07-10-86", "SYMBOL": 83.0, "NAME": "ALTADENA", "ACRES": 5604.0629350999998, "CITY_COMM_NAME": "ALTADENA", "ZCIP_PHASE": null, "SQ_MILES": 8.75634834, "JURISDICTION": "UNINCORPORATED AREA", "area_1": null, "dbgis_USER2_DIST_DRP_CITY_C_20": null, "GlobalID": "8664fd7c-b3a9-4bb0-b563-b1a3fc1e9a2c" }, "geometry": { "type": "Polygon", "coordinates": [ [ [ -118.141242193289457, 34.207558827011589 ], [ -118.143474194297767, 34.20759482693289 ], [ -118.145761193795678, 34.207618827328012 ], [ -118.146027194686937, 34.207622826713497 ], [ -118.147334194843651, 34.207624826673985 ], [ -118.147411194094204, 34.207542826921824 ], [ -118.147774194003489, 34.207281827004259 ], [ -118.148295193905497, 34.206921826360521 ], [ -118.14847419421227, 34.206685825620376 ], [ -118.148562194681432, 34.206569825687957 ], [ -118.148631193823419, 34.206375825969005 ], [ -118.148651193655056, 34.205804827073997 ], [ -118.148649193785147, 34.205287826308165 ], [ -118.148646193273876, 34.204601825628195 ], [ -118.14864219415027, 34.203866826121846 ], [ -118.148636194513543, 34.202669825602037 ], [ -118.150419195000723, 34.202523825787644 ], [ -118.150999194132439, 34.202478825442114 ], [ -118.151296194909676, 34.202455825939253 ], [ -118.151457193786072, 34.202100825753085 ], [ -118.151735194497633, 34.201486825444725 ], [ -118.148441194275193, 34.200419825537097 ], [ -118.148410193821249, 34.200384826440775 ], [ -118.148375193094466, 34.200321826158998 ], [ -118.148312194022608, 34.200254825839906 ], [ -118.148230193961425, 34.200152825163983 ], [ -118.14817219425413, 34.200114825430632 ], [ -118.145194192159153, 34.199198825149082 ], [ -118.14515019328293, 34.199313825944095 ], [ -118.145094193672847, 34.199429826490828 ], [ -118.144837193667328, 34.199996825556163 ], [ -118.144528193316546, 34.200680825685495 ], [ -118.14428119300365, 34.201205825482106 ], [ -118.143490193479366, 34.202896826228212 ], [ -118.143408192936405, 34.203073826511954 ], [ -118.142480193303513, 34.205070826654421 ], [ -118.142205193149962, 34.205842827056827 ], [ -118.141934193995908, 34.2061678265026 ], [ -118.141888193644803, 34.206206826626627 ], [ -118.141656193242909, 34.206404826916511 ], [ -118.141457193477194, 34.206701826844252 ], [ -118.141382193360315, 34.206883826471525 ], [ -118.141317192376633, 34.207085826573206 ], [ -118.141259192927095, 34.207460826900252 ], [ -118.141242193289457, 34.207558827011589 ] ] ] } },
{ "type": "Feature", "properties": { "OBJECTID_left": 23454, "BG20": "4603012", "CT20": "460301", "LABEL": "BG 2", "ShapeSTArea": 3938200.8039835626, "ShapeSTLength": 8004.4630337136496, "oaks_count_x": 1, "oaks_count_y": 1, "oaks_count": 1, "index_right": 0, "OBJECTID_right": 4, "dbgis_USER2_DIST_DRP_CITY_C_2": 244113957.90774408, "PERIMETER": 95045.302682900001, "GPLAN_INDEX2_": null, "GPLAN_INDEX2_ID": null, "CITY": null, "CITYNAME_ALF": null, "SYMBOL_COLORNAME": null, "COMP_NO": null, "TYPE": "COMMUNITY", "ADOPTED": "07-10-86", "SYMBOL": 83.0, "NAME": "ALTADENA", "ACRES": 5604.0629350999998, "CITY_COMM_NAME": "ALTADENA", "ZCIP_PHASE": null, "SQ_MILES": 8.75634834, "JURISDICTION": "UNINCORPORATED AREA", "area_1": null, "dbgis_USER2_DIST_DRP_CITY_C_20": null, "GlobalID": "8664fd7c-b3a9-4bb0-b563-b1a3fc1e9a2c" }, "geometry": { "type": "Polygon", "coordinates": [ [ [ -118.145194192159153, 34.199198825149082 ], [ -118.14817219425413, 34.200114825430632 ], [ -118.148230193961425, 34.200152825163983 ], [ -118.148312194022608, 34.200254825839906 ], [ -118.148375193094466, 34.200321826158998 ], [ -118.148410193821249, 34.200384826440775 ], [ -118.148441194275193, 34.200419825537097 ], [ -118.151735194497633, 34.201486825444725 ], [ -118.151968194759959, 34.20097282484403 ], [ -118.152043194276871, 34.200813825714235 ], [ -118.152547194295352, 34.199732825290717 ], [ -118.152955195306035, 34.198861825280034 ], [ -118.152985194914038, 34.198818825750138 ], [ -118.153050195250387, 34.198676825298904 ], [ -118.153962194840062, 34.196668824892967 ], [ -118.153152193949637, 34.196401824954847 ], [ -118.153072194993896, 34.196404825533449 ], [ -118.152702193609443, 34.196287825355427 ], [ -118.152543194103487, 34.196236825258332 ], [ -118.151734193533002, 34.196003824861798 ], [ -118.150668193833866, 34.195650824597244 ], [ -118.148113193599144, 34.194804825274772 ], [ -118.147332193363084, 34.194558825108288 ], [ -118.147295193279092, 34.194636824711317 ], [ -118.14687919278424, 34.195625825783594 ], [ -118.146385192658514, 34.196645825235571 ], [ -118.146051193442133, 34.197298826098148 ], [ -118.145405193049243, 34.198692825062075 ], [ -118.145194192159153, 34.199198825149082 ] ] ] } },
{ "type": "Feature", "properties": { "OBJECTID_left": 23455, "BG20": "4603013", "CT20": "460301", "LABEL": "BG 3", "ShapeSTArea": 3400406.3008762533, "ShapeSTLength": 7590.5247594824787, "oaks_count_x": 7, "oaks_count_y": 7, "oaks_count": 7, "index_right": 0, "OBJECTID_right": 4, "dbgis_USER2_DIST_DRP_CITY_C_2": 244113957.90774408, "PERIMETER": 95045.302682900001, "GPLAN_INDEX2_": null, "GPLAN_INDEX2_ID": null, "CITY": null, "CITYNAME_ALF": null, "SYMBOL_COLORNAME": null, "COMP_NO": null, "TYPE": "COMMUNITY", "ADOPTED": "07-10-86", "SYMBOL": 83.0, "NAME": "ALTADENA", "ACRES": 5604.0629350999998, "CITY_COMM_NAME": "ALTADENA", "ZCIP_PHASE": null, "SQ_MILES": 8.75634834, "JURISDICTION": "UNINCORPORATED AREA", "area_1": null, "dbgis_USER2_DIST_DRP_CITY_C_20": null, "GlobalID": "8664fd7c-b3a9-4bb0-b563-b1a3fc1e9a2c" }, "geometry": { "type": "Polygon", "coordinates": [ [ [ -118.151735194497633, 34.201486825444725 ], [ -118.151457193786072, 34.202100825753085 ], [ -118.151296194909676, 34.202455825939253 ], [ -118.152554194045749, 34.202359825153117 ], [ -118.152836194573808, 34.202348825746341 ], [ -118.154156194963846, 34.202236826032312 ], [ -118.154245194206268, 34.202207825712755 ], [ -118.154296195325998, 34.202191826103096 ], [ -118.155284194674024, 34.202124825006784 ], [ -118.155368194781957, 34.202133825336595 ], [ -118.15543619440308, 34.202140825833645 ], [ -118.15755119587061, 34.201981825681933 ], [ -118.15916319559571, 34.201860825248353 ], [ -118.159116196362802, 34.200708824868641 ], [ -118.159056196217975, 34.199313825534965 ], [ -118.159012195629515, 34.198283824594398 ], [ -118.158809194917083, 34.198193825371028 ], [ -118.157379195648915, 34.197738824829422 ], [ -118.157299195231545, 34.197727824709446 ], [ -118.15693519444082, 34.197612825651888 ], [ -118.156455195284479, 34.19745982545215 ], [ -118.15643219478082, 34.197437825364027 ], [ -118.155972194989232, 34.197287824731433 ], [ -118.155852195124524, 34.197280824830983 ], [ -118.155425194369144, 34.197145825268215 ], [ -118.155334195129797, 34.197096824890657 ], [ -118.15502819414921, 34.197001824531739 ], [ -118.154840194856945, 34.196943825449345 ], [ -118.154770194667336, 34.196932825282644 ], [ -118.154753194696625, 34.196927825498413 ], [ -118.153962194840062, 34.196668824892967 ], [ -118.153050195250387, 34.198676825298904 ], [ -118.152985194914038, 34.198818825750138 ], [ -118.152955195306035, 34.198861825280034 ], [ -118.152547194295352, 34.199732825290717 ], [ -118.152043194276871, 34.200813825714235 ], [ -118.151968194759959, 34.20097282484403 ], [ -118.151735194497633, 34.201486825444725 ] ] ] } },
{ "type": "Feature", "properties": { "OBJECTID_left": 23459, "BG20": "4603023", "CT20": "460302", "LABEL": "BG 3", "ShapeSTArea": 3563322.9410994234, "ShapeSTLength": 7591.4304826571606, "oaks_count_x": 1, "oaks_count_y": 1, "oaks_count": 1, "index_right": 0, "OBJECTID_right": 4, "dbgis_USER2_DIST_DRP_CITY_C_2": 244113957.90774408, "PERIMETER": 95045.302682900001, "GPLAN_INDEX2_": null, "GPLAN_INDEX2_ID": null, "CITY": null, "CITYNAME_ALF": null, "SYMBOL_COLORNAME": null, "COMP_NO": null, "TYPE": "COMMUNITY", "ADOPTED": "07-10-86", "SYMBOL": 83.0, "NAME": "ALTADENA", "ACRES": 5604.0629350999998, "CITY_COMM_NAME": "ALTADENA", "ZCIP_PHASE": null, "SQ_MILES": 8.75634834, "JURISDICTION": "UNINCORPORATED AREA", "area_1": null, "dbgis_USER2_DIST_DRP_CITY_C_20": null, "GlobalID": "8664fd7c-b3a9-4bb0-b563-b1a3fc1e9a2c" }, "geometry": { "type": "Polygon", "coordinates": [ [ [ -118.147332193363084, 34.194558825108288 ], [ -118.148113193599144, 34.194804825274772 ], [ -118.150668193833866, 34.195650824597244 ], [ -118.151734193533002, 34.196003824861798 ], [ -118.152543194103487, 34.196236825258332 ], [ -118.152702193609443, 34.196287825355427 ], [ -118.153072194993896, 34.196404825533449 ], [ -118.153152193949637, 34.196401824954847 ], [ -118.153962194840062, 34.196668824892967 ], [ -118.154483193849302, 34.195591824568695 ], [ -118.154964193574884, 34.194570825003851 ], [ -118.155476194586115, 34.193432824346857 ], [ -118.155934194066077, 34.192441824593935 ], [ -118.155829194036272, 34.192397824508006 ], [ -118.155289194419623, 34.192226824897418 ], [ -118.154863194980891, 34.192090825008904 ], [ -118.153749193988844, 34.191735824542164 ], [ -118.152632194164923, 34.191386824518965 ], [ -118.149490193182871, 34.190381825135255 ], [ -118.149328193004422, 34.190333824836152 ], [ -118.149277193401176, 34.190404823905027 ], [ -118.148922193290318, 34.191170825078096 ], [ -118.148531192229612, 34.192009824967151 ], [ -118.148413193133266, 34.192246824716676 ], [ -118.148126192750141, 34.192852825498768 ], [ -118.14804819279361, 34.1930208249562 ], [ -118.14789119294737, 34.193350824346844 ], [ -118.14772619351848, 34.193713825756639 ], [ -118.147706192869876, 34.193756824393276 ], [ -118.147332193363084, 34.194558825108288 ] ] ] } },
{ "type": "Feature", "properties": { "OBJECTID_left": 23460, "BG20": "4603024", "CT20": "460302", "LABEL": "BG 4", "ShapeSTArea": 3149607.9949038634, "ShapeSTLength": 9494.9824952049621, "oaks_count_x": 1, "oaks_count_y": 1, "oaks_count": 1, "index_right": 0, "OBJECTID_right": 4, "dbgis_USER2_DIST_DRP_CITY_C_2": 244113957.90774408, "PERIMETER": 95045.302682900001, "GPLAN_INDEX2_": null, "GPLAN_INDEX2_ID": null, "CITY": null, "CITYNAME_ALF": null, "SYMBOL_COLORNAME": null, "COMP_NO": null, "TYPE": "COMMUNITY", "ADOPTED": "07-10-86", "SYMBOL": 83.0, "NAME": "ALTADENA", "ACRES": 5604.0629350999998, "CITY_COMM_NAME": "ALTADENA", "ZCIP_PHASE": null, "SQ_MILES": 8.75634834, "JURISDICTION": "UNINCORPORATED AREA", "area_1": null, "dbgis_USER2_DIST_DRP_CITY_C_20": null, "GlobalID": "8664fd7c-b3a9-4bb0-b563-b1a3fc1e9a2c" }, "geometry": { "type": "Polygon", "coordinates": [ [ [ -118.154964193574884, 34.194570825003851 ], [ -118.155632194473654, 34.194787825315245 ], [ -118.156172194963602, 34.194962825317809 ], [ -118.158776195493218, 34.195799824635934 ], [ -118.158882195702716, 34.195837824770081 ], [ -118.15882319502559, 34.194497823799701 ], [ -118.158788194132683, 34.193442825034332 ], [ -118.158768194339387, 34.193350823814015 ], [ -118.158752194158978, 34.193248824762506 ], [ -118.158718194895201, 34.19231882386633 ], [ -118.158673194385443, 34.191115824703708 ], [ -118.15867819512799, 34.191021824433228 ], [ -118.157701194372294, 34.190717823571063 ], [ -118.15687219456575, 34.190459824686471 ], [ -118.154664194215073, 34.189757824270323 ], [ -118.15447519425399, 34.189691823927397 ], [ -118.154414194409952, 34.189658824610078 ], [ -118.153644193699918, 34.189416824249875 ], [ -118.152913194209631, 34.189184824481195 ], [ -118.151416192544062, 34.188710824183737 ], [ -118.150271192865048, 34.188346824266027 ], [ -118.150044192761428, 34.188837825096442 ], [ -118.149784193154872, 34.189398824325622 ], [ -118.149380193549291, 34.190260824912222 ], [ -118.149328193004422, 34.190333824836152 ], [ -118.149490193182871, 34.190381825135255 ], [ -118.152632194164923, 34.191386824518965 ], [ -118.153749193988844, 34.191735824542164 ], [ -118.154863194980891, 34.192090825008904 ], [ -118.155289194419623, 34.192226824897418 ], [ -118.155829194036272, 34.192397824508006 ], [ -118.155934194066077, 34.192441824593935 ], [ -118.155476194586115, 34.193432824346857 ], [ -118.154964193574884, 34.194570825003851 ] ] ] } },
{ "type": "Feature", "properties": { "OBJECTID_left": 23488, "BG20": "4611001", "CT20": "461100", "LABEL": "BG 1", "ShapeSTArea": 4202466.0990739409, "ShapeSTLength": 8340.3543504985628, "oaks_count_x": 1, "oaks_count_y": 1, "oaks_count": 1, "index_right": 0, "OBJECTID_right": 4, "dbgis_USER2_DIST_DRP_CITY_C_2": 244113957.90774408, "PERIMETER": 95045.302682900001, "GPLAN_INDEX2_": null, "GPLAN_INDEX2_ID": null, "CITY": null, "CITYNAME_ALF": null, "SYMBOL_COLORNAME": null, "COMP_NO": null, "TYPE": "COMMUNITY", "ADOPTED": "07-10-86", "SYMBOL": 83.0, "NAME": "ALTADENA", "ACRES": 5604.0629350999998, "CITY_COMM_NAME": "ALTADENA", "ZCIP_PHASE": null, "SQ_MILES": 8.75634834, "JURISDICTION": "UNINCORPORATED AREA", "area_1": null, "dbgis_USER2_DIST_DRP_CITY_C_20": null, "GlobalID": "8664fd7c-b3a9-4bb0-b563-b1a3fc1e9a2c" }, "geometry": { "type": "Polygon", "coordinates": [ [ [ -118.131406188976698, 34.187841826029469 ], [ -118.131564189856448, 34.187868824638315 ], [ -118.132717190124382, 34.188226825380085 ], [ -118.133815190440288, 34.188566825535347 ], [ -118.134187190190246, 34.188681825699071 ], [ -118.13465819022025, 34.188826824802682 ], [ -118.134828190169571, 34.188879825796 ], [ -118.136383190642448, 34.18935882515823 ], [ -118.136810190663141, 34.188458825444265 ], [ -118.137021191545202, 34.188011825443475 ], [ -118.137248191176511, 34.187493825736674 ], [ -118.137263190388509, 34.187462824880633 ], [ -118.13763719074008, 34.186660824756117 ], [ -118.138052191226279, 34.185779825059257 ], [ -118.138042190544354, 34.185686824561778 ], [ -118.138032190985399, 34.185572824687988 ], [ -118.138417190450326, 34.184779824908006 ], [ -118.138858190429929, 34.183872824066611 ], [ -118.135236189656723, 34.182715824782441 ], [ -118.133232189501655, 34.182091825224383 ], [ -118.131697190108596, 34.181589824305078 ], [ -118.131676189327337, 34.182080824798057 ], [ -118.131627189517928, 34.18318982491752 ], [ -118.131600190492321, 34.183776824294974 ], [ -118.131551189793441, 34.184626825227717 ], [ -118.131519189630012, 34.185658825061424 ], [ -118.131514189896805, 34.185838824861079 ], [ -118.131477189683594, 34.186741825482102 ], [ -118.131455189696126, 34.187286825169465 ], [ -118.131446189696646, 34.187530825428951 ], [ -118.131406188976698, 34.187841826029469 ] ] ] } },
{ "type": "Feature", "properties": { "OBJECTID_left": 23490, "BG20": "4611003", "CT20": "461100", "LABEL": "BG 3", "ShapeSTArea": 4698004.5857239487, "ShapeSTLength": 12328.892429287156, "oaks_count_x": 3, "oaks_count_y": 3, "oaks_count": 3, "index_right": 0, "OBJECTID_right": 4, "dbgis_USER2_DIST_DRP_CITY_C_2": 244113957.90774408, "PERIMETER": 95045.302682900001, "GPLAN_INDEX2_": null, "GPLAN_INDEX2_ID": null, "CITY": null, "CITYNAME_ALF": null, "SYMBOL_COLORNAME": null, "COMP_NO": null, "TYPE": "COMMUNITY", "ADOPTED": "07-10-86", "SYMBOL": 83.0, "NAME": "ALTADENA", "ACRES": 5604.0629350999998, "CITY_COMM_NAME": "ALTADENA", "ZCIP_PHASE": null, "SQ_MILES": 8.75634834, "JURISDICTION": "UNINCORPORATED AREA", "area_1": null, "dbgis_USER2_DIST_DRP_CITY_C_20": null, "GlobalID": "8664fd7c-b3a9-4bb0-b563-b1a3fc1e9a2c" }, "geometry": { "type": "Polygon", "coordinates": [ [ [ -118.138989192026116, 34.190204825770266 ], [ -118.13966919149631, 34.19041682562802 ], [ -118.139815191625701, 34.190462825299107 ], [ -118.141958191299793, 34.191131825283541 ], [ -118.142797191283307, 34.19140382516116 ], [ -118.143445191667482, 34.191612825060631 ], [ -118.143924192874437, 34.191767824403009 ], [ -118.143950191539687, 34.19177282491561 ], [ -118.144062192265451, 34.191786824894962 ], [ -118.144131192603382, 34.19178882433777 ], [ -118.144236192453747, 34.191780825208014 ], [ -118.144363191952579, 34.191755824794782 ], [ -118.144442192065867, 34.191727825379772 ], [ -118.1444611927529, 34.191718825237899 ], [ -118.144839192714954, 34.19153482498988 ], [ -118.1449011928798, 34.19150482529588 ], [ -118.145059192635387, 34.191427825432406 ], [ -118.145187192450081, 34.191380824679356 ], [ -118.145321192774873, 34.19134882528143 ], [ -118.145420192246675, 34.19134382451513 ], [ -118.145553192607494, 34.191348824922066 ], [ -118.145684192122459, 34.191369825272126 ], [ -118.146173192836272, 34.191523824605071 ], [ -118.146356192671405, 34.191582824949975 ], [ -118.147283192520547, 34.191880825342373 ], [ -118.148413193133266, 34.192246824716676 ], [ -118.148531192229612, 34.192009824967151 ], [ -118.148922193290318, 34.191170825078096 ], [ -118.149277193401176, 34.190404823905027 ], [ -118.149328193004422, 34.190333824836152 ], [ -118.149069193070488, 34.190257825121527 ], [ -118.148173193162236, 34.189968824796829 ], [ -118.147064192545656, 34.189611824731749 ], [ -118.145950193037393, 34.189258824245002 ], [ -118.14592719224089, 34.189323824480596 ], [ -118.145537192743589, 34.190152824476996 ], [ -118.144306192234282, 34.189755824994954 ], [ -118.142808192485674, 34.189271824188758 ], [ -118.143659192091903, 34.187478824054253 ], [ -118.144492191703861, 34.185687824587788 ], [ -118.143545191640328, 34.185384824951967 ], [ -118.142573191155179, 34.185074824450083 ], [ -118.141494191355719, 34.184728824202317 ], [ -118.141081190993177, 34.185626824582641 ], [ -118.140669191512117, 34.186520824993643 ], [ -118.139379191678941, 34.186115824043057 ], [ -118.138042190544354, 34.185686824561778 ], [ -118.138052191226279, 34.185779825059257 ], [ -118.13763719074008, 34.186660824756117 ], [ -118.137263190388509, 34.187462824880633 ], [ -118.137248191176511, 34.187493825736674 ], [ -118.137021191545202, 34.188011825443475 ], [ -118.136810190663141, 34.188458825444265 ], [ -118.136383190642448, 34.18935882515823 ], [ -118.136644191402695, 34.189439825311325 ], [ -118.13744319064763, 34.189716825316658 ], [ -118.137602191673068, 34.189760825005955 ], [ -118.137762191479482, 34.1898038253536 ], [ -118.138989192026116, 34.190204825770266 ] ] ] } },
{ "type": "Feature", "properties": { "OBJECTID_left": 23493, "BG20": "4612002", "CT20": "461200", "LABEL": "BG 2", "ShapeSTArea": 7764706.1296264539, "ShapeSTLength": 12898.202764976286, "oaks_count_x": 1, "oaks_count_y": 1, "oaks_count": 1, "index_right": 0, "OBJECTID_right": 4, "dbgis_USER2_DIST_DRP_CITY_C_2": 244113957.90774408, "PERIMETER": 95045.302682900001, "GPLAN_INDEX2_": null, "GPLAN_INDEX2_ID": null, "CITY": null, "CITYNAME_ALF": null, "SYMBOL_COLORNAME": null, "COMP_NO": null, "TYPE": "COMMUNITY", "ADOPTED": "07-10-86", "SYMBOL": 83.0, "NAME": "ALTADENA", "ACRES": 5604.0629350999998, "CITY_COMM_NAME": "ALTADENA", "ZCIP_PHASE": null, "SQ_MILES": 8.75634834, "JURISDICTION": "UNINCORPORATED AREA", "area_1": null, "dbgis_USER2_DIST_DRP_CITY_C_20": null, "GlobalID": "8664fd7c-b3a9-4bb0-b563-b1a3fc1e9a2c" }, "geometry": { "type": "Polygon", "coordinates": [ [ [ -118.104604184932455, 34.181638826064834 ], [ -118.105321185189482, 34.182023825698622 ], [ -118.105475184869434, 34.182120826078979 ], [ -118.105617185020378, 34.182229826205131 ], [ -118.105747185293751, 34.182348825622128 ], [ -118.105827184481981, 34.182435826436709 ], [ -118.105934185939816, 34.182573826610934 ], [ -118.106132185293902, 34.18289282662824 ], [ -118.106183185074926, 34.182877826367132 ], [ -118.106277185450267, 34.182865826469829 ], [ -118.106358185606211, 34.182870826385084 ], [ -118.107467185521642, 34.183005826792794 ], [ -118.107524185743031, 34.183229825569036 ], [ -118.107580184953818, 34.183410826679079 ], [ -118.107650186200715, 34.183587826027185 ], [ -118.107705185462052, 34.183703826669316 ], [ -118.107733185038512, 34.183760826286942 ], [ -118.107848185200666, 34.18394582709216 ], [ -118.107912185451084, 34.184034825967842 ], [ -118.108049185106012, 34.184208826304094 ], [ -118.108124185785783, 34.18429282616745 ], [ -118.10828218531347, 34.184452826521309 ], [ -118.108454185436131, 34.184604826550483 ], [ -118.108544185999747, 34.184675826147 ], [ -118.108734186129098, 34.184811826378166 ], [ -118.110640186391024, 34.18599282672956 ], [ -118.110684186231722, 34.185979826062358 ], [ -118.110837185968151, 34.185945826252791 ], [ -118.110993186272765, 34.185929826173627 ], [ -118.111179187122502, 34.185929826646309 ], [ -118.111350186549117, 34.184524825834863 ], [ -118.111514186457924, 34.183162826171383 ], [ -118.112133186273979, 34.183315826145353 ], [ -118.112348186128784, 34.183359826008953 ], [ -118.112567186558138, 34.183385825400755 ], [ -118.112714186181421, 34.183392825929658 ], [ -118.115635186960347, 34.183373825800139 ], [ -118.115853186671046, 34.18334782528494 ], [ -118.115828186700085, 34.18329482566574 ], [ -118.115797187292387, 34.183196825540733 ], [ -118.115668186828145, 34.182426824897945 ], [ -118.115502187181576, 34.181478825970679 ], [ -118.115454186473755, 34.181217825309282 ], [ -118.115434187138817, 34.181029825546837 ], [ -118.115429186385484, 34.180872825045327 ], [ -118.115437185757656, 34.180716825458276 ], [ -118.115467187149832, 34.180512826276875 ], [ -118.115512187393847, 34.180330825453446 ], [ -118.115563187021266, 34.180180825945307 ], [ -118.115627187063581, 34.180033825102534 ], [ -118.115832187001899, 34.17963382598758 ], [ -118.115867186318795, 34.17955082544502 ], [ -118.115874186184229, 34.179532825077032 ], [ -118.115911186878932, 34.179392825094403 ], [ -118.115926186051027, 34.179250824957165 ], [ -118.115917187029837, 34.178598825452667 ], [ -118.115901187434474, 34.178520825878302 ], [ -118.114412186858047, 34.178540825934327 ], [ -118.113263186513436, 34.178545825434114 ], [ -118.113002185341117, 34.178538825765067 ], [ -118.112295185943978, 34.178541825522643 ], [ -118.112081185251327, 34.178542825483731 ], [ -118.111724185959204, 34.178504826281277 ], [ -118.111382185659409, 34.17826182565755 ], [ -118.110473186138108, 34.177614825350098 ], [ -118.108934185517896, 34.176513825373021 ], [ -118.108733184610927, 34.176373825362916 ], [ -118.108476184681052, 34.176113825567995 ], [ -118.107077185071262, 34.175135825526922 ], [ -118.106742184300032, 34.175116825281556 ], [ -118.106369184418156, 34.175118825344761 ], [ -118.105477184330397, 34.175050826047041 ], [ -118.105161184936364, 34.178342825723561 ], [ -118.104926184368907, 34.180650826927142 ], [ -118.104885184375391, 34.180877826560518 ], [ -118.104826184082853, 34.181101826160223 ], [ -118.104748184279259, 34.181322826565115 ], [ -118.104703184631731, 34.181431825483976 ], [ -118.104604184932455, 34.181638826064834 ] ] ] } },
{ "type": "Feature", "properties": { "OBJECTID_left": 23494, "BG20": "4612003", "CT20": "461200", "LABEL": "BG 3", "ShapeSTArea": 7356547.9610686619, "ShapeSTLength": 12666.725038920706, "oaks_count_x": 1, "oaks_count_y": 1, "oaks_count": 1, "index_right": 0, "OBJECTID_right": 4, "dbgis_USER2_DIST_DRP_CITY_C_2": 244113957.90774408, "PERIMETER": 95045.302682900001, "GPLAN_INDEX2_": null, "GPLAN_INDEX2_ID": null, "CITY": null, "CITYNAME_ALF": null, "SYMBOL_COLORNAME": null, "COMP_NO": null, "TYPE": "COMMUNITY", "ADOPTED": "07-10-86", "SYMBOL": 83.0, "NAME": "ALTADENA", "ACRES": 5604.0629350999998, "CITY_COMM_NAME": "ALTADENA", "ZCIP_PHASE": null, "SQ_MILES": 8.75634834, "JURISDICTION": "UNINCORPORATED AREA", "area_1": null, "dbgis_USER2_DIST_DRP_CITY_C_20": null, "GlobalID": "8664fd7c-b3a9-4bb0-b563-b1a3fc1e9a2c" }, "geometry": { "type": "Polygon", "coordinates": [ [ [ -118.115901187434474, 34.178520825878302 ], [ -118.115917187029837, 34.178598825452667 ], [ -118.115926186051027, 34.179250824957165 ], [ -118.115911186878932, 34.179392825094403 ], [ -118.115874186184229, 34.179532825077032 ], [ -118.115867186318795, 34.17955082544502 ], [ -118.115832187001899, 34.17963382598758 ], [ -118.115627187063581, 34.180033825102534 ], [ -118.115563187021266, 34.180180825945307 ], [ -118.115512187393847, 34.180330825453446 ], [ -118.115467187149832, 34.180512826276875 ], [ -118.115437185757656, 34.180716825458276 ], [ -118.115429186385484, 34.180872825045327 ], [ -118.115434187138817, 34.181029825546837 ], [ -118.115454186473755, 34.181217825309282 ], [ -118.115502187181576, 34.181478825970679 ], [ -118.115668186828145, 34.182426824897945 ], [ -118.115797187292387, 34.183196825540733 ], [ -118.115828186700085, 34.18329482566574 ], [ -118.115853186671046, 34.18334782528494 ], [ -118.115635186960347, 34.183373825800139 ], [ -118.112714186181421, 34.183392825929658 ], [ -118.112567186558138, 34.183385825400755 ], [ -118.112348186128784, 34.183359826008953 ], [ -118.112133186273979, 34.183315826145353 ], [ -118.111514186457924, 34.183162826171383 ], [ -118.111350186549117, 34.184524825834863 ], [ -118.111179187122502, 34.185929826646309 ], [ -118.113032187110036, 34.18591982601184 ], [ -118.114852186129724, 34.18590982652541 ], [ -118.117270186515285, 34.185894826403214 ], [ -118.118315188132897, 34.185888825995121 ], [ -118.118518186787938, 34.185887825802162 ], [ -118.120540187672091, 34.185874826318859 ], [ -118.123157187819658, 34.185857825972221 ], [ -118.123240188339537, 34.185849825989379 ], [ -118.123230188517766, 34.184054825019281 ], [ -118.123224187865929, 34.182860824973474 ], [ -118.123220187997688, 34.182131825556489 ], [ -118.123218187270126, 34.181877825645806 ], [ -118.12321418868332, 34.180898825283073 ], [ -118.123220187309769, 34.180767825767411 ], [ -118.123217187584999, 34.180413825416032 ], [ -118.123208188230308, 34.180254825191945 ], [ -118.123205187955875, 34.179751825153929 ], [ -118.123197187811755, 34.178471824708559 ], [ -118.121527187184327, 34.178484824842513 ], [ -118.118425186883698, 34.178499825558788 ], [ -118.11811618658254, 34.178504825597059 ], [ -118.116670186911037, 34.178514825190163 ], [ -118.115901187434474, 34.178520825878302 ] ] ] } },
{ "type": "Feature", "properties": { "OBJECTID_left": 23495, "BG20": "4612004", "CT20": "461200", "LABEL": "BG 4", "ShapeSTArea": 6880878.5548649551, "ShapeSTLength": 10497.739983919344, "oaks_count_x": 1, "oaks_count_y": 1, "oaks_count": 1, "index_right": 0, "OBJECTID_right": 4, "dbgis_USER2_DIST_DRP_CITY_C_2": 244113957.90774408, "PERIMETER": 95045.302682900001, "GPLAN_INDEX2_": null, "GPLAN_INDEX2_ID": null, "CITY": null, "CITYNAME_ALF": null, "SYMBOL_COLORNAME": null, "COMP_NO": null, "TYPE": "COMMUNITY", "ADOPTED": "07-10-86", "SYMBOL": 83.0, "NAME": "ALTADENA", "ACRES": 5604.0629350999998, "CITY_COMM_NAME": "ALTADENA", "ZCIP_PHASE": null, "SQ_MILES": 8.75634834, "JURISDICTION": "UNINCORPORATED AREA", "area_1": null, "dbgis_USER2_DIST_DRP_CITY_C_20": null, "GlobalID": "8664fd7c-b3a9-4bb0-b563-b1a3fc1e9a2c" }, "geometry": { "type": "Polygon", "coordinates": [ [ [ -118.123240188339537, 34.185849825989379 ], [ -118.12332318845101, 34.185840825250175 ], [ -118.124477188851714, 34.185835826105105 ], [ -118.12585118836968, 34.185830825256829 ], [ -118.127372188958475, 34.185823824886945 ], [ -118.128516189250774, 34.185821825078449 ], [ -118.128629189050315, 34.185851825130875 ], [ -118.12991618987418, 34.185842825418085 ], [ -118.131514189896805, 34.185838824861079 ], [ -118.131519189630012, 34.185658825061424 ], [ -118.131551189793441, 34.184626825227717 ], [ -118.131600190492321, 34.183776824294974 ], [ -118.131627189517928, 34.18318982491752 ], [ -118.131676189327337, 34.182080824798057 ], [ -118.131697190108596, 34.181589824305078 ], [ -118.13174818933409, 34.180482824294202 ], [ -118.131765189631977, 34.180277824573963 ], [ -118.131794189833229, 34.179560823966469 ], [ -118.131840188568248, 34.178443824188122 ], [ -118.13161818955507, 34.17841182360668 ], [ -118.129676188897619, 34.178422824867631 ], [ -118.128569188986546, 34.178428824471624 ], [ -118.128094188481114, 34.17843182390888 ], [ -118.127843187799797, 34.17843982461843 ], [ -118.127316188712228, 34.178438824469836 ], [ -118.125389187996035, 34.178460824528187 ], [ -118.125254188280735, 34.178457824375847 ], [ -118.125174188282458, 34.178455824660119 ], [ -118.123197187811755, 34.178471824708559 ], [ -118.123205187955875, 34.179751825153929 ], [ -118.123208188230308, 34.180254825191945 ], [ -118.123217187584999, 34.180413825416032 ], [ -118.123220187309769, 34.180767825767411 ], [ -118.12321418868332, 34.180898825283073 ], [ -118.123218187270126, 34.181877825645806 ], [ -118.123220187997688, 34.182131825556489 ], [ -118.123224187865929, 34.182860824973474 ], [ -118.123230188517766, 34.184054825019281 ], [ -118.123240188339537, 34.185849825989379 ] ] ] } }
]
}
